,businessname,fulladdress,latitude,longitude,inspectionidnumber,dateofinspection,inspectiontype,inspectionscore
0,1010 WASHINGTON WINE & SPIRITS,1010 WASHINGTON AVE S,44.97659,-93.25502,"[[44314, 189485]]","[['2017/01/27', '2019/02/06']]","[['Routine', 'Routine']]","[[96, 96]]"
1,112 EATERY,112 3RD ST N,44.98266,-93.27156,"[[44334, 224449, 224448, 270458, 270457]]","[['2017/08/31', '2017/10/06', '2018/08/31', '2018/10/01', '2019/08/30']]","[['Routine', 'Follow-Up', 'Routine', 'Follow-Up', 'Routine']]","[[80, 96, 84, 100, 94]]"
2,1ST WOK LAKESIDE,3236 LAKE ST W,44.94913,-93.32083,"[[44398, 228784, 228783, 276701, 276700]]","[['2017/10/10', '2017/12/12', '2018/10/18', '2018/11/27', '2019/10/18']]","[['Routine', 'Follow-Up', 'Routine', 'Follow-Up', 'Routine']]","[[96, 100, 72, 96, 96]]"
3,4 BELLS,1610 HARMON PL,44.97172,-93.28552,"[[44544, 200509, 200508, 252481, 252480, 313917]]","[['2017/05/25', '2017/06/30', '2018/06/07', '2018/07/12', '2019/06/11', '2019/07/09']]","[['Routine', 'Follow-Up', 'Routine', 'Follow-Up', 'Routine', 'Follow-Up']]","[[92, 100, 90, 100, 84, 94]]"
4,5-8 CLUB,5800 CEDAR AVE S,44.89773,-93.248,"[[44620, 229830, 229829, 277908, 277907]]","[['2017/10/17', '2017/12/14', '2018/10/30', '2018/11/29', '2019/10/30']]","[['Routine', 'Follow-Up', 'Routine', 'Follow-Up', 'Routine']]","[[96, 98, 98, 98, 94]]"
5,7 - THE SKYBAR,700 HENNEPIN AVE,44.97801,-93.27548,"[[44730, 196602, 249194]]","[['2017/04/21', '2018/05/01', '2019/05/03']]","[['Routine', 'Routine', 'Routine']]","[[100, 100, 100]]"
6,7 SEVEN,700 HENNEPIN AVE,44.97801,-93.27548,"[[44716, 192035, 249180, 253687, 258138, 249179, 310089, 313146]]","[['2017/02/28', '2018/05/01', '2018/06/26', '2018/07/25', '2018/08/31', '2019/05/03', '2019/05/30', '2019/06/27']]","[['Routine', 'Routine', 'Follow-Up', 'Follow-Up', 'Follow-Up', 'Routine', 'Follow-Up', 'Follow-Up']]","[[94, 94, 94, 94, 92, 86, 86, 92]]"
7,801 CHOP HOUSE,801 NICOLLET MALL,44.97559,-93.2728,"[[337401, 341655]]","[['2020/01/16', '2020/01/29']]","[['Routine', 'Follow-Up']]","[[76, 96]]"
8,8TH STREET GRILL & TAVERN,800 MARQUETTE AVE,44.97559,-93.2728,"[[44781, 200977, 200976, 251758, 310357]]","[['2017/05/30', '2017/07/12', '2018/05/22', '2019/05/14', '2019/06/13']]","[['Routine', 'Follow-Up', 'Routine', 'Routine', 'Follow-Up']]","[[94, 100, 96, 90, 96]]"
9,A LA SALSA RESTAURANT,920 LAKE ST E #155,44.94931,-93.26076,"[[32331, 191472, 243457]]","[['2017/02/21', '2018/02/20', '2019/02/21']]","[['Routine', 'Routine', 'Routine']]","[[100, 98, 94]]"
10,A SLICE OF NEW YORK,2407 NICOLLET AVE,44.95892,-93.27745,"[[51319, 201078, 201077, 251943, 251942, 313461]]","[['2017/06/06', '2017/07/13', '2018/06/04', '2018/07/24', '2019/06/06', '2019/07/24']]","[['Routine', 'Follow-Up', 'Routine', 'Follow-Up', 'Routine', 'Follow-Up']]","[[86, 100, 90, 96, 90, 98]]"
11,ADELITAS MEXICAN RESTAURANT,2405 CENTRAL AVE NE,45.01243,-93.24694,"[[124215, 124214, 232693, 232692, 278430, 336509]]","[['2017/04/27', '2017/11/03', '2017/12/15', '2018/10/25', '2019/10/25', '2019/12/06']]","[['Follow-Up', 'Routine', 'Follow-Up', 'Routine', 'Routine', 'Follow-Up']]","[[100, 96, 100, 92, 88, 98]]"
12,AFRO DELI AND COFFEE LLC,720 WASHINGTON AVE SE,44.97333,-93.22759,"[[191908, 197629, 249117, 253691, 249116]]","[['2017/05/03', '2018/05/02', '2018/06/29', '2018/08/10', '2019/05/01']]","[['Routine', 'Routine', 'Follow-Up', 'Follow-Up', 'Routine']]","[[94, 80, 90, 100, 98]]"
13,AGRA CULTURE,3717 50TH ST W,44.91218,-93.3274,"[[51862, 181245, 51863, 228030, 236466, 281362, 281361]]","[['2017/01/04', '2017/02/22', '2017/10/04', '2017/11/07', '2018/12/11', '2019/02/12', '2020/01/02']]","[['Follow-Up', 'Follow-Up', 'Routine', 'Follow-Up', 'Routine', 'Follow-Up', 'Routine']]","[[94, 96, 76, 88, 90, 98, 98]]"
14,AGRA CULTURE,2939 GIRARD AVE S,44.94885,-93.29663,"[[11079, 242989, 291219]]","[['2017/10/28', '2019/01/15', '2020/01/09']]","[['Routine', 'Routine', 'Routine']]","[[100, 96, 94]]"
15,AKWAABA,1823 NICOLLET AVE,44.96459,-93.27744,"[[52038, 197554, 197553, 247742]]","[['2017/04/28', '2017/06/29', '2018/04/10', '2019/04/15']]","[['Routine', 'Follow-Up', 'Routine', 'Routine']]","[[98, 100, 98, 100]]"
16,ALL SQUARE,4047 MINNEHAHA AVE,44.92893,-93.2196,"[[270812, 280351]]","[['2018/11/27', '2019/11/27']]","[['Routine', 'Routine']]","[[94, 92]]"
17,ALLIES RAND DELI & CATERING,527 MARQUETTE AVE,44.97733,-93.26956,"[[59158, 228216, 228215, 275134, 275133]]","[['2017/10/06', '2017/11/06', '2018/10/09', '2018/12/06', '2019/10/09']]","[['Routine', 'Follow-Up', 'Routine', 'Follow-Up', 'Routine']]","[[88, 100, 90, 100, 100]]"
18,ALS BREAKFAST,413 14TH AVE SE,44.98101,-93.23569,"[[59243, 201208, 205347, 201207, 252901, 252900, 314465]]","[['2017/06/02', '2017/07/18', '2017/09/20', '2018/06/18', '2018/08/01', '2019/06/18', '2019/07/23']]","[['Routine', 'Follow-Up', 'Follow-Up', 'Routine', 'Follow-Up', 'Routine', 'Follow-Up']]","[[80, 92, 98, 90, 96, 90, 94]]"
19,AMAZING THAILAND,3024 HENNEPIN AVE,44.94744,-93.29867,"[[59348, 229841, 236553, 242956, 229840, 276983, 276982]]","[['2017/10/13', '2017/12/19', '2018/02/12', '2018/03/21', '2018/10/19', '2018/11/30', '2019/10/31']]","[['Routine', 'Follow-Up', 'Follow-Up', 'Follow-Up', 'Routine', 'Follow-Up', 'Routine']]","[[82, 90, 90, 100, 88, 100, 96]]"
20,AMORE UPTOWN,1601 LAKE ST W,44.94807,-93.30246,"[[10452, 10453, 223052, 230519, 223051, 271524, 277706, 271523]]","[['2017/01/26', '2017/08/23', '2017/10/19', '2017/12/22', '2018/09/07', '2018/10/26', '2018/12/21', '2019/09/06']]","[['Follow-Up', 'Routine', 'Follow-Up', 'Follow-Up', 'Routine', 'Follow-Up', 'Follow-Up', 'Routine']]","[[96, 86, 94, 100, 92, 98, 98, 100]]"
21,AMYS CLASSIC CONFECTIONS,625 MARQUETTE AVE #230,44.97642,-93.27017,[[10489]],[['2018/06/11']],[['Routine']],[[100]]
22,ANDREA PIZZA,225 6TH ST S #A203,44.976,-93.26826,"[[10625, 203029, 203028, 254564]]","[['2017/06/29', '2017/07/17', '2018/07/12', '2019/07/01']]","[['Routine', 'Follow-Up', 'Routine', 'Routine']]","[[92, 100, 98, 92]]"
23,ANDREA PIZZA,811 LASALLE AVE #SUITE 202,44.97592,-93.27444,"[[10606, 204007, 290814]]","[['2017/07/12', '2019/01/16', '2019/02/14']]","[['Routine', 'Routine', 'Follow-Up']]","[[96, 88, 100]]"
24,ANELACE COFFEE,2402 CENTRAL AVE NE,45.01243,-93.24788,"[[10668, 201834, 253195, 253194]]","[['2017/06/16', '2018/06/14', '2018/08/10', '2019/06/14']]","[['Routine', 'Routine', 'Follow-Up', 'Routine']]","[[100, 90, 100, 98]]"
25,ANGEL'S FUN AREA,2800 1ST AVE S,44.95169,-93.27697,"[[241395, 251513, 279994, 311390]]","[['2018/05/23', '2018/11/20', '2019/05/21', '2019/11/21']]","[['Routine', 'Routine', 'Routine', 'Routine']]","[[98, 100, 100, 96]]"
26,ANNIES KITTY CAT KLUB,313 14TH AVE SE,44.98005,-93.23656,"[[10746, 188756, 242341, 242340, 294190, 294189]]","[['2017/01/12', '2018/02/07', '2018/03/14', '2019/01/29', '2019/03/20', '2020/01/29']]","[['Routine', 'Routine', 'Follow-Up', 'Routine', 'Follow-Up', 'Routine']]","[[100, 94, 100, 90, 96, 84]]"
27,APOY,4301 NICOLLET AVE,44.92488,-93.27754,[[280884]],[['2019/03/06']],[['Routine']],[[100]]
28,AREZZO RISTORANTE,5057 FRANCE AVE S,44.91098,-93.32866,"[[11054, 228738, 236557, 228737, 277679, 277678]]","[['2017/10/11', '2017/12/20', '2018/02/14', '2018/10/26', '2018/11/30', '2019/11/07']]","[['Routine', 'Follow-Up', 'Follow-Up', 'Routine', 'Follow-Up', 'Routine']]","[[84, 98, 100, 88, 100, 96]]"
29,ARIA AT THE JEUNE LUNE,105 1ST ST N,44.98471,-93.26873,"[[11086, 198067, 249338]]","[['2017/05/10', '2018/05/03', '2019/05/04']]","[['Routine', 'Routine', 'Routine']]","[[100, 100, 96]]"
30,ASTER CAFE,125 MAIN ST SE,44.98467,-93.25494,"[[18200, 191230, 243835, 303493]]","[['2017/02/23', '2018/02/27', '2019/03/04', '2019/04/10']]","[['Routine', 'Routine', 'Routine', 'Follow-Up']]","[[100, 100, 86, 96]]"
31,ATLAS RESTAURANT,200 6TH ST S #175,44.9769,-93.26762,"[[18222, 190055, 190054, 243459, 243458, 298700, 307946]]","[['2017/02/07', '2017/03/08', '2018/02/14', '2018/03/19', '2019/02/13', '2019/04/10', '2019/05/15']]","[['Routine', 'Follow-Up', 'Routine', 'Follow-Up', 'Routine', 'Follow-Up', 'Follow-Up']]","[[96, 96, 84, 100, 76, 92, 100]]"
32,BACON SOCIAL HOUSE,700 3RD ST S,44.97681,-93.2588,[[316212]],[['2019/09/17']],[['Routine']],[[100]]
33,BAGU SUSHI AND THAI,4741 CHICAGO AVE,44.91632,-93.26224,"[[249152, 249187, 254167, 270236, 278865, 287130, 249186, 314664, 337693]]","[['2018/05/07', '2018/07/09', '2018/08/30', '2018/10/29', '2018/12/27', '2019/05/17', '2019/06/17', '2019/11/21', '2019/12/05']]","[['Routine', 'Follow-Up', 'Follow-Up', 'Follow-Up', 'Follow-Up', 'Follow-Up', 'Routine', 'Follow-Up', 'Follow-Up']]","[[74, 84, 88, 94, 94, 98, 82, 84, 96]]"
34,BANANA BLOSSOM,1724 LOWRY AVE N,45.01346,-93.30162,"[[25177, 196462, 200895, 196461, 249097, 249096, 310485]]","[['2017/04/14', '2017/06/06', '2017/08/15', '2018/05/01', '2018/06/06', '2019/05/14', '2019/06/25']]","[['Routine', 'Follow-Up', 'Follow-Up', 'Routine', 'Follow-Up', 'Routine', 'Follow-Up']]","[[62, 86, 100, 90, 96, 84, 92]]"
35,BAND BOX,729 10TH ST S,44.96905,-93.26345,"[[25203, 231247, 231246, 277628, 335734]]","[['2017/10/17', '2017/11/15', '2018/10/17', '2019/10/17', '2019/11/18']]","[['Routine', 'Follow-Up', 'Routine', 'Routine', 'Follow-Up']]","[[90, 100, 90, 88, 96]]"
36,BAR BRAVA,1914 WASHINGTON AVE N,44.99867,-93.28137,"[[336280, 339983]]","[['2019/12/27', '2020/01/23']]","[['Routine', 'Follow-Up']]","[[82, 98]]"
37,BAR LA GRASSA,800 WASHINGTON AVE N #102,44.98953,-93.27869,"[[25271, 216880, 262751, 262750]]","[['2017/08/10', '2018/08/07', '2018/09/12', '2019/08/21']]","[['Routine', 'Routine', 'Follow-Up', 'Routine']]","[[92, 82, 94, 98]]"
38,BAR LUCHADOR,825 WASHINGTON AVE SE,44.97405,-93.22603,"[[25295, 203240, 203239, 253422, 253421, 314505]]","[['2017/06/29', '2017/07/25', '2018/06/25', '2018/07/24', '2019/06/25', '2019/07/24']]","[['Routine', 'Follow-Up', 'Routine', 'Follow-Up', 'Routine', 'Follow-Up']]","[[78, 100, 90, 96, 90, 100]]"
39,BAR ZIA,420 4TH ST S,44.9776,-93.26297,"[[124638, 236550, 236549, 286204, 286203, 341606]]","[['2017/12/20', '2018/02/12', '2018/12/20', '2019/01/25', '2020/01/14', '2020/01/30']]","[['Routine', 'Follow-Up', 'Routine', 'Follow-Up', 'Routine', 'Follow-Up']]","[[86, 94, 94, 96, 72, 100]]"
40,BARDO,222 HENNEPIN AVE E,44.98746,-93.25676,"[[230162, 241162, 241161, 292965, 292964]]","[['2018/01/04', '2018/04/06', '2019/01/17', '2019/03/14', '2020/01/22']]","[['Routine', 'Follow-Up', 'Routine', 'Follow-Up', 'Routine']]","[[80, 100, 80, 94, 86]]"
41,BARKALOW'S STORES,400 4TH ST S #110,44.97757,-93.26366,"[[30721, 233833]]","[['2017/11/21', '2019/11/19']]","[['Routine', 'Routine']]","[[100, 100]]"
42,BARRIO,925 NICOLLET MALL,44.9742,-93.27408,"[[30763, 202115, 202114, 253977, 253976, 314336]]","[['2017/06/19', '2017/07/14', '2018/06/22', '2018/07/25', '2019/06/25', '2019/07/22']]","[['Routine', 'Follow-Up', 'Routine', 'Follow-Up', 'Routine', 'Follow-Up']]","[[80, 96, 90, 96, 82, 86]]"
43,BEP EATERY,100 5TH ST S #210,44.97837,-93.26863,"[[31026, 229629, 229628, 274603, 331049]]","[['2017/10/06', '2017/11/22', '2018/10/05', '2019/10/02', '2019/10/31']]","[['Routine', 'Follow-Up', 'Routine', 'Routine', 'Follow-Up']]","[[78, 100, 94, 84, 98]]"
44,BEP EATERY,800 LASALLE AVE #211,44.97641,-93.27513,"[[227101, 230809, 230808, 305096]]","[['2017/10/17', '2017/12/12', '2018/10/11', '2019/10/09']]","[['Routine', 'Follow-Up', 'Routine', 'Routine']]","[[90, 100, 96, 96]]"
45,BERRY SWEET KITCHEN,5406 34TH AVE S,44.90504,-93.2233,"[[31089, 203206, 253516, 253514]]","[['2017/06/29', '2018/06/26', '2018/08/15', '2019/06/19']]","[['Routine', 'Routine', 'Follow-Up', 'Routine']]","[[100, 94, 96, 96]]"
46,BEST STEAK HOUSE,5455 NICOLLET AVE,44.90363,-93.27773,"[[124383, 124382, 235175, 286554]]","[['2017/01/24', '2017/12/07', '2018/12/11', '2019/12/12']]","[['Follow-Up', 'Routine', 'Routine', 'Routine']]","[[100, 100, 98, 98]]"
47,BETTY DANGERS COUNTRY CLUB,2501 MARSHALL ST NE,45.01343,-93.27132,"[[31177, 194191, 247597]]","[['2017/03/29', '2018/04/05', '2019/03/20']]","[['Routine', 'Routine', 'Routine']]","[[98, 96, 94]]"
48,BILLS GARDEN,4209 28TH AVE S,44.92652,-93.23175,"[[37835, 223124, 229325, 223123, 271354, 271353, 326154, 335054]]","[['2017/08/23', '2017/10/12', '2017/12/07', '2018/09/06', '2018/11/01', '2019/08/26', '2019/10/24', '2019/12/18']]","[['Routine', 'Follow-Up', 'Follow-Up', 'Routine', 'Follow-Up', 'Routine', 'Follow-Up', 'Follow-Up']]","[[80, 98, 100, 84, 100, 74, 88, 96]]"
49,BIRCHWOOD CAFE,3311 25TH ST E,44.95718,-93.2234,"[[37906, 37945, 197466, 203679, 251144, 251143, 249505, 273308, 310451]]","[['2017/05/01', '2017/05/05', '2018/05/14', '2018/05/14', '2018/07/10', '2019/05/13', '2019/05/13', '2019/06/23', '2019/07/03']]","[['Routine', 'Routine', 'Routine', 'Routine', 'Follow-Up', 'Routine', 'Routine', 'Routine', 'Follow-Up']]","[[98, 100, 88, 100, 98, 82, 100, 94, 96]]"
50,BLACK COFFEE & WAFFLE BAR,1500 COMO AVE SE,44.98769,-93.23008,"[[38051, 233045, 233044, 310593]]","[['2017/11/15', '2017/12/14', '2019/05/16', '2019/07/15']]","[['Routine', 'Follow-Up', 'Routine', 'Follow-Up']]","[[88, 100, 88, 100]]"
51,BLACK FOREST INN,1 26TH ST E,44.95534,-93.2776,"[[38098, 227016, 227033, 214812, 260328, 322510]]","[['2017/08/08', '2017/09/27', '2017/11/01', '2018/07/30', '2019/07/29', '2019/09/17']]","[['Routine', 'Follow-Up', 'Follow-Up', 'Routine', 'Routine', 'Follow-Up']]","[[94, 96, 100, 98, 86, 96]]"
52,BLACK SHEEP PIZZA,2550 NICOLLET AVE,44.95583,-93.2784,"[[38128, 190028, 190027, 241428, 241427, 292990, 292989]]","[['2017/01/25', '2017/04/19', '2018/01/18', '2018/02/20', '2019/01/23', '2019/03/13', '2020/01/23']]","[['Routine', 'Follow-Up', 'Routine', 'Follow-Up', 'Routine', 'Follow-Up', 'Routine']]","[[82, 96, 94, 96, 88, 98, 92]]"
53,BLARNEY PUB & GRILL,412 14TH AVE SE,44.98052,-93.23527,"[[309926, 317548, 317994, 324726]]","[['2019/04/26', '2019/07/17', '2019/08/19', '2019/09/26']]","[['Routine', 'Follow-Up', 'Follow-Up', 'Follow-Up']]","[[66, 84, 90, 92]]"
54,BLAZE PIZZA,1000 WASHINGTON AVE SE,44.97321,-93.22313,"[[38216, 205270, 254886, 254885]]","[['2017/07/17', '2018/07/18', '2018/08/20', '2019/07/18']]","[['Routine', 'Routine', 'Follow-Up', 'Routine']]","[[92, 92, 100, 92]]"
55,BLUE DOOR U,1514 COMO AVE SE,44.9876,-93.22964,"[[38247, 204368, 204367, 254812, 254811]]","[['2017/07/17', '2017/08/07', '2018/07/18', '2018/09/18', '2019/07/30']]","[['Routine', 'Follow-Up', 'Routine', 'Follow-Up', 'Routine']]","[[90, 100, 86, 100, 94]]"
56,BOILER ROOM COFFEE,1830 3RD AVE S,44.96431,-93.27313,"[[45078, 201291, 281373]]","[['2017/06/12', '2018/12/11', '2019/02/06']]","[['Routine', 'Routine', 'Follow-Up']]","[[96, 92, 100]]"
57,BOMBAY PALACE,701 HENNEPIN AVE,44.97767,-93.27455,"[[45208, 231649, 234860, 231648, 278678, 278677, 335277, 338376]]","[['2017/10/24', '2017/12/07', '2018/01/17', '2018/11/01', '2018/12/03', '2019/10/29', '2019/12/05', '2019/12/12']]","[['Routine', 'Follow-Up', 'Follow-Up', 'Routine', 'Follow-Up', 'Routine', 'Follow-Up', 'Follow-Up']]","[[66, 94, 100, 84, 100, 82, 90, 98]]"
58,BONA RESTAURANT,815 WASHINGTON AVE SE,44.97385,-93.22626,"[[45230, 203851, 203850, 255601, 265003, 255600, 320414]]","[['2017/07/11', '2017/08/03', '2018/07/23', '2018/08/10', '2018/08/16', '2019/07/23', '2019/08/29']]","[['Routine', 'Follow-Up', 'Routine', 'Follow-Up', 'Follow-Up', 'Routine', 'Follow-Up']]","[[76, 96, 70, 92, 94, 90, 100]]"
59,BONCHON,1414 LAKE ST W,44.94854,-93.29789,"[[270814, 279707, 279706]]","[['2018/11/09', '2018/12/12', '2019/11/18']]","[['Routine', 'Follow-Up', 'Routine']]","[[70, 94, 94]]"
60,BOROUGH,730 WASHINGTON AVE N #114/B02,44.98875,-93.2777,"[[45331, 192113, 192112, 247008, 249040, 251860, 247007, 308088]]","[['2017/03/06', '2017/04/25', '2018/03/29', '2018/05/01', '2018/05/30', '2018/07/12', '2019/04/10', '2019/05/16']]","[['Routine', 'Follow-Up', 'Routine', 'Follow-Up', 'Follow-Up', 'Follow-Up', 'Routine', 'Follow-Up']]","[[80, 96, 66, 86, 94, 100, 90, 98]]"
61,BRASA ROTISSERIE,600 HENNEPIN AVE E,44.98947,-93.2513,"[[45390, 202179, 202178, 253127, 258657, 253126, 313774]]","[['2017/06/13', '2017/08/02', '2018/06/12', '2018/07/26', '2018/08/27', '2019/06/12', '2019/07/25']]","[['Routine', 'Follow-Up', 'Routine', 'Follow-Up', 'Follow-Up', 'Routine', 'Follow-Up']]","[[88, 100, 90, 90, 94, 90, 92]]"
62,BREAKFAST BAR OF MN,319 1ST AVE N #100,44.98134,-93.27176,[[314801]],[['2019/08/30']],[['Routine']],[[98]]
63,BREAKING BREAD FOODS / KINDRED KITCHEN,1200 WEST BROADWAY,44.9994,-93.29608,"[[45495, 203776, 203775, 256262, 256261]]","[['2017/06/27', '2017/08/10', '2018/07/11', '2018/09/17', '2019/07/10']]","[['Routine', 'Follow-Up', 'Routine', 'Follow-Up', 'Routine']]","[[82, 100, 90, 100, 70]]"
64,BRIM,2919 KNOX AVE S,44.94858,-93.30461,"[[277942, 286877]]","[['2019/01/02', '2020/01/07']]","[['Routine', 'Routine']]","[[92, 94]]"
65,BROADWAY STATION,2025 WEST RIVER RD N,44.99979,-93.27788,"[[52373, 207392, 207391, 262134, 320015]]","[['2017/07/20', '2017/08/18', '2018/08/06', '2019/07/31', '2019/09/18']]","[['Routine', 'Follow-Up', 'Routine', 'Routine', 'Follow-Up']]","[[96, 100, 100, 84, 100]]"
66,BRODERS CUCINA ITALIANA,2308 50TH ST W,44.91261,-93.30907,"[[52412, 198018, 202059, 198017, 251254, 251253]]","[['2017/05/03', '2017/06/21', '2017/08/15', '2018/05/18', '2018/07/03', '2019/05/17']]","[['Routine', 'Follow-Up', 'Follow-Up', 'Routine', 'Follow-Up', 'Routine']]","[[88, 92, 100, 92, 96, 94]]"
67,BRODERS TERZO,2221 50TH ST W,44.91216,-93.30845,"[[52443, 199692, 199691, 251252, 254692, 251251]]","[['2017/05/15', '2017/06/21', '2018/05/18', '2018/07/03', '2018/09/06', '2019/05/17']]","[['Routine', 'Follow-Up', 'Routine', 'Follow-Up', 'Follow-Up', 'Routine']]","[[88, 100, 94, 94, 96, 96]]"
68,BRODERS' PASTA BAR,5000 PENN AVE S,44.91209,-93.30903,"[[52431, 199690, 199689, 251248, 251247]]","[['2017/05/15', '2017/06/21', '2018/05/18', '2018/07/03', '2019/05/17']]","[['Routine', 'Follow-Up', 'Routine', 'Follow-Up', 'Routine']]","[[90, 96, 94, 100, 96]]"
69,BROTHERS,430 1ST AVE N,44.98088,-93.27368,"[[52474, 203559, 254241, 254240]]","[['2017/07/05', '2018/07/05', '2018/07/25', '2019/07/15']]","[['Routine', 'Routine', 'Follow-Up', 'Routine']]","[[100, 96, 100, 92]]"
70,BROTHERS DELI,50 6TH ST S,44.97841,-93.27178,"[[52505, 192517, 196695, 192516, 246108, 246107, 307702]]","[['2017/03/07', '2017/04/24', '2017/06/01', '2018/03/15', '2018/04/17', '2019/03/26', '2019/04/25']]","[['Routine', 'Follow-Up', 'Follow-Up', 'Routine', 'Follow-Up', 'Routine', 'Follow-Up']]","[[82, 88, 100, 76, 96, 90, 100]]"
71,BRUEGGERS BAGEL BAKERY,228 HENNEPIN AVE E,44.98746,-93.25676,"[[52680, 190561, 189702, 254726]]","[['2017/01/13', '2017/03/21', '2018/07/16', '2020/01/09']]","[['Routine', 'Follow-Up', 'Routine', 'Routine']]","[[96, 100, 100, 98]]"
72,BRUEGGERS BAGEL BAKERY,720 WASHINGTON AVE SE,44.97333,-93.22759,"[[52632, 192079]]","[['2017/03/07', '2018/09/13']]","[['Routine', 'Routine']]","[[98, 98]]"
73,BRUEGGERS BAGEL BAKERY,651 NICOLLET MALL #139,44.97719,-93.27137,"[[52656, 209027, 227802, 233539, 209026]]","[['2017/07/31', '2017/10/05', '2017/11/21', '2018/01/12', '2019/01/25']]","[['Routine', 'Follow-Up', 'Follow-Up', 'Follow-Up', 'Routine']]","[[88, 90, 98, 100, 98]]"
74,BRYANT LAKE BOWL,810 LAKE ST W,44.94866,-93.29028,"[[277718, 287154, 287153]]","[['2019/01/08', '2019/02/12', '2020/01/08']]","[['Routine', 'Follow-Up', 'Routine']]","[[94, 98, 96]]"
75,BRYN MAWR MARKET,412 CEDAR LAKE RD S,44.97377,-93.30876,[[52748]],[['2018/06/08']],[['Routine']],[[96]]
76,BRYN MAWR PIZZA & DELI,404 CEDAR LAKE RD S,44.97377,-93.30876,"[[52765, 196368, 247285]]","[['2017/03/27', '2018/04/04', '2019/04/03']]","[['Routine', 'Routine', 'Routine']]","[[94, 94, 98]]"
77,BUCA DI BEPPO,1204 HARMON PL,44.974,-93.28005,"[[52811, 225698, 225697, 272062, 331111]]","[['2017/09/12', '2017/10/24', '2018/09/13', '2019/10/01', '2019/10/17']]","[['Routine', 'Follow-Up', 'Routine', 'Routine', 'Follow-Up']]","[[80, 96, 96, 82, 92]]"
78,"BULLDOG DOWNTOWN, THE",1111 HENNEPIN AVE,44.9748,-93.27937,"[[52877, 190079, 189461, 237332, 237331, 287215, 340287]]","[['2017/01/27', '2017/03/24', '2018/01/05', '2018/02/20', '2019/01/04', '2020/01/03', '2020/01/17']]","[['Routine', 'Follow-Up', 'Routine', 'Follow-Up', 'Routine', 'Routine', 'Follow-Up']]","[[96, 100, 90, 100, 96, 78, 82]]"
79,"BULLDOG RESTAURANT, THE",2549 LYNDALE AVE S,44.95589,-93.28762,"[[123829, 232087, 277676]]","[['2017/11/02', '2018/10/30', '2019/11/01']]","[['Routine', 'Routine', 'Routine']]","[[100, 96, 94]]"
80,BURCH STEAK & PIZZA BAR,1934 HENNEPIN AVE,44.96302,-93.29152,"[[52978, 203399, 266520]]","[['2017/06/29', '2018/07/17', '2019/08/21']]","[['Routine', 'Routine', 'Routine']]","[[98, 98, 96]]"
81,BURGER JONES,3200 LAKE ST W,44.94913,-93.32083,"[[59517, 193953, 247620, 247619]]","[['2017/03/23', '2018/04/04', '2018/05/14', '2019/04/17']]","[['Routine', 'Routine', 'Follow-Up', 'Routine']]","[[98, 94, 96, 100]]"
82,BURRIGATO,314 15TH AVE SE,44.97925,-93.23444,"[[205633, 237441, 237440, 286944, 340440]]","[['2018/01/02', '2018/02/27', '2019/01/04', '2020/01/08', '2020/02/03']]","[['Routine', 'Follow-Up', 'Routine', 'Routine', 'Follow-Up']]","[[88, 96, 96, 90, 100]]"
83,BURRITO LOCO,418 13TH AVE SE,44.9815,-93.23648,"[[59679, 194489, 198290, 194488, 248881, 252196, 254723, 248880, 309918]]","[['2017/04/04', '2017/05/09', '2017/07/06', '2018/04/18', '2018/06/04', '2018/07/16', '2018/09/07', '2019/04/30', '2019/06/14']]","[['Routine', 'Follow-Up', 'Follow-Up', 'Routine', 'Follow-Up', 'Follow-Up', 'Follow-Up', 'Routine', 'Follow-Up']]","[[76, 94, 94, 80, 92, 94, 98, 86, 92]]"
84,BUSTERS ON 28TH,4204 28TH AVE S,44.92668,-93.23249,"[[59723, 210176, 226811, 210175, 267112, 267111]]","[['2017/07/26', '2017/09/25', '2017/11/27', '2018/08/23', '2018/10/17', '2019/09/10']]","[['Routine', 'Follow-Up', 'Follow-Up', 'Routine', 'Follow-Up', 'Routine']]","[[62, 84, 98, 76, 98, 94]]"
85,BUTCHER & THE BOAR,1121 HENNEPIN AVE,44.97466,-93.27972,"[[59767, 226771, 226770, 275316, 275315, 332488]]","[['2017/09/25', '2017/11/06', '2018/10/02', '2018/11/07', '2019/10/03', '2019/10/31']]","[['Routine', 'Follow-Up', 'Routine', 'Follow-Up', 'Routine', 'Follow-Up']]","[[92, 100, 88, 100, 78, 100]]"
86,BUTTER BAKERY CAFE,3700 NICOLLET AVE,44.93549,-93.27839,"[[59813, 194315, 194314, 249091, 249090, 309676]]","[['2017/03/31', '2017/05/02', '2018/04/26', '2018/06/19', '2019/05/01', '2019/06/17']]","[['Routine', 'Follow-Up', 'Routine', 'Follow-Up', 'Routine', 'Follow-Up']]","[[90, 100, 92, 96, 94, 100]]"
87,C MCGEE'S DELI,901 3RD ST N #123,44.98907,-93.28192,"[[59908, 190564, 189940, 243245]]","[['2017/02/03', '2017/03/17', '2018/02/14', '2019/02/25']]","[['Routine', 'Follow-Up', 'Routine', 'Routine']]","[[86, 94, 96, 98]]"
88,C&G'S SMOKING BBQ,4743 NICOLLET AVE,44.9163,-93.27759,"[[214823, 254178, 262459, 254177, 314015]]","[['2018/06/19', '2018/08/02', '2018/10/11', '2019/06/19', '2019/07/26']]","[['Routine', 'Follow-Up', 'Follow-Up', 'Routine', 'Follow-Up']]","[[84, 96, 100, 84, 100]]"
89,CAFE & BAR LURCAT,1624 HARMON PL,44.97148,-93.28574,"[[124234, 124233, 234251, 234250, 285065]]","[['2017/03/03', '2017/11/29', '2018/01/03', '2018/12/17', '2019/12/18']]","[['Follow-Up', 'Routine', 'Follow-Up', 'Routine', 'Routine']]","[[100, 92, 100, 96, 100]]"
90,CAFE ENA,4601 GRAND AVE S,44.91943,-93.28408,"[[124460, 60047, 233965, 237538, 246618, 233964, 280688, 280687, 338714]]","[['2017/01/17', '2017/11/08', '2018/01/09', '2018/03/21', '2018/07/12', '2018/11/15', '2018/12/26', '2019/11/26', '2020/01/22']]","[['Follow-Up', 'Routine', 'Follow-Up', 'Follow-Up', 'Follow-Up', 'Routine', 'Follow-Up', 'Routine', 'Follow-Up']]","[[96, 72, 92, 92, 96, 82, 96, 80, 92]]"
91,CAFE PATTEEN,920 2ND AVE S,44.97325,-93.2721,"[[60156, 209017]]","[['2017/07/24', '2019/02/11']]","[['Routine', 'Routine']]","[[96, 96]]"
92,CAFE RACER KITCHEN,2929 25TH ST E,44.9572,-93.22864,"[[60174, 198405, 198404, 249157]]","[['2017/05/16', '2017/06/21', '2018/05/03', '2019/05/01']]","[['Routine', 'Follow-Up', 'Routine', 'Routine']]","[[86, 94, 92, 96]]"
93,CAJUN BOILING,1931 NICOLLET AVE,44.96284,-93.27744,"[[228100, 241561, 241560, 292978, 292977, 349780]]","[['2018/01/22', '2018/03/05', '2019/01/23', '2019/03/12', '2020/01/23', '2020/02/05']]","[['Routine', 'Follow-Up', 'Routine', 'Follow-Up', 'Routine', 'Follow-Up']]","[[84, 100, 94, 96, 78, 100]]"
94,CALIS VIETNAMESE RESTAURANT,648 BROADWAY ST NE,44.99851,-93.25589,"[[181039, 195150, 11317, 225573, 225572, 269234, 276644, 269233, 327615]]","[['2017/03/28', '2017/05/16', '2017/08/21', '2017/10/20', '2018/08/23', '2018/10/19', '2018/12/07', '2019/08/22', '2019/10/10']]","[['Follow-Up', 'Follow-Up', 'Routine', 'Follow-Up', 'Routine', 'Follow-Up', 'Follow-Up', 'Routine', 'Follow-Up']]","[[96, 100, 66, 96, 76, 86, 96, 80, 96]]"
95,CAMDI RESTAURANTS,1325 4TH ST SE,44.98097,-93.23602,"[[11379, 201994, 213751, 231962, 201993, 254111, 266291, 254110, 315036]]","[['2017/06/08', '2017/08/02', '2017/10/26', '2017/12/21', '2018/06/21', '2018/08/15', '2018/10/16', '2019/06/27', '2019/08/14']]","[['Routine', 'Follow-Up', 'Follow-Up', 'Follow-Up', 'Routine', 'Follow-Up', 'Follow-Up', 'Routine', 'Follow-Up']]","[[74, 74, 94, 98, 84, 98, 98, 82, 92]]"
96,CAMPUS CAFE,1810 RIVERSIDE AVE,44.97022,-93.2467,"[[233942, 237493, 287064, 287137]]","[['2018/01/11', '2019/01/10', '2019/02/06', '2020/01/13']]","[['Routine', 'Routine', 'Follow-Up', 'Routine']]","[[88, 86, 100, 96]]"
97,CAMPUS CLUB OF THE UNIV OF MN,300 WASHINGTON AVE SE,44.97302,-93.23473,"[[11416, 232200, 232199, 279329]]","[['2017/10/31', '2017/11/13', '2018/11/13', '2019/11/13']]","[['Routine', 'Follow-Up', 'Routine', 'Routine']]","[[84, 100, 100, 92]]"
98,CANDYLAND,811 LASALLE AVE,44.97592,-93.27444,"[[11470, 225575, 225574]]","[['2017/09/12', '2017/10/10', '2019/03/06']]","[['Routine', 'Follow-Up', 'Routine']]","[[90, 98, 100]]"
99,CAPITAL CAFE,2425 FRANKLIN AVE E,44.96248,-93.23692,"[[329360, 337340, 340124]]","[['2019/11/12', '2020/01/02', '2020/01/16']]","[['Routine', 'Follow-Up', 'Follow-Up']]","[[88, 90, 100]]"
100,CARAVELLE-PHO 79 RESTAURANT,2529 NICOLLET AVE,44.95633,-93.27747,"[[11615, 220029, 220028, 267889, 325798]]","[['2017/08/17', '2017/10/05', '2018/08/20', '2019/08/20', '2019/10/18']]","[['Routine', 'Follow-Up', 'Routine', 'Routine', 'Follow-Up']]","[[94, 100, 96, 90, 100]]"
101,CARBONES PIZZA ON THE PARKWAY,4705 CEDAR AVE S,44.91756,-93.2469,"[[11642, 190129, 244905, 244904, 303452, 303451]]","[['2017/02/09', '2018/02/22', '2018/04/04', '2019/03/04', '2019/04/15', '2020/02/03']]","[['Routine', 'Routine', 'Follow-Up', 'Routine', 'Follow-Up', 'Routine']]","[[98, 90, 98, 94, 100, 96]]"
102,CARGO FOOD AUTHORITY,600 1ST AVE N,44.97951,-93.27612,"[[280888, 298312]]","[['2019/02/07', '2020/02/05']]","[['Routine', 'Routine']]","[[98, 80]]"
103,CARIBOU COFFEE #178,200 6TH ST S,44.9769,-93.26762,"[[18798, 189230]]","[['2017/01/24', '2019/01/14']]","[['Routine', 'Routine']]","[[98, 98]]"
104,CARMA COFFEE,514 LOWRY AVE NE,45.01305,-93.25953,"[[18810, 228259, 275301]]","[['2017/10/03', '2018/10/09', '2019/10/03']]","[['Routine', 'Routine', 'Routine']]","[[100, 100, 96]]"
105,CARNICERIA VALERIES,3149 NICOLLET AVE,44.9452,-93.27753,"[[124311, 124118, 124310, 124117, 251664, 251663]]","[['2017/01/06', '2017/01/06', '2018/05/21', '2018/05/21', '2018/07/11', '2019/11/20']]","[['Follow-Up', 'Follow-Up', 'Routine', 'Routine', 'Follow-Up', 'Routine']]","[[100, 100, 96, 92, 98, 92]]"
106,CASPIAN BISTRO,2418 UNIVERSITY AVE SE,44.97317,-93.22218,"[[18952, 205094, 214842, 205093, 254199, 254198]]","[['2017/07/19', '2017/08/09', '2017/08/23', '2018/07/10', '2018/08/30', '2019/07/25']]","[['Routine', 'Follow-Up', 'Follow-Up', 'Routine', 'Follow-Up', 'Routine']]","[[86, 84, 96, 86, 96, 94]]"
107,CASPIAN MARKET PLACE,2418 UNIVERSITY AVE SE,44.97317,-93.22218,[[18957]],[['2018/07/10']],[['Routine']],[[100]]
108,CATHAY CHOW MEIN,5455 NICOLLET AVE,44.90363,-93.27773,"[[124284, 124283, 256208, 256207]]","[['2017/01/11', '2018/07/03', '2018/08/29', '2019/06/27']]","[['Follow-Up', 'Routine', 'Follow-Up', 'Routine']]","[[100, 86, 100, 92]]"
109,CAVE VIN,5555 XERXES AVE S,44.90186,-93.31846,"[[19039, 192555, 247073, 308106]]","[['2017/03/07', '2018/03/28', '2019/04/03', '2019/05/30']]","[['Routine', 'Routine', 'Routine', 'Follow-Up']]","[[100, 96, 82, 94]]"
110,CHATTERBOX PUB,2229 35TH ST E,44.93937,-93.23914,"[[25444, 199840, 205213, 199839, 253445, 266519, 275500, 285248, 296457, 253444]]","[['2017/05/22', '2017/07/17', '2017/09/19', '2018/06/26', '2018/08/15', '2018/10/12', '2018/12/11', '2019/02/08', '2019/04/11', '2019/07/22']]","[['Routine', 'Follow-Up', 'Follow-Up', 'Routine', 'Follow-Up', 'Follow-Up', 'Follow-Up', 'Follow-Up', 'Follow-Up', 'Routine']]","[[88, 88, 100, 92, 96, 96, 96, 96, 96, 94]]"
111,CHEESE LOUISE,4279 SHERIDAN AVE S,44.92482,-93.31413,[[310181]],[['2019/07/09']],[['Routine']],[[98]]
112,CHICAGO LAKE LIQUORS,825 LAKE ST E,44.94807,-93.26167,[[25743]],[['2018/06/05']],[['Routine']],[[100]]
113,CHIMBORAZO RESTAURANT,2851 CENTRAL AVE NE,45.02024,-93.24682,"[[25865, 231101, 277634]]","[['2017/10/26', '2018/10/25', '2019/10/25']]","[['Routine', 'Routine', 'Routine']]","[[94, 96, 100]]"
114,CHIN DIAN CAFE,1500 HENNEPIN AVE E,44.9913,-93.23038,"[[124095, 197675, 124094, 234480, 241465, 234479, 285916, 285915]]","[['2017/05/04', '2017/06/20', '2017/12/04', '2018/01/24', '2018/02/21', '2018/12/19', '2019/02/27', '2020/01/03']]","[['Follow-Up', 'Follow-Up', 'Routine', 'Follow-Up', 'Follow-Up', 'Routine', 'Follow-Up', 'Routine']]","[[94, 100, 96, 96, 98, 96, 96, 86]]"
115,CHINA EXPRESS,409 14TH AVE SE,44.98081,-93.23585,"[[233206, 266290, 275177, 266289]]","[['2018/08/15', '2018/09/25', '2018/11/14', '2019/08/15']]","[['Routine', 'Follow-Up', 'Follow-Up', 'Routine']]","[[96, 96, 100, 96]]"
116,CHINA KITCHEN,330 2ND AVE S #230,44.97927,-93.26702,"[[309344, 314424]]","[['2019/06/26', '2019/07/18']]","[['Routine', 'Follow-Up']]","[[90, 98]]"
117,CHINA MOON,2929 DUPONT AVE S,44.94886,-93.29281,"[[180446, 190430, 180445, 242306, 242056, 287217, 299660, 287216, 340537]]","[['2017/02/10', '2017/03/28', '2018/01/17', '2018/03/03', '2019/01/08', '2019/02/12', '2019/03/28', '2020/01/08', '2020/01/21']]","[['Follow-Up', 'Follow-Up', 'Routine', 'Follow-Up', 'Routine', 'Follow-Up', 'Follow-Up', 'Routine', 'Follow-Up']]","[[96, 98, 88, 100, 86, 92, 100, 86, 100]]"
118,CHINA WOK,2800 27TH AVE S,44.9518,-93.23336,"[[124359, 25916, 231479, 231478, 279611, 279610, 337059]]","[['2017/02/03', '2017/10/27', '2017/12/07', '2018/11/16', '2019/01/11', '2019/11/13', '2020/01/10']]","[['Follow-Up', 'Routine', 'Follow-Up', 'Routine', 'Follow-Up', 'Routine', 'Follow-Up']]","[[100, 90, 100, 96, 98, 76, 92]]"
119,CHINESE EXPRESS,121 LAKE ST E,44.948,-93.27576,"[[26000, 202177, 202176, 259375, 259374]]","[['2017/06/21', '2017/08/02', '2018/07/30', '2018/10/11', '2019/07/31']]","[['Routine', 'Follow-Up', 'Routine', 'Follow-Up', 'Routine']]","[[84, 100, 84, 100, 92]]"
120,CHINO LATINO,2916 HENNEPIN AVE,44.94859,-93.29867,"[[181178, 181177, 241250, 246348, 241249, 291033, 291032]]","[['2017/03/22', '2018/01/12', '2018/03/14', '2018/05/08', '2019/01/18', '2019/03/08', '2020/01/23']]","[['Follow-Up', 'Routine', 'Follow-Up', 'Follow-Up', 'Routine', 'Follow-Up', 'Routine']]","[[96, 72, 96, 100, 96, 98, 96]]"
121,CHIPOTLE MEXICAN GRILL,2600 HENNEPIN AVE,44.95528,-93.29748,"[[31360, 180927, 242478]]","[['2017/01/03', '2018/02/08', '2019/02/13']]","[['Routine', 'Routine', 'Routine']]","[[100, 96, 100]]"
122,CHIPOTLE MEXICAN GRILL,1040 NICOLLET MALL,44.97396,-93.27563,"[[31336, 192841, 245767]]","[['2017/03/17', '2018/03/09', '2019/03/06']]","[['Routine', 'Routine', 'Routine']]","[[92, 100, 100]]"
123,CHIPOTLE MEXICAN GRILL #21,800 WASHINGTON AVE SE,44.97341,-93.2268,"[[31384, 194027, 247153]]","[['2017/03/27', '2018/04/02', '2019/04/01']]","[['Routine', 'Routine', 'Routine']]","[[98, 100, 96]]"
124,CHOMPED GRILL,735 48TH ST E,44.91592,-93.26318,[[311411]],[['2019/07/22']],[['Routine']],[[100]]
125,CHRIS & ROBS CHICAGOS TASTE AUTHORITY,3101 42ND ST E,44.92668,-93.22671,"[[180845, 180844, 242171]]","[['2017/02/22', '2018/02/05', '2019/02/27']]","[['Follow-Up', 'Routine', 'Routine']]","[[100, 100, 96]]"
126,CHRISTOS,2632 NICOLLET AVE,44.95446,-93.27833,"[[31493, 213919, 263859, 263858, 322914]]","[['2017/08/08', '2018/08/08', '2018/09/28', '2019/08/08', '2019/09/26']]","[['Routine', 'Routine', 'Follow-Up', 'Routine', 'Follow-Up']]","[[100, 86, 100, 90, 98]]"
127,CLANCEYS MEATS & FISH,4307 UPTON AVE S,44.92414,-93.3145,"[[31866, 31894, 193017, 193014, 246798, 251000, 253836, 246796, 246797, 308224]]","[['2017/03/14', '2017/03/14', '2018/03/21', '2018/03/21', '2018/05/16', '2018/06/25', '2018/09/06', '2019/04/10', '2019/04/10', '2019/05/22']]","[['Routine', 'Routine', 'Routine', 'Routine', 'Follow-Up', 'Follow-Up', 'Follow-Up', 'Routine', 'Routine', 'Follow-Up']]","[[100, 96, 100, 78, 92, 90, 100, 94, 84, 96]]"
128,CLIFF N NORMS BAR,2024 WASHINGTON AVE N,45.00008,-93.28133,"[[31953, 193967]]","[['2017/03/10', '2018/03/26']]","[['Routine', 'Routine']]","[[100, 96]]"
129,CLUBHOUSE JAEGER,923 WASHINGTON AVE N,44.98992,-93.28075,"[[38284, 212557, 258143]]","[['2017/08/04', '2018/07/25', '2019/08/14']]","[['Routine', 'Routine', 'Routine']]","[[100, 98, 94]]"
130,COALITION RESTAURANT,3808 50TH ST W,44.91285,-93.32813,[[332695]],[['2019/10/15']],[['Routine']],[[100]]
131,COCINA LATINA,3764 NICOLLET AVE,44.93444,-93.27824,"[[38311, 194536, 194535, 247988, 247987]]","[['2017/04/05', '2017/05/04', '2018/04/11', '2018/06/04', '2019/04/23']]","[['Routine', 'Follow-Up', 'Routine', 'Follow-Up', 'Routine']]","[[96, 100, 82, 100, 98]]"
132,CODE BLU COFFEE,2620 FRANKLIN AVE E,44.96301,-93.23344,"[[236823, 243566]]","[['2018/02/21', '2019/08/20']]","[['Routine', 'Routine']]","[[96, 100]]"
133,COFFEE SHOP NORTHEAST,2852 JOHNSON ST NE,45.02017,-93.23749,"[[38358, 228240, 272326]]","[['2017/09/28', '2018/09/20', '2019/09/20']]","[['Routine', 'Routine', 'Routine']]","[[96, 100, 96]]"
134,COLITA,5400 PENN AVE S,44.90491,-93.30905,[[275361]],[['2019/01/28']],[['Routine']],[[100]]
135,COMMON ROOTS CAFE,2558 LYNDALE AVE S,44.9557,-93.28846,"[[38525, 223963, 271355, 330877]]","[['2017/08/24', '2018/09/06', '2019/09/30', '2019/11/25']]","[['Routine', 'Routine', 'Routine', 'Follow-Up']]","[[98, 100, 90, 100]]"
136,CONEXION AT OPEN BOOK,1011 WASHINGTON AVE S,44.97542,-93.25421,"[[38708, 191093, 245927]]","[['2017/02/22', '2018/02/28', '2019/02/28']]","[['Routine', 'Routine', 'Routine']]","[[100, 96, 100]]"
137,CONGA LATIN BISTRO,501 HENNEPIN AVE E,44.9893,-93.25348,"[[38727, 191293, 245745, 249234, 254371, 245744, 304332]]","[['2017/02/22', '2018/02/27', '2018/04/19', '2018/07/10', '2018/08/30', '2019/03/12', '2019/05/07']]","[['Routine', 'Routine', 'Follow-Up', 'Follow-Up', 'Follow-Up', 'Routine', 'Follow-Up']]","[[94, 78, 88, 96, 100, 88, 100]]"
138,CORNER BAR (THE),1501 WASHINGTON AVE S,44.97274,-93.24773,"[[38872, 227819, 272804]]","[['2017/09/12', '2018/09/19', '2019/09/18']]","[['Routine', 'Routine', 'Routine']]","[[98, 100, 98]]"
139,COSTA BLANCA BISTRO,2416 CENTRAL AVE NE,45.01276,-93.24788,"[[124917, 45565, 230957, 231733, 236887, 242006, 245171, 228252, 277393, 332690]]","[['2017/01/12', '2017/10/02', '2017/10/31', '2017/12/15', '2018/01/22', '2018/02/21', '2018/03/23', '2018/10/02', '2019/10/02', '2019/11/15']]","[['Follow-Up', 'Routine', 'Follow-Up', 'Follow-Up', 'Follow-Up', 'Follow-Up', 'Follow-Up', 'Routine', 'Routine', 'Follow-Up']]","[[96, 92, 98, 98, 98, 98, 100, 98, 84, 100]]"
140,COURTYARD MINNEAPOLIS DOWNTOWN,1500 WASHINGTON AVE S,44.97385,-93.24784,"[[45627, 45631, 189648, 242845, 236894]]","[['2017/01/31', '2017/12/21', '2018/02/06', '2019/02/11', '2019/12/20']]","[['Routine', 'Routine', 'Routine', 'Routine', 'Routine']]","[[96, 100, 100, 100, 100]]"
141,CRAVE,825 HENNEPIN AVE #222,44.97643,-93.27643,"[[45732, 201326, 201325, 263506, 263505, 321265]]","[['2017/06/12', '2017/07/18', '2018/08/07', '2018/09/26', '2019/08/05', '2019/09/09']]","[['Routine', 'Follow-Up', 'Routine', 'Follow-Up', 'Routine', 'Follow-Up']]","[[66, 100, 84, 100, 72, 92]]"
142,CRAVE CAFE,2100 SUMMER ST NE,44.99603,-93.23046,"[[181303, 236544, 236543, 286890]]","[['2017/12/21', '2018/02/03', '2018/12/21', '2020/01/02']]","[['Routine', 'Follow-Up', 'Routine', 'Routine']]","[[80, 100, 98, 94]]"
143,CREPE AND SPOON,339 22ND AVE NE,45.01032,-93.26248,"[[235486, 245156]]","[['2018/02/16', '2019/08/16']]","[['Routine', 'Routine']]","[[100, 100]]"
144,CREPES UP DELICIOUS,120 6TH ST S #211,44.97736,-93.26875,"[[45882, 232488, 276855]]","[['2017/11/08', '2018/10/23', '2019/10/21']]","[['Routine', 'Routine', 'Routine']]","[[92, 96, 96]]"
145,CRISP & GREEN,428 WASHINGTON AVE N,44.98619,-93.27411,"[[203686, 232479, 232478, 279484, 336903]]","[['2017/11/06', '2017/12/15', '2018/11/15', '2019/11/08', '2019/12/05']]","[['Routine', 'Follow-Up', 'Routine', 'Routine', 'Follow-Up']]","[[88, 96, 96, 84, 100]]"
146,CRISP & GREEN - DINKYTOWN,411 14TH AVE SE,44.98101,-93.23569,[[281500]],[['2019/02/26']],[['Routine']],[[96]]
147,"CROOKED PINT ALEHOUSE, THE",501 WASHINGTON AVE S,44.97837,-93.26124,"[[45985, 223646, 214806, 262132, 262131, 322141]]","[['2017/08/09', '2017/09/07', '2018/08/07', '2018/09/07', '2019/08/07', '2019/09/12']]","[['Routine', 'Follow-Up', 'Routine', 'Follow-Up', 'Routine', 'Follow-Up']]","[[84, 94, 96, 100, 82, 96]]"
148,CROWNE PLAZA - EXECUTIVE LOUNGE,618 2ND AVE S,44.97622,-93.26974,"[[46079, 202678, 285801]]","[['2017/06/28', '2018/02/14', '2019/02/12']]","[['Routine', 'Routine', 'Routine']]","[[100, 94, 98]]"
149,CROWNE PLAZA - KRONA BAR & GRILL,618 2ND AVE S,44.97622,-93.26974,"[[46063, 189934, 242957]]","[['2017/02/01', '2018/02/14', '2019/02/12']]","[['Routine', 'Routine', 'Routine']]","[[98, 96, 100]]"
150,CROWNE PLAZA NORTHSTAR,618 2ND AVE S,44.97622,-93.26974,"[[46061, 190563, 189900, 242983, 242982, 297621]]","[['2017/02/01', '2017/03/17', '2018/02/14', '2018/03/16', '2019/02/12', '2019/03/26']]","[['Routine', 'Follow-Up', 'Routine', 'Follow-Up', 'Routine', 'Follow-Up']]","[[90, 96, 74, 90, 90, 100]]"
151,CRYSTAL GARDEN,4711 HIAWATHA AVE,44.91764,-93.21581,"[[46113, 193944, 193943, 248336, 248335]]","[['2017/03/22', '2017/04/25', '2018/04/20', '2018/06/11', '2019/04/18']]","[['Routine', 'Follow-Up', 'Routine', 'Follow-Up', 'Routine']]","[[94, 98, 88, 100, 96]]"
152,CUPPA JAVA,400 PENN AVE S,44.9733,-93.30865,"[[53095, 201334, 251747]]","[['2017/05/26', '2018/05/29', '2019/05/30']]","[['Routine', 'Routine', 'Routine']]","[[100, 100, 92]]"
153,DAGWOODS,250 2ND AVE S #210,44.98025,-93.26627,"[[180790, 180789, 236873, 286462]]","[['2017/03/08', '2017/12/29', '2018/12/27', '2019/12/16']]","[['Follow-Up', 'Routine', 'Routine', 'Routine']]","[[100, 96, 100, 94]]"
154,DAKOTA JAZZ CLUB & RESTAURANT,1010 NICOLLET MALL,44.97396,-93.27563,"[[53615, 208358, 208357, 262464, 262463, 318017]]","[['2017/07/19', '2017/08/16', '2018/07/25', '2018/09/06', '2019/07/23', '2019/08/19']]","[['Routine', 'Follow-Up', 'Routine', 'Follow-Up', 'Routine', 'Follow-Up']]","[[80, 96, 86, 100, 88, 96]]"
155,DAN KELLY'S PUB,212 7TH ST S,44.97573,-93.26894,"[[124538, 39064, 207382, 226973, 232247, 207381, 263526, 323950]]","[['2017/04/03', '2017/07/25', '2017/09/26', '2017/11/06', '2017/12/19', '2018/08/10', '2019/08/13', '2019/10/08']]","[['Follow-Up', 'Routine', 'Follow-Up', 'Follow-Up', 'Follow-Up', 'Routine', 'Routine', 'Follow-Up']]","[[96, 62, 88, 92, 96, 92, 78, 94]]"
156,DANCING GANESHA,1100 HARMON PL,44.97428,-93.27887,"[[193524, 200000, 202527, 199999, 251425, 251424, 310496]]","[['2017/05/23', '2017/06/21', '2017/08/04', '2018/05/22', '2018/06/19', '2019/05/15', '2019/06/13']]","[['Routine', 'Follow-Up', 'Follow-Up', 'Routine', 'Follow-Up', 'Routine', 'Follow-Up']]","[[86, 90, 100, 86, 100, 86, 92]]"
157,DARBAR INDIA GRILL,1221 LAKE ST W #105,44.94814,-93.2951,"[[53745, 224385, 230772, 237380, 224384, 272210, 278488, 272209]]","[['2017/08/29', '2017/10/23', '2018/01/08', '2018/02/13', '2018/09/13', '2018/10/31', '2018/12/12', '2019/09/13']]","[['Routine', 'Follow-Up', 'Follow-Up', 'Follow-Up', 'Routine', 'Follow-Up', 'Follow-Up', 'Routine']]","[[84, 92, 96, 98, 66, 72, 94, 92]]"
158,DAVE THE PIE GUY,3544 GRAND AVE S,44.93799,-93.28465,"[[203941, 214007, 214006, 262842, 262841, 323766]]","[['2017/08/08', '2017/09/07', '2018/08/08', '2018/10/17', '2019/08/09', '2019/09/10']]","[['Routine', 'Follow-Up', 'Routine', 'Follow-Up', 'Routine', 'Follow-Up']]","[[72, 96, 96, 96, 82, 96]]"
159,DAVES DOWNTOWN,900 2ND AVE S #230,44.9737,-93.27186,"[[60404, 202521, 202520, 253367, 253366, 314556]]","[['2017/06/20', '2017/08/07', '2018/06/22', '2018/07/25', '2019/06/25', '2019/07/22']]","[['Routine', 'Follow-Up', 'Routine', 'Follow-Up', 'Routine', 'Follow-Up']]","[[92, 100, 90, 100, 86, 96]]"
160,DAY BLOCK BREWING COMPANY,1105 WASHINGTON AVE S,44.97493,-93.25307,"[[60422, 191853, 191852, 245409, 245408, 303471]]","[['2017/02/20', '2017/04/21', '2018/02/27', '2018/04/04', '2019/03/05', '2019/04/15']]","[['Routine', 'Follow-Up', 'Routine', 'Follow-Up', 'Routine', 'Follow-Up']]","[[82, 100, 92, 100, 94, 94]]"
161,DLA PIPER,80 8TH ST S,44.97609,-93.27207,[[253450]],[['2018/09/05']],[['Routine']],[[100]]
162,DOMINGUEZ FAMILY RESTAURANT,3313 50TH ST E,44.91231,-93.2236,"[[180841, 180840, 237401, 287827, 340700]]","[['2017/02/21', '2018/01/09', '2019/01/10', '2020/01/10', '2020/01/23']]","[['Follow-Up', 'Routine', 'Routine', 'Routine', 'Follow-Up']]","[[96, 98, 98, 88, 88]]"
163,DONG HAE KOREAN GRILL & SUSHI,251 1ST AVE N,44.9822,-93.27071,"[[12042, 181367, 190427, 181366, 242464, 247489, 242463, 294174, 307934, 309979, 294173, 348273]]","[['2017/01/12', '2017/02/13', '2017/03/14', '2018/02/06', '2018/04/04', '2018/05/15', '2019/01/25', '2019/03/27', '2019/05/04', '2019/06/06', '2020/01/21', '2020/02/03']]","[['Routine', 'Follow-Up', 'Follow-Up', 'Routine', 'Follow-Up', 'Follow-Up', 'Routine', 'Follow-Up', 'Follow-Up', 'Follow-Up', 'Routine', 'Follow-Up']]","[[82, 96, 98, 86, 92, 96, 76, 90, 90, 94, 78, 86]]"
164,DRAGON WOK,3752 NICOLLET AVE,44.93444,-93.27824,"[[12250, 181141, 181140, 240473, 243613, 240472, 293797, 304810, 293796]]","[['2017/01/03', '2017/03/08', '2018/01/09', '2018/02/12', '2018/03/26', '2019/01/22', '2019/03/19', '2019/05/01', '2020/01/15']]","[['Routine', 'Follow-Up', 'Routine', 'Follow-Up', 'Follow-Up', 'Routine', 'Follow-Up', 'Follow-Up', 'Routine']]","[[94, 96, 100, 100, 96, 94, 96, 94, 88]]"
165,DULONO'S PIZZA,118 4TH ST N,44.982,-93.27295,"[[198093, 209024, 265084]]","[['2017/07/27', '2018/08/15', '2019/08/16']]","[['Routine', 'Routine', 'Routine']]","[[92, 96, 98]]"
166,DUMPLING,4004 MINNEHAHA AVE,44.93021,-93.22158,"[[251140, 253690, 253689, 316496]]","[['2018/06/29', '2018/08/22', '2019/07/22', '2019/09/19']]","[['Routine', 'Follow-Up', 'Routine', 'Follow-Up']]","[[86, 100, 90, 100]]"
167,DUNN BROTHERS COFFEE,2550 NICOLLET AVE,44.95583,-93.2784,[[280908]],[['2019/01/29']],[['Routine']],[[94]]
168,DUNN BROTHERS COFFEE,337 WASHINGTON AVE N,44.98431,-93.27401,"[[315741, 330223]]","[['2019/09/19', '2019/10/09']]","[['Routine', 'Follow-Up']]","[[72, 96]]"
169,DUSTYS BAR,1319 MARSHALL ST NE,45.0009,-93.26983,"[[203738, 224889, 274265]]","[['2017/09/08', '2018/09/07', '2019/09/06']]","[['Routine', 'Routine', 'Routine']]","[[96, 100, 96]]"
170,EAST LAKE LIQUOR & DELI,3916 LAKE ST E,44.94863,-93.21564,"[[19898, 230557]]","[['2017/10/18', '2019/10/18']]","[['Routine', 'Routine']]","[[100, 100]]"
171,EASTSIDE EAT AND DRINK,305 WASHINGTON AVE S,44.97941,-93.26365,"[[19984, 181531, 252122, 252121, 313978]]","[['2017/01/17', '2018/06/06', '2018/08/30', '2019/06/17', '2019/08/13']]","[['Routine', 'Routine', 'Follow-Up', 'Routine', 'Follow-Up']]","[[94, 92, 100, 68, 98]]"
172,EAT STREET SOCIAL,18 26TH ST W,44.95583,-93.2784,"[[26051, 191911, 243570, 243569, 300572]]","[['2017/02/28', '2018/02/20', '2018/04/18', '2019/02/19', '2019/03/28']]","[['Routine', 'Routine', 'Follow-Up', 'Routine', 'Follow-Up']]","[[96, 90, 100, 84, 96]]"
173,EGG & I,2828 LYNDALE AVE S,44.95085,-93.28851,"[[26293, 181041, 242118, 295106]]","[['2017/01/03', '2018/02/01', '2019/02/04', '2020/02/04']]","[['Routine', 'Routine', 'Routine', 'Routine']]","[[100, 100, 94, 90]]"
174,EL BURRITO CUBANO,4729 LYNDALE AVE N,45.04112,-93.28709,"[[26368, 190983, 245391]]","[['2017/01/25', '2018/03/01', '2019/03/05']]","[['Routine', 'Routine', 'Routine']]","[[56, 96, 96]]"
175,EL CAFE RESTAURANTE Y BAR,4820 CHICAGO AVE,44.9154,-93.26303,"[[247307, 279671, 279670, 338801]]","[['2018/11/01', '2019/01/10', '2019/12/06', '2020/01/16']]","[['Routine', 'Follow-Up', 'Routine', 'Follow-Up']]","[[76, 98, 88, 94]]"
176,EL COMPA TAQUERIA,311 LAKE ST E,44.94819,-93.28341,"[[316328, 330009]]","[['2019/09/17', '2019/10/09']]","[['Routine', 'Follow-Up']]","[[84, 92]]"
177,EL JEFE COZINA & BAR,5309 LYNDALE AVE S,44.90616,-93.28761,"[[247308, 252930, 252929, 313817]]","[['2018/06/12', '2018/08/07', '2019/06/12', '2019/07/23']]","[['Routine', 'Follow-Up', 'Routine', 'Follow-Up']]","[[90, 98, 84, 98]]"
178,EL JEFE REDEFINING MEXICAN CUISINE,5309 LYNDALE AVE S,44.90616,-93.28761,"[[203713, 226775, 274046]]","[['2017/09/19', '2018/09/28', '2019/08/01']]","[['Routine', 'Routine', 'Routine']]","[[96, 100, 100]]"
179,EL NORTENO MARKET & DELI,4000 LAKE ST E,44.94859,-93.21503,"[[26497, 232482, 232481, 279494, 279493]]","[['2017/10/31', '2017/12/27', '2018/11/13', '2018/11/14', '2019/11/13']]","[['Routine', 'Follow-Up', 'Routine', 'Follow-Up', 'Routine']]","[[96, 98, 90, 94, 92]]"
180,EL NUEVO MARIACHI,2728 NICOLLET AVE,44.95275,-93.27842,"[[26523, 210169, 224765, 225701, 210168, 259650, 259649, 320002, 330221]]","[['2017/07/26', '2017/09/06', '2017/09/14', '2017/10/24', '2018/07/30', '2018/09/26', '2019/07/30', '2019/09/19', '2019/11/21']]","[['Routine', 'Follow-Up', 'Follow-Up', 'Follow-Up', 'Routine', 'Follow-Up', 'Routine', 'Follow-Up', 'Follow-Up']]","[[74, 82, 100, 100, 94, 94, 78, 88, 94]]"
181,"EL NUEVO RODEO, PARAISO LOUNGE, 27 EVENT",2709 LAKE ST E,44.94811,-93.23272,"[[26553, 190608, 181437, 243021, 247576, 243020]]","[['2017/01/11', '2017/03/31', '2018/02/12', '2018/04/06', '2018/06/08', '2019/03/05']]","[['Routine', 'Follow-Up', 'Routine', 'Follow-Up', 'Follow-Up', 'Routine']]","[[86, 98, 90, 90, 94, 96]]"
182,EL TACO RIENDO,2412 CENTRAL AVE NE,45.01267,-93.24788,"[[26675, 26679, 223600, 253700, 224883, 253699, 274270]]","[['2017/08/17', '2017/08/31', '2018/06/29', '2018/07/19', '2018/08/31', '2019/07/10', '2019/08/29']]","[['Routine', 'Routine', 'Routine', 'Follow-Up', 'Routine', 'Routine', 'Routine']]","[[100, 84, 88, 96, 100, 96, 100]]"
183,ELEMENT PIZZA,96 BROADWAY ST NE,44.99856,-93.26786,"[[32006, 191548]]","[['2017/03/01', '2018/09/13']]","[['Routine', 'Routine']]","[[96, 100]]"
184,EMILYS LEBANESE DELI,641 UNIVERSITY AVE NE,44.99567,-93.26118,"[[32290, 189618, 245374, 294810]]","[['2017/01/30', '2018/02/16', '2019/02/01', '2020/02/03']]","[['Routine', 'Routine', 'Routine', 'Routine']]","[[100, 96, 100, 98]]"
185,ERBERTS & GERBERT'S,316 15TH AVE SE,44.97939,-93.23441,"[[32456, 235005]]","[['2017/12/07', '2019/06/05']]","[['Routine', 'Routine']]","[[96, 94]]"
186,ERTE AND THE PEACOCK LOUNGE,323 13TH AVE NE,45.00115,-93.26337,"[[278779, 287852]]","[['2019/01/03', '2020/01/03']]","[['Routine', 'Routine']]","[[96, 92]]"
187,ESKER GROVE,725 VINELAND PL,44.96847,-93.2892,"[[46322, 205251, 205250, 254757]]","[['2017/07/11', '2017/09/20', '2018/07/10', '2019/07/19']]","[['Routine', 'Follow-Up', 'Routine', 'Routine']]","[[92, 100, 100, 100]]"
188,FABULOUS CATERING,2900 13TH AVE S,44.94991,-93.25667,"[[38980, 201694, 247483]]","[['2017/07/25', '2018/04/05', '2019/04/02']]","[['Routine', 'Routine', 'Routine']]","[[100, 100, 100]]"
189,FAIRGROUNDS COFFEE AND TEA,116 3RD AVE N,44.98611,-93.27078,"[[251623, 266626, 266625]]","[['2018/08/17', '2018/09/18', '2019/08/16']]","[['Routine', 'Follow-Up', 'Routine']]","[[68, 96, 100]]"
190,FALAFEL KING,3238 LAKE ST W,44.94913,-93.32083,"[[39126, 39102, 39127, 230324, 230323, 257394, 252009, 257393, 261266, 313703]]","[['2017/01/12', '2017/06/03', '2017/10/16', '2017/12/20', '2018/06/05', '2018/07/30', '2018/08/03', '2019/06/07', '2019/06/23', '2019/08/06']]","[['Follow-Up', 'Routine', 'Routine', 'Follow-Up', 'Routine', 'Follow-Up', 'Routine', 'Routine', 'Routine', 'Follow-Up']]","[[100, 100, 84, 92, 88, 100, 96, 78, 92, 100]]"
191,FAST EDDIES PIZZA,4747 NICOLLET AVE,44.9163,-93.27759,"[[252734, 253651, 253650, 313664, 315190]]","[['2018/06/19', '2018/08/02', '2019/06/12', '2019/07/10', '2019/08/06']]","[['Routine', 'Follow-Up', 'Routine', 'Follow-Up', 'Follow-Up']]","[[90, 100, 78, 90, 94]]"
192,FAT LORENZO'S,5600 CEDAR AVE S,44.90079,-93.24792,"[[181491, 237181, 237180, 287822, 287809]]","[['2018/01/05', '2018/03/02', '2019/01/10', '2019/02/27', '2020/01/13']]","[['Routine', 'Follow-Up', 'Routine', 'Follow-Up', 'Routine']]","[[96, 98, 98, 98, 86]]"
193,FIG + FARRO,3001 HENNEPIN AVE,44.94743,-93.29732,"[[237242, 247407, 251312, 247406, 331374]]","[['2018/03/29', '2018/05/22', '2018/06/26', '2019/10/01', '2019/11/25']]","[['Routine', 'Follow-Up', 'Follow-Up', 'Routine', 'Follow-Up']]","[[84, 84, 94, 84, 96]]"
194,FIKA,2600 PARK AVE,44.95521,-93.26581,"[[39395, 220611, 260336]]","[['2017/08/22', '2018/07/31', '2019/07/30']]","[['Routine', 'Routine', 'Routine']]","[[100, 94, 96]]"
195,FIRE BOX DELI,4707 LYNDALE AVE N,45.04058,-93.28734,"[[39443, 229351, 229350, 276375]]","[['2017/10/04', '2017/11/17', '2018/10/16', '2019/10/16']]","[['Routine', 'Follow-Up', 'Routine', 'Routine']]","[[80, 98, 100, 100]]"
196,FIREROAST CAFE,3800 37TH AVE S,44.93406,-93.21951,"[[46337, 193009, 246983, 246982]]","[['2017/03/07', '2018/03/26', '2018/05/16', '2019/03/19']]","[['Routine', 'Routine', 'Follow-Up', 'Routine']]","[[100, 96, 100, 98]]"
197,FIRST DRAFT TAPROOM & KITCHEN,324 6TH AVE N,44.98576,-93.27824,"[[249667, 271565, 329764]]","[['2018/09/11', '2019/09/12', '2019/10/10']]","[['Routine', 'Routine', 'Follow-Up']]","[[100, 82, 94]]"
198,FISH BOWL POKE,520 4TH ST N #102,44.98493,-93.27707,"[[329898, 333868, 337060]]","[['2019/10/10', '2019/11/14', '2020/01/02']]","[['Routine', 'Follow-Up', 'Follow-Up']]","[[84, 82, 88]]"
199,FIVE GUYS BURGERS & FRIES,1413 4TH ST SE,44.98062,-93.23478,"[[46455, 188248, 236957, 286871]]","[['2017/01/05', '2018/01/02', '2019/01/03', '2019/12/26']]","[['Routine', 'Routine', 'Routine', 'Routine']]","[[100, 100, 100, 94]]"
200,FIVE GUYS BURGERS & FRIES,2300 HENNEPIN AVE,44.95986,-93.29399,"[[46462, 216080, 266505]]","[['2017/08/02', '2018/08/02', '2019/08/01']]","[['Routine', 'Routine', 'Routine']]","[[100, 100, 94]]"
201,FLAMIN THAI,233 CEDAR AVE S,44.97281,-93.24644,"[[276704, 281195]]","[['2018/12/07', '2019/12/05']]","[['Routine', 'Routine']]","[[100, 96]]"
202,FLETCHERS ICE CREAM LLC,1509 MARSHALL ST NE,45.00327,-93.27091,"[[248828, 259385]]","[['2018/06/28', '2019/12/27']]","[['Routine', 'Routine']]","[[96, 100]]"
203,FOGO DE CHAO,645 HENNEPIN AVE,44.978,-93.273,"[[124977, 198002, 124976, 236410, 236409, 280437, 280436]]","[['2017/05/03', '2017/06/09', '2017/12/08', '2018/01/12', '2018/11/28', '2018/12/21', '2019/11/27']]","[['Follow-Up', 'Follow-Up', 'Routine', 'Follow-Up', 'Routine', 'Follow-Up', 'Routine']]","[[92, 96, 84, 96, 82, 96, 92]]"
204,FRANK FROM PHILLY,1227 4TH ST SE,44.98149,-93.23733,"[[46870, 213925, 213924, 261256, 261255, 319144, 329444, 332820]]","[['2017/07/26', '2017/09/20', '2018/07/25', '2018/09/05', '2019/07/23', '2019/09/03', '2019/10/09', '2019/11/18']]","[['Routine', 'Follow-Up', 'Routine', 'Follow-Up', 'Routine', 'Follow-Up', 'Follow-Up', 'Follow-Up']]","[[94, 94, 94, 96, 76, 78, 86, 100]]"
205,FRENCH MEADOW BAKERY & BLUESTEM BAR,2610 LYNDALE AVE S,44.9551,-93.28847,"[[53831, 232053, 232052, 279285, 279284]]","[['2017/10/31', '2018/01/13', '2018/10/26', '2019/02/03', '2019/11/04']]","[['Routine', 'Follow-Up', 'Routine', 'Follow-Up', 'Routine']]","[[94, 100, 82, 100, 94]]"
206,"FRESH MARKET, THE",555 NICOLLET MALL #103,44.97817,-93.2706,"[[53865, 203496]]","[['2017/07/06', '2019/06/26']]","[['Routine', 'Routine']]","[[100, 98]]"
207,FRESH WOK,4610 NICOLLET AVE,44.91883,-93.27836,"[[232209, 246978, 252100, 246977]]","[['2018/03/26', '2018/05/21', '2018/08/02', '2019/04/24']]","[['Routine', 'Follow-Up', 'Follow-Up', 'Routine']]","[[82, 84, 96, 92]]"
208,FRESHII,651 NICOLLET MALL #239,44.97719,-93.27137,"[[53912, 192442, 192441, 245857, 247894, 245856]]","[['2017/03/06', '2017/04/24', '2018/03/12', '2018/04/16', '2018/06/04', '2019/03/11']]","[['Routine', 'Follow-Up', 'Routine', 'Follow-Up', 'Follow-Up', 'Routine']]","[[94, 100, 86, 92, 100, 100]]"
209,FUJI YA,600 LAKE ST W,44.94866,-93.28728,"[[53991, 231996, 231640, 279196, 278078]]","[['2017/10/28', '2017/12/29', '2018/10/30', '2018/12/06', '2019/10/30']]","[['Routine', 'Follow-Up', 'Routine', 'Follow-Up', 'Routine']]","[[90, 100, 96, 98, 92]]"
210,GALACTIC PIZZA,2917 LYNDALE AVE S,44.94966,-93.28767,"[[125778, 232340, 279859]]","[['2017/11/06', '2018/11/19', '2019/11/19']]","[['Routine', 'Routine', 'Routine']]","[[98, 98, 96]]"
211,GANDHI MAHAL,3009 27TH AVE S,44.94792,-93.23272,"[[54184, 201814, 214030, 201813, 253223, 253222, 315205]]","[['2017/06/13', '2017/08/08', '2017/10/04', '2018/06/19', '2018/08/13', '2019/07/10', '2019/09/05']]","[['Routine', 'Follow-Up', 'Follow-Up', 'Routine', 'Follow-Up', 'Routine', 'Follow-Up']]","[[90, 98, 98, 62, 94, 84, 96]]"
212,GARDENS OF SALONICA,19 5TH ST NE,44.98971,-93.25346,"[[54232, 203617, 203616, 254712, 254711]]","[['2017/06/27', '2017/08/11', '2018/07/11', '2018/09/07', '2019/07/11']]","[['Routine', 'Follow-Up', 'Routine', 'Follow-Up', 'Routine']]","[[86, 96, 94, 100, 92]]"
213,GASTHOF ZUR GEMUTLICHKEIT,2300 UNIVERSITY AVE NE,45.01145,-93.26352,"[[180792, 54314, 230927, 228261, 278075, 278074]]","[['2017/02/23', '2017/10/06', '2017/10/31', '2018/10/09', '2018/12/04', '2019/10/09']]","[['Follow-Up', 'Routine', 'Follow-Up', 'Routine', 'Follow-Up', 'Routine']]","[[100, 88, 92, 94, 100, 94]]"
214,GASTROTRUCK,2400 UNIVERSITY AVE NE,45.01232,-93.26356,"[[60851, 125785, 199740, 202617, 251564, 309838, 248872]]","[['2017/05/21', '2017/06/25', '2018/04/27', '2018/05/19', '2019/04/28', '2019/05/09', '2019/05/15']]","[['Routine', 'Routine', 'Routine', 'Routine', 'Routine', 'Routine', 'Routine']]","[[96, 100, 98, 98, 96, 100, 100]]"
215,GATHERINGS CAFE,1530 FRANKLIN AVE E,44.96326,-93.25248,"[[60879, 190074, 242968, 242967, 296773]]","[['2017/02/08', '2018/02/13', '2018/03/30', '2019/02/01', '2019/03/12']]","[['Routine', 'Routine', 'Follow-Up', 'Routine', 'Follow-Up']]","[[100, 92, 100, 84, 96]]"
216,GEEK LOVE CAFE,3032 MINNEHAHA AVE,44.94723,-93.23397,"[[276916, 277474, 277473]]","[['2018/10/25', '2018/12/20', '2019/10/24']]","[['Routine', 'Follow-Up', 'Routine']]","[[92, 100, 94]]"
217,GEORGE AND THE DRAGON,813 50TH ST W,44.91214,-93.29045,"[[18072, 208221, 208220, 262114, 262113]]","[['2017/07/20', '2017/09/25', '2018/07/27', '2018/09/14', '2019/07/26']]","[['Routine', 'Follow-Up', 'Routine', 'Follow-Up', 'Routine']]","[[92, 96, 96, 100, 96]]"
218,GINGER HOP REST. & HONEY AT GINGER HOP,201 HENNEPIN AVE E,44.98778,-93.2577,"[[61076, 190587, 189810, 242460, 292950, 292949]]","[['2017/01/10', '2017/04/05', '2018/01/25', '2019/01/17', '2019/03/12', '2020/01/14']]","[['Routine', 'Follow-Up', 'Routine', 'Routine', 'Follow-Up', 'Routine']]","[[88, 100, 96, 90, 96, 94]]"
219,GLUEKS RESTAURANT,16 6TH ST N,44.97947,-93.27398,"[[123687, 232143, 232140, 279022, 336422, 338361]]","[['2017/10/26', '2017/12/08', '2018/11/06', '2019/11/04', '2019/12/04', '2019/12/31']]","[['Routine', 'Follow-Up', 'Routine', 'Routine', 'Follow-Up', 'Follow-Up']]","[[92, 92, 92, 80, 84, 94]]"
220,GOOD TO GO,200 6TH ST S,44.9769,-93.26762,"[[12442, 190588, 189825, 242869, 298385]]","[['2017/02/02', '2017/03/27', '2018/02/14', '2019/02/13', '2019/04/10']]","[['Routine', 'Follow-Up', 'Routine', 'Routine', 'Follow-Up']]","[[80, 100, 96, 94, 100]]"
221,GORDITAS EL GORDO,207 LAKE ST E,44.94806,-93.27364,"[[12488, 193291, 245599]]","[['2017/03/22', '2018/03/07', '2019/03/07']]","[['Routine', 'Routine', 'Routine']]","[[100, 100, 94]]"
222,GORKHA PALACE,23 4TH ST NE,44.98929,-93.25498,"[[12512, 192742, 246693, 307482, 310598]]","[['2017/03/14', '2018/03/16', '2019/03/27', '2019/05/16', '2019/06/27']]","[['Routine', 'Routine', 'Routine', 'Follow-Up', 'Follow-Up']]","[[94, 100, 94, 90, 98]]"
223,GRANDE CAFE,3804 GRAND AVE S,44.93383,-93.28474,"[[232189, 244837, 290876, 304782, 290875, 340271]]","[['2017/12/19', '2018/12/26', '2019/03/05', '2019/05/01', '2019/12/18', '2020/01/29']]","[['Routine', 'Routine', 'Follow-Up', 'Follow-Up', 'Routine', 'Follow-Up']]","[[100, 90, 94, 100, 86, 98]]"
224,GRANDE SUNRISE,5554 34TH AVE S,44.90188,-93.22333,"[[223590, 232956, 232954, 280123, 337775]]","[['2017/11/08', '2017/12/14', '2018/11/20', '2019/11/20', '2019/12/30']]","[['Routine', 'Follow-Up', 'Routine', 'Routine', 'Follow-Up']]","[[90, 100, 98, 86, 96]]"
225,GRASS ROOTS GOURMET,920 LAKE ST E #130,44.94931,-93.26076,"[[12680, 12684, 191077, 191078, 243373, 303032]]","[['2017/02/21', '2017/02/21', '2018/02/20', '2019/02/21', '2019/02/21', '2019/04/01']]","[['Routine', 'Routine', 'Routine', 'Routine', 'Routine', 'Follow-Up']]","[[100, 100, 96, 88, 100, 98]]"
226,GRAZE PROVISIONS AND LIBATIONS/GRAZE,520 4TH ST N,44.98493,-93.27707,"[[328543, 330405]]","[['2019/09/24', '2019/10/31']]","[['Routine', 'Follow-Up']]","[[88, 94]]"
227,GREAT DRAGON,1916 CHICAGO AVE,44.96315,-93.26296,"[[12765, 199782, 199781, 251412, 251411, 310546]]","[['2017/05/18', '2017/06/14', '2018/05/23', '2018/06/19', '2019/05/16', '2019/06/28']]","[['Routine', 'Follow-Up', 'Routine', 'Follow-Up', 'Routine', 'Follow-Up']]","[[92, 96, 76, 96, 82, 100]]"
228,GREEK GRILL & CAFE,625 MARQUETTE AVE #236,44.97642,-93.27017,"[[12844, 222910, 222909, 269138, 325819]]","[['2017/08/29', '2017/10/23', '2018/08/29', '2019/08/22', '2019/10/21']]","[['Routine', 'Follow-Up', 'Routine', 'Routine', 'Follow-Up']]","[[90, 100, 100, 82, 92]]"
229,GREEN + THE GRAIN,900 2ND AVE S,44.9737,-93.27186,[[281282]],[['2019/02/25']],[['Routine']],[[92]]
230,GREEN AND THE GRAIN,800 LASALLE AVE #213,44.97641,-93.27513,"[[180221, 236635, 236634, 286273]]","[['2017/12/19', '2018/02/12', '2018/12/26', '2019/12/23']]","[['Routine', 'Follow-Up', 'Routine', 'Routine']]","[[96, 98, 96, 100]]"
231,GREEN AND THE GRAIN,705 MARQUETTE AVE #257,44.97593,-93.27064,"[[20058, 237191]]","[['2018/01/08', '2019/07/02']]","[['Routine', 'Routine']]","[[98, 96]]"
232,GREEN AND THE GRAIN,200 6TH ST S #296,44.9769,-93.26762,"[[245610, 247896, 252093, 247895]]","[['2018/04/13', '2018/06/05', '2018/07/24', '2019/04/16']]","[['Routine', 'Follow-Up', 'Follow-Up', 'Routine']]","[[84, 92, 96, 98]]"
233,GREENFIELD NATURAL KITCHEN,120 6TH ST S,44.97736,-93.26875,"[[20155, 225887, 225886, 271962, 329211]]","[['2017/09/13', '2017/11/02', '2018/09/17', '2019/09/11', '2019/10/21']]","[['Routine', 'Follow-Up', 'Routine', 'Routine', 'Follow-Up']]","[[90, 100, 98, 88, 100]]"
234,GROUND ZERO/THE FRONT,15 4TH ST NE,44.98907,-93.25504,[[20224]],[['2018/09/19']],[['Routine']],[[96]]
235,GUAVAS CUBAN CAFE,5607 CHICAGO AVE,44.90136,-93.26232,"[[279127, 287080, 287079, 340619]]","[['2019/01/10', '2019/02/08', '2020/01/10', '2020/01/23']]","[['Routine', 'Follow-Up', 'Routine', 'Follow-Up']]","[[92, 98, 82, 96]]"
236,H148 - THE BRIDGE FOR YOUTH,1111 22ND ST W,44.96063,-93.29405,"[[44004, 194253, 247287]]","[['2017/03/21', '2018/03/23', '2019/03/22']]","[['Routine', 'Routine', 'Routine']]","[[100, 96, 100]]"
237,H148 - THE SALVATION ARMY ARCC,900 4TH ST N,44.98815,-93.28156,"[[51016, 204387, 254465]]","[['2017/07/13', '2018/07/12', '2019/07/09']]","[['Routine', 'Routine', 'Routine']]","[[98, 96, 92]]"
238,HABANERO TACOS,3223 LAKE ST E,44.94809,-93.22467,[[303524]],[['2019/06/04']],[['Routine']],[[92]]
239,HAI HAI,2121 UNIVERSITY AVE NE,45.00973,-93.26238,"[[234213, 242469]]","[['2018/02/08', '2019/02/08']]","[['Routine', 'Routine']]","[[88, 94]]"
240,HAIKU JAPANESE BISTRO,620 WASHINGTON AVE SE,44.97349,-93.2294,"[[247731, 281251]]","[['2018/12/11', '2019/12/12']]","[['Routine', 'Routine']]","[[92, 92]]"
241,HAMBURGUESAS EL GORDO,4157 CEDAR AVE S,44.92713,-93.24694,"[[236684, 245978, 247502, 251674, 254492, 274468, 245977, 307862, 312875]]","[['2018/02/22', '2018/04/04', '2018/05/15', '2018/07/12', '2018/09/25', '2018/11/19', '2019/03/11', '2019/05/30', '2019/07/11']]","[['Routine', 'Follow-Up', 'Follow-Up', 'Follow-Up', 'Follow-Up', 'Follow-Up', 'Routine', 'Follow-Up', 'Follow-Up']]","[[76, 84, 94, 94, 94, 98, 66, 90, 94]]"
242,HAMDI RESTAURANT,818 LAKE ST E,44.94863,-93.26191,"[[20604, 181433, 192275, 196676, 181432, 232070, 232069, 278164, 278163, 335375]]","[['2017/01/04', '2017/03/07', '2017/04/19', '2017/05/23', '2017/11/02', '2017/12/18', '2018/10/30', '2018/12/04', '2019/10/29', '2019/11/26']]","[['Routine', 'Follow-Up', 'Follow-Up', 'Follow-Up', 'Routine', 'Follow-Up', 'Routine', 'Follow-Up', 'Routine', 'Follow-Up']]","[[90, 94, 88, 96, 76, 96, 92, 100, 86, 100]]"
243,HAMMER & SICKLE,1300 LAGOON AVE #150,44.94947,-93.29611,"[[20619, 190582, 189700, 243622, 243620]]","[['2017/01/26', '2017/04/20', '2018/02/23', '2018/03/20', '2019/02/27']]","[['Routine', 'Follow-Up', 'Routine', 'Follow-Up', 'Routine']]","[[66, 100, 98, 100, 100]]"
244,HAMPTON INN & SUITES,2812 UNIVERSITY AVE SE,44.97104,-93.21676,"[[204193, 208352]]","[['2017/07/27', '2019/01/03']]","[['Routine', 'Routine']]","[[98, 96]]"
245,HARD TIMES CAFE,1821 RIVERSIDE AVE,44.96945,-93.24616,"[[20684, 211472, 258694]]","[['2017/08/01', '2018/07/30', '2019/07/30']]","[['Routine', 'Routine', 'Routine']]","[[96, 96, 96]]"
246,HARK'S NICOLLET,2401 NICOLLET AVE,44.95905,-93.27745,"[[20703, 234521]]","[['2017/11/28', '2019/11/19']]","[['Routine', 'Routine']]","[[100, 96]]"
247,HARRIET BRASSERIE,2724 43RD ST W,44.9247,-93.31382,"[[26718, 225318, 230980, 237391, 225317, 272869, 272868]]","[['2017/09/07', '2017/10/25', '2018/01/08', '2018/02/26', '2018/09/18', '2018/11/06', '2019/09/18']]","[['Routine', 'Follow-Up', 'Follow-Up', 'Follow-Up', 'Routine', 'Follow-Up', 'Routine']]","[[70, 92, 94, 98, 86, 96, 96]]"
248,HARRY SINGHS ORIG CARIBBEAN RESTAURANT,2653 NICOLLET AVE,44.95399,-93.27749,"[[180282, 242575]]","[['2018/02/06', '2019/02/06']]","[['Routine', 'Routine']]","[[98, 100]]"
249,HAZEL'S NORTHEAST,2859 JOHNSON ST NE,45.02025,-93.23674,"[[26840, 194264, 194263, 247432, 249899, 247431, 304252]]","[['2017/03/30', '2017/05/15', '2018/03/29', '2018/05/07', '2018/06/01', '2019/03/15', '2019/04/23']]","[['Routine', 'Follow-Up', 'Routine', 'Follow-Up', 'Follow-Up', 'Routine', 'Follow-Up']]","[[90, 100, 84, 84, 90, 98, 98]]"
250,HELLS KITCHEN,80 9TH ST S,44.97482,-93.27267,"[[26951, 226528, 226527, 272129, 272128, 328779]]","[['2017/09/13', '2017/10/24', '2018/09/12', '2018/10/09', '2019/09/05', '2019/10/03']]","[['Routine', 'Follow-Up', 'Routine', 'Follow-Up', 'Routine', 'Follow-Up']]","[[88, 96, 90, 96, 72, 96]]"
251,HEN HOUSE EATERY,730 2ND AVE S,44.97528,-93.27049,"[[26992, 193464, 247125, 247124]]","[['2017/03/24', '2018/03/30', '2018/05/14', '2019/04/22']]","[['Routine', 'Routine', 'Follow-Up', 'Routine']]","[[96, 86, 92, 96]]"
252,HENNEPIN THEATRE TRUST,900 HENNEPIN AVE,44.97654,-93.27743,"[[237153, 265806, 247160]]","[['2018/03/23', '2018/11/01', '2019/04/12']]","[['Routine', 'Routine', 'Routine']]","[[100, 100, 100]]"
253,HI-LO DINER,4020 LAKE ST E,44.94864,-93.21437,"[[27246, 205669, 226636, 205668, 264439, 264438]]","[['2017/07/18', '2017/09/19', '2017/11/27', '2018/08/13', '2018/10/15', '2019/08/14']]","[['Routine', 'Follow-Up', 'Follow-Up', 'Routine', 'Follow-Up', 'Routine']]","[[82, 94, 98, 68, 92, 92]]"
254,HIBACHI BUFFET,111 LAKE ST E,44.94791,-93.27628,"[[190605, 193211, 180597, 225305, 225304, 245941, 245940, 286553, 286552, 339651]]","[['2017/03/21', '2017/04/25', '2017/09/06', '2017/11/07', '2018/03/13', '2018/05/10', '2018/12/18', '2019/03/05', '2019/12/18', '2020/01/27']]","[['Follow-Up', 'Follow-Up', 'Routine', 'Follow-Up', 'Routine', 'Follow-Up', 'Routine', 'Follow-Up', 'Routine', 'Follow-Up']]","[[100, 100, 86, 96, 92, 96, 88, 100, 84, 96]]"
255,HIBACHI DARUMA,820 MARQUETTE AVE,44.97482,-93.27267,"[[302853, 309824]]","[['2019/05/02', '2019/05/29']]","[['Routine', 'Follow-Up']]","[[90, 96]]"
256,HIMALAYAN RESTAURANT,2910 LAKE ST E,44.94863,-93.22954,"[[181457, 237233, 237232, 294166]]","[['2018/01/03', '2018/03/01', '2019/01/29', '2020/02/05']]","[['Routine', 'Follow-Up', 'Routine', 'Routine']]","[[94, 100, 98, 92]]"
257,HOBAN KOREAN BBQ,2939 HENNEPIN AVE,44.94878,-93.29789,"[[33129, 231997, 231520, 278695, 277404, 334864]]","[['2017/10/14', '2017/12/20', '2018/10/25', '2018/12/08', '2019/10/25', '2019/11/23']]","[['Routine', 'Follow-Up', 'Routine', 'Follow-Up', 'Routine', 'Follow-Up']]","[[96, 100, 96, 98, 88, 100]]"
258,HOLA AREPA,3501 NICOLLET AVE,44.93934,-93.27752,"[[33172, 33158, 196890, 249397, 228717, 249396, 311517, 277236]]","[['2017/04/25', '2017/10/11', '2018/05/03', '2018/06/13', '2018/10/23', '2019/05/16', '2019/07/02', '2019/09/22']]","[['Routine', 'Routine', 'Routine', 'Follow-Up', 'Routine', 'Routine', 'Follow-Up', 'Routine']]","[[100, 100, 76, 96, 100, 82, 98, 100]]"
259,HOLIDAY STATIONSTORE #25,5444 NICOLLET AVE,44.90433,-93.27859,"[[237291, 237292, 286287, 286292]]","[['2018/12/14', '2018/12/14', '2019/12/17', '2019/12/17']]","[['Routine', 'Routine', 'Routine', 'Routine']]","[[100, 100, 100, 100]]"
260,HOLY LAND BAKERY & DELI,2513 CENTRAL AVE NE,45.01368,-93.2468,"[[180547, 180546, 234231, 234230, 281290]]","[['2017/01/26', '2017/11/21', '2018/01/08', '2018/11/21', '2019/11/18']]","[['Follow-Up', 'Routine', 'Follow-Up', 'Routine', 'Routine']]","[[100, 92, 100, 100, 94]]"
261,HOLY LAND BRAND,2513 CENTRAL AVE NE,45.01368,-93.2468,"[[180550, 180549, 124985, 234248, 285899]]","[['2017/01/26', '2017/11/21', '2018/12/17', '2018/12/17', '2019/12/06']]","[['Follow-Up', 'Routine', 'Routine', 'Routine', 'Routine']]","[[96, 96, 100, 100, 98]]"
262,HOLY LAND MIDTOWN,920 LAKE ST E #145,44.94931,-93.26076,"[[33617, 33650, 204669, 204667, 33615, 204668, 204666, 254676, 254675]]","[['2017/07/18', '2017/07/18', '2017/08/16', '2017/08/16', '2018/07/16', '2018/07/16', '2018/07/16', '2019/07/09', '2019/07/09']]","[['Routine', 'Routine', 'Follow-Up', 'Follow-Up', 'Routine', 'Routine', 'Routine', 'Routine', 'Routine']]","[[92, 92, 100, 100, 96, 98, 96, 94, 94]]"
263,HONG KONG NOODLE RESTAURANT,901 WASHINGTON AVE SE,44.97381,-93.22527,"[[33696, 213985, 213984, 266577, 327330]]","[['2017/08/08', '2017/09/29', '2018/08/22', '2019/08/29', '2019/10/28']]","[['Routine', 'Follow-Up', 'Routine', 'Routine', 'Follow-Up']]","[[70, 96, 94, 84, 94]]"
264,HOOK FISH & CHICKEN,1127 WEST BROADWAY,44.99888,-93.2953,"[[263923, 276812, 333927, 337868]]","[['2018/10/17', '2019/10/17', '2019/11/26', '2020/01/07']]","[['Routine', 'Routine', 'Follow-Up', 'Follow-Up']]","[[96, 84, 84, 94]]"
265,HOP21,501 WASHINGTON AVE S,44.97837,-93.26124,"[[124866, 236912, 286270]]","[['2017/12/28', '2018/12/11', '2019/12/05']]","[['Routine', 'Routine', 'Routine']]","[[100, 100, 94]]"
266,HOPCAT,435 NICOLLET MALL,44.97883,-93.2697,"[[214908, 232576, 279489]]","[['2017/11/08', '2018/11/15', '2019/11/15']]","[['Routine', 'Routine', 'Routine']]","[[96, 100, 94]]"
267,HOT INDIAN FOODS,920 LAKE ST E #124,44.94931,-93.26076,"[[39500, 39506, 200643, 201609, 200642, 251866, 251493]]","[['2017/06/01', '2017/06/15', '2017/06/29', '2018/05/28', '2018/06/01', '2019/05/30', '2019/06/14']]","[['Routine', 'Routine', 'Follow-Up', 'Routine', 'Routine', 'Routine', 'Routine']]","[[88, 100, 96, 96, 96, 100, 96]]"
268,HOT INDIAN FOODS,121 8TH ST S #STE 242,44.97441,-93.27109,"[[249567, 254525, 254524]]","[['2018/07/13', '2018/08/15', '2019/07/10']]","[['Routine', 'Follow-Up', 'Routine']]","[[80, 96, 96]]"
269,HOT PLATE 2.0,5204 BLOOMINGTON AVE,44.90863,-93.25284,"[[203703, 246077, 246076]]","[['2018/03/15', '2018/05/17', '2019/05/17']]","[['Routine', 'Follow-Up', 'Routine']]","[[92, 100, 96]]"
270,ICEHOUSE,2528 NICOLLET AVE,44.9562,-93.27839,"[[192319, 230313, 230312, 276341, 334792]]","[['2017/10/17', '2017/12/21', '2018/10/17', '2019/10/23', '2019/12/11']]","[['Routine', 'Follow-Up', 'Routine', 'Routine', 'Follow-Up']]","[[94, 100, 96, 84, 100]]"
271,ICHIDDO RAMEN,2710 NICOLLET AVE,44.95345,-93.27838,"[[20841, 197871, 203946, 242316]]","[['2017/05/05', '2017/06/12', '2018/05/07', '2019/05/10']]","[['Routine', 'Follow-Up', 'Routine', 'Routine']]","[[92, 92, 100, 96]]"
272,ICHIDDO RAMEN,1501 UNIVERSITY AVE SE #130,44.97901,-93.2346,"[[235487, 245688, 248351, 245687, 304329, 310433]]","[['2018/02/27', '2018/04/19', '2018/05/31', '2019/03/12', '2019/05/01', '2019/06/11']]","[['Routine', 'Follow-Up', 'Follow-Up', 'Routine', 'Follow-Up', 'Follow-Up']]","[[86, 86, 92, 76, 90, 92]]"
273,IDEAL DINER,1314 CENTRAL AVE NE,45.00156,-93.24775,"[[40102, 225588, 274226, 274225]]","[['2017/09/13', '2018/09/13', '2018/11/21', '2019/09/13']]","[['Routine', 'Routine', 'Follow-Up', 'Routine']]","[[96, 88, 100, 98]]"
274,IE,4724 CEDAR AVE S,44.91703,-93.2477,"[[124470, 237420, 237419, 294809, 294808, 340576]]","[['2017/12/28', '2018/03/07', '2019/01/10', '2019/03/07', '2020/01/09', '2020/01/29']]","[['Routine', 'Follow-Up', 'Routine', 'Follow-Up', 'Routine', 'Follow-Up']]","[[88, 100, 92, 100, 80, 100]]"
275,IGRILL,331 2ND AVE S #206,44.97862,-93.26647,"[[226722, 236835, 236834, 281543, 294596, 281542, 338756]]","[['2017/12/15', '2018/02/12', '2018/12/12', '2019/01/29', '2019/03/13', '2019/12/10', '2020/01/08']]","[['Routine', 'Follow-Up', 'Routine', 'Follow-Up', 'Follow-Up', 'Routine', 'Follow-Up']]","[[84, 98, 68, 92, 100, 58, 96]]"
276,ILLUSION THEATER,528 HENNEPIN AVE,44.9794,-93.27351,"[[40181, 185802]]","[['2017/01/12', '2019/01/23']]","[['Routine', 'Routine']]","[[100, 100]]"
277,INDIA PALACE,2546 HENNEPIN AVE,44.95613,-93.29692,"[[47047, 225654, 271364, 271363, 330225, 336508]]","[['2017/09/06', '2018/09/06', '2018/11/08', '2019/09/23', '2019/10/29', '2020/01/31']]","[['Routine', 'Routine', 'Follow-Up', 'Routine', 'Follow-Up', 'Follow-Up']]","[[92, 90, 100, 70, 88, 86]]"
278,INTERNATIONAL CUISINE BAR & GRILL REST,3508 LAKE ST E,44.94866,-93.2211,"[[47181, 181084, 47182, 233844, 233843, 280713, 293002, 280712, 338018]]","[['2017/01/04', '2017/02/21', '2017/11/22', '2018/01/11', '2018/11/29', '2019/01/24', '2019/03/14', '2019/11/26', '2020/01/02']]","[['Follow-Up', 'Follow-Up', 'Routine', 'Follow-Up', 'Routine', 'Follow-Up', 'Follow-Up', 'Routine', 'Follow-Up']]","[[88, 96, 94, 98, 86, 94, 98, 86, 92]]"
279,IRON DOOR PUB,3001 LYNDALE AVE S,44.94812,-93.28775,"[[47220, 220599, 230376, 220598, 270805, 270804]]","[['2017/08/21', '2017/10/19', '2017/12/22', '2018/08/28', '2018/10/24', '2019/08/28']]","[['Routine', 'Follow-Up', 'Follow-Up', 'Routine', 'Follow-Up', 'Routine']]","[[78, 96, 96, 90, 94, 100]]"
280,JAKEENOS PIZZA & PASTA,3555 CHICAGO AVE,44.93802,-93.26228,"[[47411, 231984, 275159]]","[['2017/10/24', '2018/10/03', '2019/10/28']]","[['Routine', 'Routine', 'Routine']]","[[100, 96, 96]]"
281,JASMINE 26 RESTAURANT & BAR,8 26TH ST E #C102,44.95573,-93.27723,"[[47553, 202361, 253058]]","[['2017/06/22', '2018/06/19', '2019/06/19']]","[['Routine', 'Routine', 'Routine']]","[[98, 100, 98]]"
282,JASMINE DELI,2532 NICOLLET AVE,44.9562,-93.27839,"[[47582, 201607, 252456]]","[['2017/06/14', '2018/06/12', '2019/06/12']]","[['Routine', 'Routine', 'Routine']]","[[96, 100, 94]]"
283,JAX CAFE,1922 UNIVERSITY AVE NE,45.00833,-93.26356,"[[54355, 191101, 191076, 245167]]","[['2017/02/21', '2017/02/23', '2018/02/21', '2019/02/21']]","[['Routine', 'Follow-Up', 'Routine', 'Routine']]","[[86, 94, 98, 90]]"
284,JEFE,219 MAIN ST SE,44.98464,-93.25398,"[[54392, 228054, 275272, 275271, 331964]]","[['2017/09/20', '2018/09/25', '2018/11/14', '2019/09/25', '2019/11/07']]","[['Routine', 'Routine', 'Follow-Up', 'Routine', 'Follow-Up']]","[[94, 96, 100, 88, 100]]"
285,JEWEL OF INDIA,1427 WASHINGTON AVE S,44.97297,-93.24815,"[[54577, 190581, 188177, 242836]]","[['2017/01/11', '2017/03/29', '2018/02/07', '2019/08/13']]","[['Routine', 'Follow-Up', 'Routine', 'Routine']]","[[66, 100, 100, 94]]"
286,JIMMIE'S OLD SOUTHERN BBQ SMOKEHOUSE LLC,4501 FRANCE AVE S,44.92112,-93.32874,"[[188929, 203066, 224322, 253465]]","[['2017/06/29', '2017/08/28', '2018/06/21', '2019/06/21']]","[['Routine', 'Follow-Up', 'Routine', 'Routine']]","[[92, 96, 100, 94]]"
287,JIMMY JOHN'S,219 OAK ST SE,44.974,-93.22666,"[[54718, 189674]]","[['2017/01/31', '2018/08/10']]","[['Routine', 'Routine']]","[[98, 94]]"
288,JUN,730 WASHINGTON AVE N #140,44.98875,-93.2777,"[[224933, 226814, 226813, 272073, 272072, 329986, 334607]]","[['2017/09/15', '2017/10/24', '2018/09/14', '2018/10/26', '2019/09/19', '2019/10/23', '2019/11/22']]","[['Routine', 'Follow-Up', 'Routine', 'Follow-Up', 'Routine', 'Follow-Up', 'Follow-Up']]","[[70, 100, 78, 86, 86, 78, 98]]"
289,KADAI INDIAN KITCHEN,601 MARQUETTE AVE #200,44.97686,-93.26995,"[[61638, 205261, 225339, 205260, 260743, 260742, 318644]]","[['2017/07/19', '2017/09/12', '2017/11/09', '2018/08/01', '2018/09/20', '2019/07/30', '2019/09/03']]","[['Routine', 'Follow-Up', 'Follow-Up', 'Routine', 'Follow-Up', 'Routine', 'Follow-Up']]","[[78, 92, 98, 68, 92, 78, 100]]"
290,KADO NO MISE/KAISEKI FURUKAWA,30 1ST ST N,44.98471,-93.26741,"[[279165, 280355, 280354]]","[['2018/11/26', '2019/02/13', '2019/12/05']]","[['Routine', 'Follow-Up', 'Routine']]","[[74, 96, 94]]"
291,KAFE 421,421 14TH AVE SE,44.98119,-93.2356,"[[61667, 188947, 237313, 237312, 286912, 286911]]","[['2017/01/12', '2018/01/04', '2018/02/16', '2019/01/07', '2019/02/07', '2020/01/13']]","[['Routine', 'Routine', 'Follow-Up', 'Routine', 'Follow-Up', 'Routine']]","[[96, 92, 98, 84, 92, 100]]"
292,KATAR MEAT MARKET,2751 MINNEHAHA AVE,44.95253,-93.23521,"[[61778, 211869, 255511]]","[['2017/08/02', '2018/07/19', '2019/08/02']]","[['Routine', 'Routine', 'Routine']]","[[100, 100, 100]]"
293,KATAR RIVER RESTAURANT & BAKERY,2751 MINNEHAHA AVE,44.95253,-93.23521,"[[61818, 255499, 211867, 255516, 270251, 255515, 320616]]","[['2017/08/02', '2018/07/19', '2018/07/19', '2018/08/31', '2018/10/23', '2019/08/02', '2019/09/26']]","[['Routine', 'Routine', 'Routine', 'Follow-Up', 'Follow-Up', 'Routine', 'Follow-Up']]","[[100, 100, 90, 88, 98, 88, 100]]"
294,KBOP KOREAN BISTRO,425 13TH AVE SE,44.9819,-93.23704,"[[61824, 214852, 258596, 258595, 319135]]","[['2017/07/26', '2018/07/25', '2018/09/05', '2019/07/25', '2019/09/03']]","[['Routine', 'Routine', 'Follow-Up', 'Routine', 'Follow-Up']]","[[90, 86, 100, 82, 98]]"
295,KEEFER COURT FOOD,326 CEDAR AVE S,44.97054,-93.24758,"[[61852, 226950, 272273]]","[['2017/08/23', '2018/09/19', '2019/09/19']]","[['Routine', 'Routine', 'Routine']]","[[100, 100, 100]]"
296,KEN AND NORM'S LIQUOR,4801 CHICAGO AVE,44.91588,-93.26238,[[61940]],[['2018/06/05']],[['Routine']],[[100]]
297,KENWOOD THE,2115 21ST ST W,44.96161,-93.30802,"[[24036, 181045, 181044, 243439, 243438]]","[['2017/01/04', '2017/03/15', '2018/02/09', '2018/04/27', '2019/02/08']]","[['Routine', 'Follow-Up', 'Routine', 'Follow-Up', 'Routine']]","[[82, 100, 94, 94, 94]]"
298,KEYS AT THE FOSHAY BAR & GRILL,114 9TH ST S #FOSHAY TOW,44.97448,-93.2718,"[[12927, 224158, 224157, 271973, 271972, 328542]]","[['2017/08/25', '2017/09/18', '2018/09/12', '2018/10/09', '2019/08/28', '2019/09/26']]","[['Routine', 'Follow-Up', 'Routine', 'Follow-Up', 'Routine', 'Follow-Up']]","[[90, 100, 88, 96, 72, 98]]"
299,KHAO HOM THAI RESTAURANT,2411 CENTRAL AVE NE,45.01263,-93.24694,"[[233249, 242007, 290667, 290666, 340626]]","[['2018/01/16', '2019/01/16', '2019/02/26', '2020/01/13', '2020/01/27']]","[['Routine', 'Routine', 'Follow-Up', 'Routine', 'Follow-Up']]","[[100, 86, 100, 86, 100]]"
300,KHUNNAI THAI CUISINE,2523 NICOLLET AVE,44.95649,-93.27747,"[[220525, 232477, 279907]]","[['2017/11/06', '2018/11/13', '2019/11/18']]","[['Routine', 'Routine', 'Routine']]","[[100, 100, 94]]"
301,KIKU BISTRO,2819 HENNEPIN AVE,44.9512,-93.29787,"[[13064, 13065, 243836, 243221]]","[['2017/02/10', '2018/02/08', '2018/04/25', '2019/02/08']]","[['Follow-Up', 'Routine', 'Follow-Up', 'Routine']]","[[96, 82, 98, 96]]"
302,KIMCHI TOFU HOUSE,307 OAK ST SE,44.97329,-93.22678,"[[247165, 277439, 277438, 335787]]","[['2018/10/26', '2018/12/05', '2019/10/29', '2019/12/03']]","[['Routine', 'Follow-Up', 'Routine', 'Follow-Up']]","[[96, 100, 88, 100]]"
303,KINDEE,719 2ND ST S,44.97796,-93.25735,"[[181033, 237293, 287084, 287083]]","[['2018/01/02', '2019/01/02', '2019/04/24', '2020/01/15']]","[['Routine', 'Routine', 'Follow-Up', 'Routine']]","[[96, 86, 100, 96]]"
304,KINHDO RESTAURANT,2755 HENNEPIN AVE,44.95213,-93.29785,"[[13323, 202065, 202064, 254025, 254024]]","[['2017/06/22', '2017/09/06', '2018/06/21', '2018/09/25', '2019/06/21']]","[['Routine', 'Follow-Up', 'Routine', 'Follow-Up', 'Routine']]","[[92, 100, 90, 100, 92]]"
305,KNIGHT CAP,1500 4TH ST NE,45.00322,-93.26188,"[[29904, 202338, 205355, 202337, 253173]]","[['2017/06/12', '2017/07/07', '2017/08/24', '2018/06/12', '2019/06/11']]","[['Routine', 'Follow-Up', 'Follow-Up', 'Routine', 'Routine']]","[[94, 100, 100, 100, 92]]"
306,KOREA RESTAURANT,211 OAK ST SE,44.97433,-93.22675,"[[314648, 328983]]","[['2019/08/27', '2019/09/10']]","[['Routine', 'Follow-Up']]","[[82, 96]]"
307,KOWLOON RESTAURANT,935 WASHINGTON AVE SE,44.97394,-93.22448,"[[13715, 194197, 247029, 247028, 307440, 313370]]","[['2017/03/29', '2018/03/27', '2018/05/16', '2019/04/02', '2019/06/11', '2019/08/06']]","[['Routine', 'Routine', 'Follow-Up', 'Routine', 'Follow-Up', 'Follow-Up']]","[[100, 60, 96, 94, 90, 94]]"
308,KRISPY KRUNCHY CHICKEN,2700 UNIVERSITY AVE SE,44.97185,-93.21849,"[[254776, 271496]]","[['2018/09/11', '2019/09/09']]","[['Routine', 'Routine']]","[[96, 92]]"
309,KWANS,5412 PENN AVE S,44.90457,-93.30906,"[[20886, 228810, 228809, 276568, 334124]]","[['2017/10/10', '2017/11/30', '2018/10/17', '2019/10/17', '2019/11/20']]","[['Routine', 'Follow-Up', 'Routine', 'Routine', 'Follow-Up']]","[[84, 96, 98, 90, 100]]"
310,KYATCHI,3758 NICOLLET AVE,44.93444,-93.27824,"[[20916, 192173, 194748, 192172, 246333, 251278, 246332]]","[['2017/02/28', '2017/04/06', '2017/05/17', '2018/03/07', '2018/05/10', '2018/08/02', '2019/04/18']]","[['Routine', 'Follow-Up', 'Follow-Up', 'Routine', 'Follow-Up', 'Follow-Up', 'Routine']]","[[86, 88, 100, 90, 100, 100, 98]]"
311,KYOTO SUSHI,2841 LYNDALE AVE S,44.95067,-93.28742,"[[276928, 277480]]","[['2018/10/26', '2019/10/28']]","[['Routine', 'Routine']]","[[94, 94]]"
312,LA ALBORADA MARKET,1855 LAKE ST E,44.94805,-93.24523,"[[20983, 21022, 21010, 203243, 20964, 203244, 212552, 203242, 253361, 253356, 253358, 253359, 253355]]","[['2017/06/21', '2017/06/21', '2017/06/27', '2017/07/27', '2018/06/19', '2018/06/19', '2018/06/19', '2018/06/19', '2018/07/12', '2018/07/12', '2019/06/12', '2019/06/12', '2019/06/12']]","[['Routine', 'Routine', 'Routine', 'Follow-Up', 'Routine', 'Routine', 'Routine', 'Routine', 'Follow-Up', 'Follow-Up', 'Routine', 'Routine', 'Routine']]","[[96, 92, 100, 94, 100, 100, 100, 94, 100, 100, 100, 100, 98]]"
313,LA COLONIA RESTAUTANT,2205 CENTRAL AVE NE,45.01009,-93.24683,"[[21148, 210693, 262018]]","[['2017/07/24', '2018/07/24', '2019/07/23']]","[['Routine', 'Routine', 'Routine']]","[[90, 98, 92]]"
314,LA FRESCA,4750 GRAND AVE S,44.91617,-93.2848,"[[249669, 267434, 267433, 330028]]","[['2018/08/16', '2018/11/28', '2019/09/05', '2019/12/05']]","[['Routine', 'Follow-Up', 'Routine', 'Follow-Up']]","[[76, 100, 66, 96]]"
315,LA LOMA TAMALES,608 2ND AVE S #164,44.97664,-93.26943,"[[21284, 190572, 193115, 189706, 242805]]","[['2017/01/30', '2017/03/17', '2017/04/24', '2018/02/13', '2019/02/15']]","[['Routine', 'Follow-Up', 'Follow-Up', 'Routine', 'Routine']]","[[86, 92, 100, 100, 100]]"
316,LA LOMA TAMALES,920 LAKE ST E #160,44.94931,-93.26076,"[[21261, 191376, 243007, 295144, 295143]]","[['2017/02/21', '2018/02/14', '2019/02/04', '2019/06/21', '2020/02/03']]","[['Routine', 'Routine', 'Routine', 'Follow-Up', 'Routine']]","[[100, 100, 86, 100, 86]]"
317,LA MESA,230 CEDAR LAKE RD S,44.97484,-93.30682,"[[236501, 252078]]","[['2018/05/08', '2019/11/15']]","[['Routine', 'Routine']]","[[98, 100]]"
318,LA MEXICANA #1,1522 LAKE ST E,44.94865,-93.25206,"[[180755, 234955, 234954, 285092, 285091, 339592]]","[['2017/12/07', '2018/01/11', '2018/12/05', '2019/01/14', '2019/12/11', '2020/01/14']]","[['Routine', 'Follow-Up', 'Routine', 'Follow-Up', 'Routine', 'Follow-Up']]","[[94, 96, 90, 100, 90, 100]]"
319,LA MICHOACANA PUREPECHA,920 LAKE ST E #104,44.94931,-93.26076,"[[334184, 339722]]","[['2019/12/23', '2020/01/08']]","[['Routine', 'Follow-Up']]","[[84, 96]]"
320,LA POBLANITA,1617 LAKE ST E,44.94808,-93.25036,"[[21345, 21358, 226818, 228032, 226858, 226856, 226857, 226855, 273873, 228031, 273874, 273872, 330603]]","[['2017/09/22', '2017/09/22', '2017/09/22', '2017/10/23', '2017/10/23', '2017/10/23', '2018/09/13', '2018/09/13', '2018/10/30', '2019/09/03', '2019/09/03', '2019/09/03', '2019/10/15']]","[['Routine', 'Routine', 'Routine', 'Follow-Up', 'Follow-Up', 'Follow-Up', 'Routine', 'Routine', 'Follow-Up', 'Routine', 'Routine', 'Routine', 'Follow-Up']]","[[94, 92, 86, 100, 96, 96, 96, 96, 100, 94, 90, 92, 100]]"
321,LA SOCIETE DU THE,2708 LYNDALE AVE S,44.95339,-93.28848,"[[124652, 252910]]","[['2018/06/11', '2019/12/11']]","[['Routine', 'Routine']]","[[100, 100]]"
322,LAGO TACOS LYNLAKE,2901 LYNDALE AVE S,44.95009,-93.28765,"[[27432, 228775, 217479, 271646, 329621]]","[['2017/08/16', '2017/10/05', '2018/09/11', '2019/09/11', '2019/10/10']]","[['Routine', 'Follow-Up', 'Routine', 'Routine', 'Follow-Up']]","[[88, 96, 96, 88, 100]]"
323,LAKE & IRVING RESTAURANT & BAR,1513 LAKE ST W,44.94813,-93.30156,"[[27490, 190091, 190090, 245407, 245406, 305008]]","[['2017/02/08', '2017/03/22', '2018/02/26', '2018/04/20', '2019/03/19', '2019/05/22']]","[['Routine', 'Follow-Up', 'Routine', 'Follow-Up', 'Routine', 'Follow-Up']]","[[88, 96, 80, 96, 90, 98]]"
324,LAKE HARRIET PIZZA,5009 PENN AVE S,44.91194,-93.30832,"[[27596, 189462, 243388, 243387, 302212]]","[['2017/01/24', '2018/02/13', '2018/04/12', '2019/02/28', '2019/04/17']]","[['Routine', 'Routine', 'Follow-Up', 'Routine', 'Follow-Up']]","[[100, 92, 100, 88, 100]]"
325,"LAKE STREET HALAAL MARKET, LLC",1530 LAKE ST E,44.94865,-93.25206,"[[314649, 314650]]","[['2019/08/07', '2019/08/07']]","[['Routine', 'Routine']]","[[100, 98]]"
326,LAKE STREET TOBACCO,812 LAKE ST E,44.94864,-93.26228,[[125016]],[['2018/12/05']],[['Routine']],[[100]]
327,LANDS END PASTY COMPANY,1314 4TH ST SE,44.98044,-93.23657,"[[27741, 205244, 254327]]","[['2017/07/11', '2018/07/11', '2019/07/10']]","[['Routine', 'Routine', 'Routine']]","[[96, 96, 94]]"
328,LAO SZE CHUAN,304 OAK ST SE,44.97333,-93.22759,"[[274988, 286918, 286917, 340217]]","[['2019/01/03', '2019/02/13', '2020/01/02', '2020/01/15']]","[['Routine', 'Follow-Up', 'Routine', 'Follow-Up']]","[[88, 96, 86, 86]]"
329,LATINO GROCERIES,2312 CENTRAL AVE NE,45.01133,-93.24788,"[[27862, 27872, 232051, 232054]]","[['2017/11/02', '2017/11/02', '2019/05/01', '2019/05/01']]","[['Routine', 'Routine', 'Routine', 'Routine']]","[[96, 100, 98, 100]]"
330,LEANING TOWER OF PIZZA,2324 LYNDALE AVE S,44.95927,-93.28846,"[[27977, 232272, 279820]]","[['2017/11/02', '2018/11/16', '2019/11/18']]","[['Routine', 'Routine', 'Routine']]","[[96, 100, 100]]"
331,LEGENDARY SPICE,317 HURON BLVD SE,44.97321,-93.22313,"[[243479, 243641, 243640, 304716]]","[['2018/02/23', '2018/04/23', '2019/03/12', '2019/05/13']]","[['Routine', 'Follow-Up', 'Routine', 'Follow-Up']]","[[78, 96, 82, 92]]"
332,LIEN SON RESTAURANT,1216 BROADWAY ST NE,44.99857,-93.24136,"[[203712, 227577, 227576, 275499, 333918]]","[['2017/10/04', '2017/11/08', '2018/10/15', '2019/10/15', '2019/11/08']]","[['Routine', 'Follow-Up', 'Routine', 'Routine', 'Follow-Up']]","[[82, 98, 96, 78, 98]]"
333,LINDEN HILLS CO-OP,3815 SUNNYSIDE AVE,44.92194,-93.32843,"[[233541, 233542, 233543, 275066, 275064, 275065]]","[['2018/10/02', '2018/10/02', '2018/10/02', '2018/11/21', '2019/10/02', '2019/10/02']]","[['Routine', 'Routine', 'Routine', 'Follow-Up', 'Routine', 'Routine']]","[[100, 100, 82, 100, 100, 100]]"
334,LISTO! FRESH MEXICAN GRILL,1730 NEW BRIGHTON BLVD,45.00562,-93.22787,"[[245839, 251233, 251232, 337553]]","[['2018/05/22', '2018/06/27', '2019/11/20', '2019/12/18']]","[['Routine', 'Follow-Up', 'Routine', 'Follow-Up']]","[[90, 92, 90, 98]]"
335,LITTLE TIJUANA CAFE,17 26TH ST E,44.95533,-93.27711,"[[124448, 233141, 281041]]","[['2017/11/16', '2018/12/05', '2019/12/11']]","[['Routine', 'Routine', 'Routine']]","[[100, 100, 92]]"
336,LOEWS HOTEL - APOTHECARY RESTAURANT,601 1ST AVE N,44.97879,-93.27485,"[[40295, 190223, 237049, 286499]]","[['2017/02/02', '2018/01/02', '2018/12/26', '2019/12/20']]","[['Routine', 'Routine', 'Routine', 'Routine']]","[[94, 100, 96, 98]]"
337,LONGFELLOW GRILL,2990 WEST RIVER PKWY,44.94864,-93.20658,"[[40350, 190595, 189149, 243023, 243022, 303279]]","[['2017/01/24', '2017/03/29', '2018/02/14', '2018/04/06', '2019/03/05', '2019/05/22']]","[['Routine', 'Follow-Up', 'Routine', 'Follow-Up', 'Routine', 'Follow-Up']]","[[92, 96, 92, 96, 84, 94]]"
338,LOON GROCERY & DELI,2501 LYNDALE AVE S,44.95714,-93.28761,"[[40466, 199864, 199863, 251212, 251211]]","[['2017/05/22', '2017/07/07', '2018/05/22', '2018/07/13', '2019/05/21']]","[['Routine', 'Follow-Up', 'Routine', 'Follow-Up', 'Routine']]","[[96, 100, 92, 100, 94]]"
339,LOON GROCERY AND DELI,2501 LYNDALE AVE S,44.95714,-93.28761,"[[40440, 199843]]","[['2017/05/22', '2019/05/21']]","[['Routine', 'Routine']]","[[96, 100]]"
340,LOON SMOKESHOP,2503 LYNDALE AVE S,44.95714,-93.28761,[[262865]],[['2018/10/09']],[['Routine']],[[100]]
341,LOTUS TO GO,113 GRANT ST W,44.9696,-93.27993,"[[40716, 226978, 230974, 216077, 264422, 264421, 324735, 328653, 331329, 335402]]","[['2017/08/09', '2017/10/24', '2017/11/08', '2018/08/13', '2018/09/17', '2019/08/13', '2019/09/05', '2019/10/03', '2019/10/30', '2019/12/11']]","[['Routine', 'Follow-Up', 'Follow-Up', 'Routine', 'Follow-Up', 'Routine', 'Follow-Up', 'Follow-Up', 'Follow-Up', 'Follow-Up']]","[[92, 96, 96, 78, 96, 74, 78, 86, 86, 98]]"
342,LOWRY HILL LIQUORS,1922 HENNEPIN AVE #1ST FLOOR,44.96346,-93.29117,[[40842]],[['2018/06/07']],[['Routine']],[[100]]
343,LOWRY HILL MEATS,1934 HENNEPIN AVE #102,44.96302,-93.29152,"[[40844, 40846, 203422, 203421, 203407, 254753, 254752]]","[['2017/06/29', '2017/06/29', '2017/09/12', '2018/07/09', '2018/07/09', '2019/07/09', '2019/07/09']]","[['Routine', 'Routine', 'Follow-Up', 'Routine', 'Routine', 'Routine', 'Routine']]","[[92, 100, 100, 92, 100, 100, 100]]"
344,LUCKY DRAGON RESTAURANT,1827 RIVERSIDE AVE,44.96941,-93.24599,"[[47645, 193269, 245157]]","[['2017/03/16', '2018/03/01', '2019/02/28']]","[['Routine', 'Routine', 'Routine']]","[[100, 100, 94]]"
345,LUSH,990 CENTRAL AVE NE,44.99544,-93.24761,"[[47889, 216797, 265778, 274687, 265777, 324108]]","[['2017/08/10', '2018/08/09', '2018/09/25', '2018/11/14', '2019/08/08', '2019/09/19']]","[['Routine', 'Routine', 'Follow-Up', 'Follow-Up', 'Routine', 'Follow-Up']]","[[98, 94, 96, 96, 82, 96]]"
346,MACKENZIE,918 HENNEPIN AVE,44.97638,-93.27769,"[[48097, 218535, 270802]]","[['2017/08/10', '2018/08/17', '2019/08/15']]","[['Routine', 'Routine', 'Routine']]","[[98, 96, 92]]"
347,MALABARI,414 1/2 CEDAR AVE S,44.96962,-93.2475,"[[199559, 251654, 253432, 251653, 311553]]","[['2018/05/15', '2018/06/26', '2018/07/18', '2019/05/15', '2019/07/19']]","[['Routine', 'Follow-Up', 'Follow-Up', 'Routine', 'Follow-Up']]","[[84, 96, 100, 88, 92]]"
348,MAMA SHEILA SOUL FOOD KITCHEN,3744 BLOOMINGTON AVE,44.93429,-93.25279,"[[266413, 281120, 299667, 308749, 311531, 281119]]","[['2018/11/27', '2019/02/06', '2019/04/18', '2019/05/21', '2019/06/26', '2019/12/17']]","[['Routine', 'Follow-Up', 'Follow-Up', 'Follow-Up', 'Follow-Up', 'Routine']]","[[58, 92, 96, 90, 96, 80]]"
349,MAMAS BAKERY PIZZA SALAD BAR,800 NICOLLET MALL,44.97564,-93.27385,"[[55023, 193945, 247121, 247120]]","[['2017/03/24', '2018/03/27', '2018/04/18', '2019/04/29']]","[['Routine', 'Routine', 'Follow-Up', 'Routine']]","[[92, 98, 100, 100]]"
350,MANNINGS CAFE,2200 COMO AVE SE,44.98765,-93.22115,"[[124126, 124125, 234673, 234672, 286272, 301018, 308802, 286271, 339574]]","[['2017/04/28', '2017/12/05', '2018/01/24', '2018/12/18', '2019/02/25', '2019/04/19', '2019/05/01', '2019/12/18', '2020/01/17']]","[['Follow-Up', 'Routine', 'Follow-Up', 'Routine', 'Follow-Up', 'Follow-Up', 'Follow-Up', 'Routine', 'Follow-Up']]","[[96, 80, 98, 74, 92, 94, 100, 86, 96]]"
351,MANNYS TORTAS,920 LAKE ST E #125,44.94931,-93.26076,"[[55117, 200920, 252455, 252454]]","[['2017/06/07', '2018/06/12', '2018/08/14', '2019/06/18']]","[['Routine', 'Routine', 'Follow-Up', 'Routine']]","[[96, 94, 96, 92]]"
352,MANSION AT UPTOWN,2901 HENNEPIN AVE,44.9498,-93.29787,"[[55121, 191514, 250951]]","[['2017/02/28', '2018/05/15', '2019/05/24']]","[['Routine', 'Routine', 'Routine']]","[[98, 100, 100]]"
353,MARHABA,2801 NICOLLET AVE,44.95164,-93.2775,"[[55242, 190989, 243093]]","[['2017/02/14', '2018/02/15', '2019/02/14']]","[['Routine', 'Routine', 'Routine']]","[[94, 96, 98]]"
354,MARIAS CAFE,1113 FRANKLIN AVE E,44.96218,-93.25777,"[[124302, 234001, 280456]]","[['2017/11/27', '2018/11/26', '2019/12/04']]","[['Routine', 'Routine', 'Routine']]","[[100, 100, 96]]"
355,MARKET BAR-B-QUE,220 LOWRY AVE NE,45.013,-93.26509,"[[55503, 201976, 286813, 277122]]","[['2017/06/16', '2018/06/19', '2019/03/06', '2019/04/20']]","[['Routine', 'Routine', 'Routine', 'Routine']]","[[94, 100, 96, 92]]"
356,MARKET BAR-B-QUE 2,220 LOWRY AVE NE,45.013,-93.26509,"[[253647, 253730]]","[['2018/06/24', '2019/06/23']]","[['Routine', 'Routine']]","[[100, 96]]"
357,MARQUETTE HOTEL - JACQUES,710 MARQUETTE AVE,44.9763,-93.27148,"[[275072, 275074, 275073]]","[['2017/10/05', '2017/11/06', '2018/10/03']]","[['Routine', 'Follow-Up', 'Routine']]","[[86, 100, 100]]"
358,MARTINA,4312 UPTON AVE S,44.92421,-93.31519,"[[235031, 245049, 247994, 252982, 245048]]","[['2018/02/23', '2018/04/10', '2018/06/08', '2018/09/04', '2019/09/03']]","[['Routine', 'Follow-Up', 'Follow-Up', 'Follow-Up', 'Routine']]","[[70, 82, 92, 96, 96]]"
359,MASU SUSHI & ROBATA,328 HENNEPIN AVE E,44.98818,-93.25502,"[[62040, 192726, 246372, 307956]]","[['2017/03/15', '2018/03/16', '2019/03/27', '2019/05/24']]","[['Routine', 'Routine', 'Routine', 'Follow-Up']]","[[92, 94, 84, 98]]"
360,MAY DAY CAFE,3440 BLOOMINGTON AVE,44.93987,-93.25283,"[[124511, 124510, 234686, 234685, 280450]]","[['2017/01/24', '2017/12/04', '2018/01/11', '2018/11/28', '2019/12/04']]","[['Follow-Up', 'Routine', 'Follow-Up', 'Routine', 'Routine']]","[[92, 92, 98, 100, 92]]"
361,MAYA CUISINE,1840 CENTRAL AVE NE,45.00741,-93.24791,"[[62200, 222103, 222102, 271895]]","[['2017/08/17', '2017/08/18', '2018/08/17', '2019/08/16']]","[['Routine', 'Follow-Up', 'Routine', 'Routine']]","[[74, 98, 94, 94]]"
362,MAYSLACKS POLKA LOUNGE,1428 4TH ST NE,45.00285,-93.26184,"[[62232, 201168, 201167, 253166, 261235, 252682]]","[['2017/06/07', '2017/06/13', '2018/06/07', '2018/07/16', '2018/08/15', '2019/06/10']]","[['Routine', 'Follow-Up', 'Routine', 'Follow-Up', 'Follow-Up', 'Routine']]","[[84, 100, 90, 92, 100, 92]]"
363,MCCORMICK & SCHMICKS SEAFOOD RESTAURANT,800 NICOLLET MALL,44.97564,-93.27385,"[[62258, 192328, 241160, 241159]]","[['2017/03/09', '2018/01/17', '2018/02/21', '2019/02/12']]","[['Routine', 'Routine', 'Follow-Up', 'Routine']]","[[100, 88, 100, 94]]"
364,MCDONALD'S,2400 NICOLLET AVE,44.95884,-93.27837,"[[232498, 237190, 286982]]","[['2018/01/05', '2019/01/03', '2020/01/02']]","[['Routine', 'Routine', 'Routine']]","[[100, 96, 100]]"
365,MEI INN,4215 BLOOMINGTON AVE,44.92659,-93.252,"[[62674, 198303, 204077, 198302, 253239, 271802, 280643, 253238]]","[['2017/05/11', '2017/07/10', '2017/09/27', '2018/06/06', '2018/09/13', '2018/11/28', '2019/02/05', '2019/06/20']]","[['Routine', 'Follow-Up', 'Follow-Up', 'Routine', 'Follow-Up', 'Follow-Up', 'Follow-Up', 'Routine']]","[[76, 88, 96, 76, 80, 82, 100, 94]]"
366,MEMORY LANES,2520 26TH AVE S,44.95644,-93.23513,"[[62741, 228826, 228825, 277870, 286820, 277869]]","[['2017/10/06', '2017/11/21', '2018/10/30', '2019/01/04', '2019/02/27', '2019/10/30']]","[['Routine', 'Follow-Up', 'Routine', 'Follow-Up', 'Follow-Up', 'Routine']]","[[84, 96, 92, 92, 100, 96]]"
367,MERCURY DINING ROOM & SHINDIG EVENT CTR,505 MARQUETTE AVE,44.97787,-93.26902,"[[251079, 252713, 252712, 314372]]","[['2018/06/12', '2018/07/24', '2019/06/18', '2019/07/18']]","[['Routine', 'Follow-Up', 'Routine', 'Follow-Up']]","[[66, 100, 86, 98]]"
368,MERCY DINING ROOM & BAR,901 HENNEPIN AVE,44.97606,-93.27687,"[[55295, 216083, 266518, 272287, 266517]]","[['2017/08/10', '2018/08/14', '2018/09/17', '2018/10/31', '2019/08/23']]","[['Routine', 'Routine', 'Follow-Up', 'Follow-Up', 'Routine']]","[[90, 84, 92, 100, 94]]"
369,MERLINS REST PUB,3601 LAKE ST E,44.94808,-93.22019,"[[180624, 180623, 242149, 302771]]","[['2017/02/21', '2018/02/05', '2019/02/27', '2019/04/24']]","[['Follow-Up', 'Routine', 'Routine', 'Follow-Up']]","[[96, 100, 88, 98]]"
370,MESA PIZZA,1323 4TH ST SE,44.98097,-93.23602,"[[13915, 234095, 234094]]","[['2017/11/28', '2018/01/12', '2019/05/29']]","[['Routine', 'Follow-Up', 'Routine']]","[[92, 96, 96]]"
371,MESA PIZZA UPTOWN,1440 LAKE ST W,44.94883,-93.29925,"[[13930, 200536]]","[['2017/05/31', '2018/12/05']]","[['Routine', 'Routine']]","[[96, 100]]"
372,MIDTOWN FARMERS MARKET,3032 MINNEHAHA AVE,44.94723,-93.23397,[[308847]],[['2019/08/03']],[['Routine']],[[100]]
373,MISSION AMERICAN KITCHEN & BAR,80 8TH ST S,44.97609,-93.27207,"[[21930, 192983, 192982, 247221, 247220, 309293]]","[['2017/03/15', '2017/04/24', '2018/03/30', '2018/05/15', '2019/04/23', '2019/06/21']]","[['Routine', 'Follow-Up', 'Routine', 'Follow-Up', 'Routine', 'Follow-Up']]","[[88, 100, 70, 94, 86, 100]]"
374,MODERN TIMES,3200 CHICAGO AVE,44.94459,-93.26302,"[[28324, 193030, 245366]]","[['2017/03/13', '2018/03/02', '2019/03/05']]","[['Routine', 'Routine', 'Routine']]","[[100, 88, 94]]"
375,MOJO COFFEE GALLERY,2205 CALIFORNIA ST NE,45.01058,-93.26855,"[[28331, 193514, 246819, 290811, 339784, 340492]]","[['2017/03/24', '2018/03/26', '2018/12/07', '2019/12/06', '2020/01/07', '2020/01/07']]","[['Routine', 'Routine', 'Routine', 'Routine', 'Follow-Up', 'Follow-Up']]","[[98, 100, 96, 90, 94, 94]]"
376,MOMO SUSHI,1839 CENTRAL AVE NE,45.00735,-93.24701,[[281409]],[['2019/02/12']],[['Routine']],[[94]]
377,MONELLO / CONSTANTINE,1115 2ND AVE S #LOWER,44.97139,-93.27267,"[[125015, 125014, 233392, 233391, 281411, 339577]]","[['2017/01/27', '2017/11/13', '2017/12/20', '2018/12/11', '2019/12/12', '2020/01/10']]","[['Follow-Up', 'Routine', 'Follow-Up', 'Routine', 'Routine', 'Follow-Up']]","[[96, 82, 96, 92, 84, 96]]"
378,MONTE CARLO,219 3RD AVE N,44.98471,-93.27169,"[[34480, 231202, 233938, 231201, 278324, 278323, 334505]]","[['2017/10/20', '2017/11/27', '2018/02/13', '2018/10/30', '2019/05/04', '2019/10/23', '2019/11/22']]","[['Routine', 'Follow-Up', 'Follow-Up', 'Routine', 'Follow-Up', 'Routine', 'Follow-Up']]","[[88, 92, 92, 90, 100, 80, 96]]"
379,MOOSE AND SADIE'S COFFEE HOUSE,212 3RD AVE N #107,44.98532,-93.27222,"[[34527, 254814, 255467]]","[['2017/02/03', '2018/07/18', '2019/07/18']]","[['Routine', 'Routine', 'Routine']]","[[96, 92, 92]]"
380,MOOSE ON MONROE,356 MONROE ST NE,44.99462,-93.25279,"[[278325, 279477, 281582, 279476, 337293, 340447]]","[['2018/11/07', '2018/12/17', '2019/01/28', '2019/11/07', '2019/12/27', '2020/02/03']]","[['Routine', 'Follow-Up', 'Follow-Up', 'Routine', 'Follow-Up', 'Follow-Up']]","[[94, 88, 98, 76, 88, 96]]"
381,MOROCCAN FLAVORS,920 LAKE ST E #126,44.94931,-93.26076,"[[34610, 198005, 198004, 248925, 248924, 309194]]","[['2017/05/09', '2017/06/07', '2018/04/30', '2018/06/01', '2019/04/25', '2019/05/21']]","[['Routine', 'Follow-Up', 'Routine', 'Follow-Up', 'Routine', 'Follow-Up']]","[[92, 100, 72, 96, 92, 100]]"
382,MUDDY WATERS,2933 LYNDALE AVE S,44.94922,-93.28767,"[[34925, 204573, 251514, 254815]]","[['2017/07/01', '2017/09/21', '2018/07/18', '2019/07/16']]","[['Routine', 'Follow-Up', 'Routine', 'Routine']]","[[88, 100, 100, 94]]"
383,MY BURGER,601 MARQUETTE AVE #206,44.97688,-93.26998,"[[35054, 191899, 191898, 245435, 245434, 302799]]","[['2017/02/28', '2017/04/24', '2018/03/06', '2018/04/04', '2019/03/04', '2019/04/12']]","[['Routine', 'Follow-Up', 'Routine', 'Follow-Up', 'Routine', 'Follow-Up']]","[[96, 100, 88, 96, 72, 94]]"
384,MY BURGER,213 OAK ST SE,44.97418,-93.22666,"[[35048, 35043, 212635, 212634, 201031, 256642, 252053, 313220]]","[['2017/06/08', '2017/08/04', '2017/09/06', '2018/06/05', '2018/06/05', '2019/06/06', '2019/07/11', '2019/07/29']]","[['Routine', 'Routine', 'Follow-Up', 'Routine', 'Routine', 'Routine', 'Routine', 'Follow-Up']]","[[92, 88, 96, 94, 94, 90, 96, 100]]"
385,MY BURGER,3100 EXCELSIOR BLVD,44.94503,-93.32364,"[[35031, 226999, 226998, 272236]]","[['2017/09/25', '2017/11/02', '2018/09/18', '2019/09/18']]","[['Routine', 'Follow-Up', 'Routine', 'Routine']]","[[96, 100, 94, 100]]"
386,MY HUONG KITCHEN,2718 NICOLLET AVE #101B,44.95308,-93.27841,"[[35079, 194139, 247195]]","[['2017/03/28', '2018/03/30', '2019/03/28']]","[['Routine', 'Routine', 'Routine']]","[[100, 100, 96]]"
387,NAF NAF GRILL,200 6TH ST S #110,44.9769,-93.26762,"[[40973, 229646, 229645, 274679]]","[['2017/10/06', '2017/11/22', '2018/10/03', '2019/10/02']]","[['Routine', 'Follow-Up', 'Routine', 'Routine']]","[[92, 100, 100, 96]]"
388,NAF NAF GRILL,856 WASHINGTON AVE SE,44.97333,-93.22601,"[[40975, 232633, 279330]]","[['2017/11/07', '2018/11/13', '2019/11/13']]","[['Routine', 'Routine', 'Routine']]","[[100, 100, 98]]"
389,NAF NAF GRILL,121 8TH ST S,44.97441,-93.27109,"[[227850, 234229, 281418]]","[['2017/11/29', '2018/12/12', '2019/12/16']]","[['Routine', 'Routine', 'Routine']]","[[100, 96, 100]]"
390,NAMASTE CAFE,2512 HENNEPIN AVE,44.95691,-93.29624,"[[180568, 180567, 237013, 237012, 268860]]","[['2017/02/23', '2017/12/13', '2018/02/16', '2018/08/11', '2019/08/16']]","[['Follow-Up', 'Routine', 'Follow-Up', 'Routine', 'Routine']]","[[100, 88, 96, 96, 96]]"
391,NICOS TACOS,2516 HENNEPIN AVE,44.95678,-93.29629,"[[124532, 124531, 234852, 234851, 285068, 338846]]","[['2017/01/24', '2017/11/29', '2018/02/16', '2018/11/28', '2019/12/11', '2020/01/14']]","[['Follow-Up', 'Routine', 'Follow-Up', 'Routine', 'Routine', 'Follow-Up']]","[[98, 92, 100, 94, 84, 96]]"
392,NIGHTHAWKS,3753 NICOLLET AVE,44.93438,-93.27748,"[[48565, 201868, 201867, 266898, 271337, 277928, 271336, 331643, 338883]]","[['2017/06/13', '2017/07/19', '2018/06/27', '2018/08/23', '2018/10/16', '2018/11/07', '2019/08/22', '2019/12/04', '2020/01/23']]","[['Routine', 'Follow-Up', 'Routine', 'Routine', 'Follow-Up', 'Follow-Up', 'Routine', 'Follow-Up', 'Follow-Up']]","[[66, 100, 68, 82, 82, 98, 68, 90, 86]]"
393,NIGHTINGALE,2551 LYNDALE AVE S,44.95578,-93.28769,"[[48580, 181098, 48566, 231103, 231102, 277018, 334474]]","[['2017/01/05', '2017/03/16', '2017/10/24', '2017/11/28', '2018/10/23', '2019/10/23', '2019/12/11']]","[['Follow-Up', 'Follow-Up', 'Routine', 'Follow-Up', 'Routine', 'Routine', 'Follow-Up']]","[[100, 100, 80, 90, 92, 70, 96]]"
394,NOLO'S KITCHEN & BAR / THE BASEMENT BAR,511 WASHINGTON AVE N,44.98618,-93.27554,"[[231474, 236995, 285912, 285911, 339096]]","[['2017/12/21', '2018/12/18', '2019/01/09', '2019/12/17', '2020/01/14']]","[['Routine', 'Routine', 'Follow-Up', 'Routine', 'Follow-Up']]","[[96, 82, 94, 84, 92]]"
395,NOODLES & COMPANY,3040 EXCELSIOR BLVD,44.94759,-93.32256,"[[48751, 196506, 196505, 248239]]","[['2017/04/20', '2017/06/13', '2018/04/19', '2019/05/03']]","[['Routine', 'Follow-Up', 'Routine', 'Routine']]","[[90, 98, 100, 100]]"
396,NORMANDY KITCHEN,405 8TH ST S,44.97315,-93.26743,"[[30146, 190596, 189765, 242963, 298684]]","[['2017/02/01', '2017/03/27', '2018/02/07', '2019/02/13', '2019/03/26']]","[['Routine', 'Follow-Up', 'Routine', 'Routine', 'Follow-Up']]","[[86, 100, 94, 88, 96]]"
397,NORTH LOOP GALLEY,729 WASHINGTON AVE N,44.98794,-93.27803,"[[338343, 349502, 349731]]","[['2020/01/24', '2020/01/27', '2020/02/06']]","[['Routine', 'Follow-Up', 'Follow-Up']]","[[46, 88, 76]]"
398,NORTHEAST CENTER,342 13TH AVE NE,45.00058,-93.26222,"[[55691, 228253, 277027, 304308]]","[['2017/10/02', '2018/10/02', '2019/03/18', '2019/10/03']]","[['Routine', 'Routine', 'Routine', 'Routine']]","[[100, 100, 98, 100]]"
399,NORTHERN COFFEEWORKS,1027 WASHINGTON AVE S,44.97519,-93.25366,"[[205634, 227827, 228733, 277223]]","[['2017/09/25', '2017/09/27', '2018/10/12', '2019/10/09']]","[['Routine', 'Routine', 'Routine', 'Routine']]","[[98, 98, 100, 94]]"
400,NORTHERN LIGHTS TEA COMPANY,811 LASALLE AVE,44.97592,-93.27444,"[[55762, 234911]]","[['2017/12/04', '2019/11/05']]","[['Routine', 'Routine']]","[[94, 94]]"
401,ONE TWO THREE SUSHI,80 8TH ST S #228,44.97609,-93.27207,"[[63211, 213783, 213782, 265726, 265725, 324692]]","[['2017/08/07', '2017/10/10', '2018/08/20', '2018/10/11', '2019/08/19', '2019/10/07']]","[['Routine', 'Follow-Up', 'Routine', 'Follow-Up', 'Routine', 'Follow-Up']]","[[72, 94, 80, 94, 84, 100]]"
402,ONE WEST CATERING,1 DIAMOND LAKE RD W,44.90375,-93.27844,"[[63259, 188672, 242411]]","[['2017/01/19', '2018/01/29', '2019/02/08']]","[['Routine', 'Routine', 'Routine']]","[[96, 100, 100]]"
403,ORIENT EXPRESS,601 MARQUETTE AVE #204,44.97686,-93.26995,"[[63331, 189652, 241264, 241263, 287858, 340419]]","[['2017/01/18', '2018/01/19', '2018/02/28', '2019/01/10', '2020/01/08', '2020/01/22']]","[['Routine', 'Routine', 'Follow-Up', 'Routine', 'Routine', 'Follow-Up']]","[[94, 94, 100, 98, 84, 96]]"
404,ORIGAMI UPTOWN,1354 LAGOON AVE,44.94972,-93.29735,"[[63359, 63360, 229331, 228772, 275775, 275086]]","[['2017/01/26', '2017/10/11', '2017/12/29', '2018/10/10', '2018/12/08', '2019/10/10']]","[['Follow-Up', 'Routine', 'Follow-Up', 'Routine', 'Follow-Up', 'Routine']]","[[100, 90, 100, 88, 100, 94]]"
405,ORIGIN MEALS - CLIFTON LARSON ALLEN,220 6TH ST S,44.9769,-93.26762,[[320061]],[['2019/09/30']],[['Routine']],[[100]]
406,OUR KITCHEN,813 36TH ST W,44.93752,-93.29039,"[[14552, 228706, 235160, 228705, 276594, 276593]]","[['2017/10/10', '2017/12/12', '2018/02/06', '2018/10/18', '2018/11/27', '2019/10/18']]","[['Routine', 'Follow-Up', 'Follow-Up', 'Routine', 'Follow-Up', 'Routine']]","[[90, 94, 100, 78, 100, 94]]"
407,PAD GA POW,811 LASALLE AVE #207,44.97592,-93.27444,"[[14669, 199899, 199898, 249138]]","[['2017/05/18', '2017/06/14', '2018/04/25', '2019/03/18']]","[['Routine', 'Follow-Up', 'Routine', 'Routine']]","[[64, 94, 100, 100]]"
408,PAGODA,1417 4TH ST SE,44.98044,-93.23469,"[[14695, 192205, 245741, 304479]]","[['2017/02/27', '2018/03/07', '2019/03/08', '2019/05/01']]","[['Routine', 'Routine', 'Routine', 'Follow-Up']]","[[100, 96, 80, 94]]"
409,PAIR OF DICE PIZZA,2715 WEST BROADWAY,45.00926,-93.31505,"[[180867, 180866, 238099, 289678]]","[['2017/02/13', '2018/01/12', '2019/01/11', '2019/03/01']]","[['Follow-Up', 'Routine', 'Routine', 'Follow-Up']]","[[100, 90, 88, 94]]"
410,PANCHO VILLA'S RESTAURANT,2539 NICOLLET AVE,44.95603,-93.27747,"[[312845, 319029, 329225]]","[['2019/07/25', '2019/09/11', '2019/11/18']]","[['Routine', 'Follow-Up', 'Follow-Up']]","[[76, 90, 92]]"
411,PANERA BREAD #1318,809 NICOLLET MALL,44.97559,-93.2728,"[[14945, 199883, 199882, 247533]]","[['2017/05/16', '2017/06/14', '2018/03/04', '2019/03/06']]","[['Routine', 'Follow-Up', 'Routine', 'Routine']]","[[84, 100, 96, 96]]"
412,PANERA BREAD #8001,809 NICOLLET MALL,44.97559,-93.2728,"[[14955, 245170]]","[['2018/02/27', '2019/08/21']]","[['Routine', 'Routine']]","[[96, 100]]"
413,PANTAGES THEATRE,710 HENNEPIN AVE #TRACT TRAC,44.97801,-93.27548,"[[14979, 196901]]","[['2017/04/26', '2018/11/06']]","[['Routine', 'Routine']]","[[96, 92]]"
414,PARALLEL,145 HOLDEN ST N,44.97948,-93.28425,"[[241941, 248353]]","[['2018/04/04', '2019/10/03']]","[['Routine', 'Routine']]","[[94, 92]]"
415,PARKWAY PIZZA,2851 JOHNSON ST NE,45.02025,-93.23674,"[[22184, 194016, 191540, 245426]]","[['2017/03/01', '2017/04/25', '2018/03/01', '2019/03/01']]","[['Routine', 'Follow-Up', 'Routine', 'Routine']]","[[86, 98, 100, 100]]"
416,PARKWAY PIZZA,4359 MINNEHAHA AVE,44.92349,-93.21639,"[[22171, 201549, 201548, 253979, 253978]]","[['2017/06/14', '2017/08/08', '2018/06/27', '2018/08/15', '2019/07/10']]","[['Routine', 'Follow-Up', 'Routine', 'Follow-Up', 'Routine']]","[[90, 98, 96, 96, 96]]"
417,PARKWAY THEATER,4814 CHICAGO AVE,44.9156,-93.26304,"[[275529, 303967]]","[['2019/03/06', '2019/05/15']]","[['Routine', 'Follow-Up']]","[[86, 100]]"
418,PASTELERIA EL DURANGUENSE,2418 CENTRAL AVE NE,45.01281,-93.24788,"[[22214, 189820, 237003, 237002, 286183, 296768, 303692]]","[['2017/02/01', '2017/12/18', '2018/02/06', '2018/12/24', '2019/02/06', '2019/03/11', '2019/04/23']]","[['Routine', 'Routine', 'Follow-Up', 'Routine', 'Follow-Up', 'Follow-Up', 'Follow-Up']]","[[98, 78, 100, 96, 94, 94, 96]]"
419,PATISSERIE 46,4552 GRAND AVE S,44.91976,-93.28481,"[[22281, 224927, 224926, 274035, 274034]]","[['2017/08/31', '2017/10/26', '2018/09/27', '2018/11/14', '2019/11/01']]","[['Routine', 'Follow-Up', 'Routine', 'Follow-Up', 'Routine']]","[[94, 100, 90, 100, 92]]"
420,PENINSULA MALAYSIAN CUISINE,2608 NICOLLET AVE,44.95511,-93.27832,"[[22440, 204364, 204363, 255489, 255488]]","[['2017/07/13', '2017/08/15', '2018/07/18', '2018/09/07', '2019/07/17']]","[['Routine', 'Follow-Up', 'Routine', 'Follow-Up', 'Routine']]","[[82, 96, 90, 96, 98]]"
421,PENNYS COFFEE,3509 44TH ST W,44.92292,-93.32437,"[[232391, 241356, 246081, 241355, 292948, 292947]]","[['2018/01/18', '2018/03/13', '2018/05/02', '2019/01/18', '2019/02/28', '2020/01/15']]","[['Routine', 'Follow-Up', 'Follow-Up', 'Routine', 'Follow-Up', 'Routine']]","[[66, 86, 96, 92, 100, 100]]"
422,PEOPLES ORGANIC COFFEE & WINE,3001 HENNEPIN AVE #1175,44.94743,-93.29732,"[[22611, 224167, 228848, 224166, 272064, 278086, 272063]]","[['2017/08/24', '2017/10/12', '2017/11/07', '2018/09/13', '2018/10/29', '2018/11/30', '2019/09/13']]","[['Routine', 'Follow-Up', 'Follow-Up', 'Routine', 'Follow-Up', 'Follow-Up', 'Routine']]","[[88, 88, 94, 72, 94, 100, 92]]"
423,PEPPERS & FRIES,3900 LAKE ST E,44.94864,-93.21619,"[[22712, 192234, 192233, 247539, 247538]]","[['2017/03/07', '2017/04/18', '2018/04/05', '2018/05/15', '2019/04/18']]","[['Routine', 'Follow-Up', 'Routine', 'Follow-Up', 'Routine']]","[[90, 98, 86, 100, 94]]"
424,PHO TAU BAY RESTAURANT,2837 NICOLLET AVE,44.95073,-93.27751,"[[124529, 197796, 124528, 232598, 232597, 280132]]","[['2017/05/01', '2017/06/22', '2017/11/06', '2018/01/18', '2018/11/20', '2019/05/21']]","[['Follow-Up', 'Follow-Up', 'Routine', 'Follow-Up', 'Routine', 'Routine']]","[[70, 98, 94, 96, 94, 92]]"
425,PIMENTO JAMAICAN KITCHEN,2524 NICOLLET AVE,44.95644,-93.27839,"[[200553, 28793, 203782, 208335, 259489, 252647, 259488, 320018]]","[['2017/07/07', '2017/07/26', '2018/06/14', '2018/07/30', '2018/09/18', '2019/06/08', '2019/07/30', '2019/09/19']]","[['Routine', 'Routine', 'Routine', 'Routine', 'Follow-Up', 'Routine', 'Routine', 'Follow-Up']]","[[96, 96, 100, 94, 96, 92, 90, 94]]"
426,PINEDA MOBILE,2130 LAKE ST E,44.94937,-93.24092,[[249297]],[['2019/08/29']],[['Routine']],[[92]]
427,PINEDA TACOS PLUS,330 LAKE ST E,44.94854,-93.27084,"[[28838, 192331, 245275, 245274]]","[['2017/03/07', '2018/03/02', '2018/04/06', '2019/03/05']]","[['Routine', 'Routine', 'Follow-Up', 'Routine']]","[[96, 96, 98, 96]]"
428,PINEDAS TACOS,2130 LAKE ST E,44.94937,-93.24092,"[[203550, 222852, 272079, 272078, 326152]]","[['2017/08/24', '2018/09/13', '2018/10/23', '2019/08/26', '2019/10/24']]","[['Routine', 'Routine', 'Follow-Up', 'Routine', 'Follow-Up']]","[[100, 96, 100, 86, 98]]"
429,PINKU JAPANESE STREET FOOD,20 UNIVERSITY AVE NE #D,44.98843,-93.25699,"[[28869, 214833, 271715]]","[['2017/08/03', '2018/09/12', '2019/09/12']]","[['Routine', 'Routine', 'Routine']]","[[100, 100, 94]]"
430,PIZZA HUT  #30214,4800 CHICAGO AVE,44.91592,-93.26294,"[[28961, 190694, 190693, 253897, 263460, 253896]]","[['2017/02/15', '2017/03/15', '2018/06/28', '2018/08/09', '2018/09/13', '2019/12/16']]","[['Routine', 'Follow-Up', 'Routine', 'Follow-Up', 'Follow-Up', 'Routine']]","[[96, 100, 86, 90, 96, 96]]"
431,PIZZA LA VISTA,504 1ST AVE N,44.9804,-93.27433,"[[29010, 188223, 242643, 296837]]","[['2017/01/18', '2018/02/08', '2019/02/07', '2020/02/04']]","[['Routine', 'Routine', 'Routine', 'Routine']]","[[100, 100, 100, 100]]"
432,PIZZA LUCE,2200 FRANKLIN AVE E,44.96299,-93.24045,"[[29056, 198277, 201882, 198276, 251487]]","[['2017/05/15', '2017/06/20', '2017/07/17', '2018/05/25', '2019/05/22']]","[['Routine', 'Follow-Up', 'Follow-Up', 'Routine', 'Routine']]","[[82, 90, 100, 100, 98]]"
433,PIZZA LUCE,3200 LYNDALE AVE S,44.94451,-93.28857,"[[36984, 221442, 221441, 265797]]","[['2017/08/22', '2017/10/13', '2018/08/20', '2019/08/20']]","[['Routine', 'Follow-Up', 'Routine', 'Routine']]","[[86, 100, 98, 100]]"
434,PIZZA LUCE',119 4TH ST N,44.98159,-93.27371,"[[29031, 181546, 181545, 242900]]","[['2017/01/17', '2017/02/14', '2018/02/09', '2019/02/19']]","[['Routine', 'Follow-Up', 'Routine', 'Routine']]","[[94, 100, 96, 94]]"
435,PIZZERIA LOLA,5557 XERXES AVE S,44.90186,-93.31846,"[[29115, 190548, 189626, 243578]]","[['2017/01/26', '2017/04/18', '2018/02/15', '2019/02/27']]","[['Routine', 'Follow-Up', 'Routine', 'Routine']]","[[96, 100, 100, 96]]"
436,POPEYES CHICKEN & BISCUITS,310 LAKE ST W,44.9486,-93.28341,"[[124508, 124507, 233108, 279227]]","[['2017/04/28', '2017/11/13', '2018/11/13', '2019/11/15']]","[['Follow-Up', 'Routine', 'Routine', 'Routine']]","[[100, 100, 98, 98]]"
437,POPOL VUH,1414 QUINCY ST NE,45.00276,-93.25158,"[[253447, 272291, 272290]]","[['2018/08/24', '2018/09/24', '2019/08/23']]","[['Routine', 'Follow-Up', 'Routine']]","[[84, 92, 90]]"
438,POTBELLY SANDWICH WORKS,80 8TH ST S,44.97609,-93.27207,"[[35230, 225464, 225463, 304120]]","[['2017/09/13', '2017/11/02', '2019/03/12', '2019/04/12']]","[['Routine', 'Follow-Up', 'Routine', 'Follow-Up']]","[[94, 100, 92, 100]]"
439,POTTERS PASTIES,1828 COMO AVE SE,44.98757,-93.22588,"[[35270, 202535, 252780]]","[['2017/06/27', '2018/06/15', '2019/06/11']]","[['Routine', 'Routine', 'Routine']]","[[96, 98, 94]]"
440,POTTERS PASTIES 2,1828 COMO AVE SE,44.98757,-93.22588,"[[35274, 202512, 253490]]","[['2017/06/27', '2018/06/27', '2019/05/05']]","[['Routine', 'Routine', 'Routine']]","[[100, 94, 94]]"
441,POTTERS PASTIES AND PIES,1828 COMO AVE SE,44.98757,-93.22588,"[[35285, 202011, 202010, 253455]]","[['2017/06/10', '2017/06/27', '2018/06/26', '2019/06/27']]","[['Routine', 'Follow-Up', 'Routine', 'Routine']]","[[92, 100, 100, 98]]"
442,PRACNA & THEATRE,115 MAIN ST SE,44.98478,-93.25567,"[[35308, 209045, 209044, 254559, 254558, 315672]]","[['2017/07/18', '2017/09/13', '2018/07/12', '2018/08/14', '2019/07/12', '2019/08/19']]","[['Routine', 'Follow-Up', 'Routine', 'Follow-Up', 'Routine', 'Follow-Up']]","[[76, 100, 96, 100, 88, 92]]"
443,PRIETO,701 LAKE ST W,44.94814,-93.28838,[[313343]],[['2019/08/08']],[['Routine']],[[92]]
444,PRIMA PASTA SALADS PANINI,5325 LYNDALE AVE S,44.90616,-93.28761,"[[35399, 203261, 253556]]","[['2017/06/29', '2018/06/27', '2019/06/25']]","[['Routine', 'Routine', 'Routine']]","[[94, 96, 96]]"
445,PSYCHO SUZI'S MOTOR LOUNGE,1900 MARSHALL ST NE,45.00752,-93.27233,"[[203939, 210661, 210660, 261205, 261204]]","[['2017/07/20', '2017/08/18', '2018/07/20', '2018/08/17', '2019/07/19']]","[['Routine', 'Follow-Up', 'Routine', 'Follow-Up', 'Routine']]","[[92, 100, 86, 100, 92]]"
446,PUNCH NEAPOLITAN PIZZA,3226 LAKE ST W,44.94913,-93.32083,"[[35604, 190579, 189723, 242938, 242937]]","[['2017/01/30', '2017/03/22', '2018/02/12', '2018/03/20', '2019/02/22']]","[['Routine', 'Follow-Up', 'Routine', 'Follow-Up', 'Routine']]","[[86, 100, 86, 98, 96]]"
447,PUNCH NEAPOLITAN PIZZA,208 HENNEPIN AVE E,44.98746,-93.25676,"[[35583, 191728, 245838, 245837, 304951]]","[['2017/02/27', '2018/03/12', '2018/04/18', '2019/03/14', '2019/05/02']]","[['Routine', 'Routine', 'Follow-Up', 'Routine', 'Follow-Up']]","[[100, 94, 100, 94, 100]]"
448,PUNCH NEAPOLITAN PIZZA,802 WASHINGTON AVE SE,44.97341,-93.2268,"[[35623, 202185, 253342]]","[['2017/06/23', '2018/06/25', '2019/06/19']]","[['Routine', 'Routine', 'Routine']]","[[100, 96, 100]]"
449,Q FANATIC BBQ,6009 NICOLLET AVE,44.89396,-93.27773,"[[124248, 124247, 234416, 234508, 280556]]","[['2017/02/01', '2017/11/30', '2017/11/30', '2018/11/29', '2019/11/06']]","[['Follow-Up', 'Routine', 'Routine', 'Routine', 'Routine']]","[[100, 98, 98, 100, 92]]"
450,QDOBA MEXICAN GRILL,324 14TH AVE SE,44.98014,-93.23575,"[[35709, 192733, 246727, 246726, 307960]]","[['2017/03/15', '2018/03/21', '2018/05/02', '2019/04/02', '2019/05/16']]","[['Routine', 'Routine', 'Follow-Up', 'Routine', 'Follow-Up']]","[[100, 100, 100, 92, 96]]"
451,QUANG RESTAURANT,2719 NICOLLET AVE,44.95309,-93.27749,"[[35893, 224823, 224822, 271359]]","[['2017/09/07', '2017/10/24', '2018/09/07', '2019/09/06']]","[['Routine', 'Follow-Up', 'Routine', 'Routine']]","[[82, 100, 100, 92]]"
452,R A MACSAMMY'S  ELBOW ROOM,735 48TH ST E,44.91592,-93.26318,"[[255638, 275313, 275312]]","[['2018/09/26', '2018/11/14', '2019/10/29']]","[['Routine', 'Follow-Up', 'Routine']]","[[76, 96, 92]]"
453,RAAG PROGRESSIVE INDIAN RESTAURANT,3812 50TH ST W,44.91285,-93.32813,[[332037]],[['2020/01/02']],[['Routine']],[[98]]
454,RAINBOW CHINESE RESTAURANT,2739 NICOLLET AVE,44.95242,-93.2775,"[[180079, 233211, 280589]]","[['2017/11/16', '2018/11/27', '2019/12/17']]","[['Routine', 'Routine', 'Routine']]","[[98, 96, 94]]"
455,RAISING CANES CHICKEN FINGERS,825 WASHINGTON AVE SE,44.97405,-93.22603,"[[42053, 227811]]","[['2017/10/05', '2019/04/03']]","[['Routine', 'Routine']]","[[100, 100]]"
456,RAMEN KAZAMA,3400 NICOLLET AVE,44.94108,-93.2782,"[[42084, 192166, 192165, 247082]]","[['2017/03/01', '2017/04/06', '2018/03/21', '2019/04/18']]","[['Routine', 'Follow-Up', 'Routine', 'Routine']]","[[100, 100, 100, 96]]"
457,RAMEN KAZAMA SELECT,1510 COMO AVE SE,44.9876,-93.22983,"[[247304, 251364, 251363, 311587]]","[['2018/05/24', '2018/07/13', '2019/05/23', '2019/07/19']]","[['Routine', 'Follow-Up', 'Routine', 'Follow-Up']]","[[60, 92, 88, 100]]"
458,RAY J'S,500 CENTRAL AVE SE,44.9888,-93.25277,"[[42155, 42156, 231476, 237106, 243190, 247791, 231475, 278710, 281581, 278709, 336080]]","[['2017/03/07', '2017/10/18', '2017/12/20', '2018/02/19', '2018/04/05', '2018/05/11', '2018/10/30', '2018/12/14', '2019/01/25', '2019/10/30', '2019/12/10']]","[['Follow-Up', 'Routine', 'Follow-Up', 'Follow-Up', 'Follow-Up', 'Follow-Up', 'Routine', 'Follow-Up', 'Follow-Up', 'Routine', 'Follow-Up']]","[[100, 78, 84, 92, 92, 96, 76, 94, 98, 74, 96]]"
459,RED COW,208 1ST AVE N,44.98377,-93.26972,"[[190043, 191145, 191144, 245666, 245665, 308654]]","[['2017/02/22', '2017/04/14', '2018/03/01', '2018/04/09', '2019/03/27', '2019/05/24']]","[['Routine', 'Follow-Up', 'Routine', 'Follow-Up', 'Routine', 'Follow-Up']]","[[88, 100, 70, 90, 90, 96]]"
460,RED COW,3624 50TH ST W,44.91272,-93.32613,"[[229151, 230345, 241026, 230344, 277420, 277419]]","[['2017/10/19', '2018/01/11', '2018/02/27', '2018/10/25', '2018/11/30', '2019/10/30']]","[['Routine', 'Follow-Up', 'Follow-Up', 'Routine', 'Follow-Up', 'Routine']]","[[78, 90, 96, 86, 100, 100]]"
461,RED COW,2626 HENNEPIN AVE,44.95469,-93.29767,"[[219209, 230842, 278486]]","[['2017/10/20', '2018/10/22', '2019/10/25']]","[['Routine', 'Routine', 'Routine']]","[[90, 92, 96]]"
462,RED DRAGON,2116 LYNDALE AVE S,44.96116,-93.28845,"[[42261, 229640, 229639, 280383, 279818, 337779]]","[['2017/10/16', '2017/12/18', '2018/11/16', '2019/02/03', '2019/11/15', '2020/01/02']]","[['Routine', 'Follow-Up', 'Routine', 'Follow-Up', 'Routine', 'Follow-Up']]","[[96, 98, 92, 92, 90, 98]]"
463,RED RABBIT,201 WASHINGTON AVE N,44.98359,-93.2719,"[[247353, 248896, 252146, 248895]]","[['2018/04/25', '2018/06/07', '2018/07/05', '2019/05/09']]","[['Routine', 'Follow-Up', 'Follow-Up', 'Routine']]","[[78, 92, 94, 100]]"
464,RED STAG SUPPERCLUB,509 1ST AVE NE,44.99048,-93.25374,"[[42333, 205321, 205320, 259501, 267876, 259500, 316252]]","[['2017/07/12', '2017/09/13', '2018/07/18', '2018/08/23', '2018/10/17', '2019/07/18', '2019/09/03']]","[['Routine', 'Follow-Up', 'Routine', 'Follow-Up', 'Follow-Up', 'Routine', 'Follow-Up']]","[[92, 96, 84, 92, 96, 86, 92]]"
465,RED WAGON PIZZA,5416 PENN AVE S,44.90457,-93.30906,"[[48928, 190597, 189153, 243573]]","[['2017/01/25', '2017/03/22', '2018/02/14', '2019/02/27']]","[['Routine', 'Follow-Up', 'Routine', 'Routine']]","[[92, 96, 100, 100]]"
466,REPUBLIC,221 CEDAR AVE S,44.97318,-93.24693,"[[189623, 196262, 196261, 248488, 252249, 254639, 248487]]","[['2017/04/10', '2017/05/25', '2018/04/23', '2018/05/29', '2018/07/16', '2018/09/27', '2019/04/23']]","[['Routine', 'Follow-Up', 'Routine', 'Follow-Up', 'Follow-Up', 'Follow-Up', 'Routine']]","[[72, 96, 82, 86, 88, 96, 90]]"
467,RESTAURANT ALMA,528 UNIVERSITY AVE SE,44.98373,-93.24814,"[[308979, 314779]]","[['2019/04/23', '2019/07/10']]","[['Routine', 'Follow-Up']]","[[82, 96]]"
468,RESTAURANT LEVAIN-PIZZA BIGA,4762 CHICAGO AVE,44.9164,-93.26303,"[[43250, 195187, 195186, 249367, 254139, 249366, 313112]]","[['2017/03/29', '2017/04/25', '2018/05/03', '2018/06/28', '2018/09/13', '2019/05/23', '2019/07/22']]","[['Routine', 'Follow-Up', 'Routine', 'Follow-Up', 'Follow-Up', 'Routine', 'Follow-Up']]","[[92, 96, 78, 92, 100, 84, 100]]"
469,REVERIE MOBILE KITCHEN,3500 BLOOMINGTON AVE,44.93937,-93.25268,[[315196]],[['2019/09/03']],[['Routine']],[[92]]
470,REVIVAL MPLS,4257 NICOLLET AVE,44.9252,-93.27754,"[[49243, 194100, 194099, 248971, 252582, 269217, 248970, 309898]]","[['2017/03/28', '2017/05/08', '2018/04/25', '2018/06/13', '2018/08/29', '2018/09/19', '2019/05/02', '2019/06/19']]","[['Routine', 'Follow-Up', 'Routine', 'Follow-Up', 'Follow-Up', 'Follow-Up', 'Routine', 'Follow-Up']]","[[92, 96, 92, 100, 98, 100, 90, 100]]"
471,RINATA,2451 HENNEPIN AVE,44.95758,-93.2948,"[[49321, 229632, 229631, 279819]]","[['2017/10/16', '2017/12/18', '2018/11/16', '2019/11/15']]","[['Routine', 'Follow-Up', 'Routine', 'Routine']]","[[98, 100, 96, 92]]"
472,RITZ THEATER,345 13TH AVE NE,45.00121,-93.26226,"[[218660, 231467]]","[['2017/10/30', '2019/04/29']]","[['Routine', 'Routine']]","[[96, 100]]"
473,RIVERVIEW CAFE & WINE BAR,3753 42ND AVE S,44.93447,-93.21249,"[[56589, 199719, 199718, 252556, 263543, 252555, 315038]]","[['2017/05/17', '2017/07/31', '2018/06/11', '2018/08/10', '2018/10/09', '2019/06/27', '2019/08/27']]","[['Routine', 'Follow-Up', 'Routine', 'Follow-Up', 'Follow-Up', 'Routine', 'Follow-Up']]","[[88, 100, 86, 90, 100, 88, 96]]"
474,RIVERVIEW THEATER,3800 42ND AVE S,44.93406,-93.21314,[[56598]],[['2018/05/30']],[['Routine']],[[100]]
475,ROAT OSHA,3001 HENNEPIN AVE,44.94743,-93.29732,[[323324]],[['2019/10/14']],[['Routine']],[[98]]
476,ROCK BOTTOM BREWERY,800 LASALLE AVE,44.97641,-93.27513,"[[56676, 230570, 234168, 237416, 230569, 276296, 276295, 332881]]","[['2017/10/17', '2017/11/29', '2018/01/10', '2018/02/20', '2018/10/15', '2018/12/17', '2019/10/09', '2019/11/18']]","[['Routine', 'Follow-Up', 'Follow-Up', 'Follow-Up', 'Routine', 'Follow-Up', 'Routine', 'Follow-Up']]","[[78, 86, 88, 96, 92, 96, 84, 100]]"
477,ROTI MODERN MEDITERANEAN,80 8TH ST S #150,44.97609,-93.27207,"[[204008, 225619, 246544, 273270]]","[['2017/09/18', '2017/11/01', '2018/09/28', '2019/09/26']]","[['Routine', 'Follow-Up', 'Routine', 'Routine']]","[[88, 98, 100, 100]]"
478,ROTI MODERN MEDITERRANEAN FOOD,614 WASHINGTON AVE SE,44.97341,-93.22958,[[309924]],[['2019/07/03']],[['Routine']],[[100]]
479,ROUGE AT THE LOUNGE,411 2ND AVE N,44.98159,-93.27371,"[[124816, 124815, 281155]]","[['2017/02/24', '2018/12/06', '2019/01/10']]","[['Follow-Up', 'Routine', 'Follow-Up']]","[[100, 96, 100]]"
480,RUNYONS,107 WASHINGTON AVE N,44.98288,-93.27089,"[[56974, 190557, 188216, 242373, 290903]]","[['2017/01/18', '2017/03/08', '2018/01/17', '2019/01/17', '2020/01/14']]","[['Routine', 'Follow-Up', 'Routine', 'Routine', 'Routine']]","[[100, 100, 100, 98, 82]]"
481,RUSTY TACO,522 HENNEPIN AVE E,44.98917,-93.25233,"[[57015, 57025, 202158, 202017, 252263, 251501, 252262]]","[['2017/06/07', '2017/06/17', '2018/05/20', '2018/06/06', '2018/07/03', '2019/04/20', '2019/06/11']]","[['Routine', 'Routine', 'Routine', 'Routine', 'Follow-Up', 'Routine', 'Routine']]","[[96, 98, 96, 82, 90, 94, 92]]"
482,SABBAI CUISINE EXPRESS,920 LAKE ST E #114,44.94931,-93.26076,"[[57122, 191229, 243019, 243018]]","[['2017/02/21', '2018/02/14', '2018/03/16', '2019/02/04']]","[['Routine', 'Routine', 'Follow-Up', 'Routine']]","[[96, 90, 100, 92]]"
483,SAFARI EXPRESS,920 LAKE ST E #134,44.94931,-93.26076,"[[57210, 230394, 230393, 275151, 290902, 275150, 332509, 335798]]","[['2017/10/19', '2017/11/20', '2018/10/09', '2019/01/18', '2019/02/21', '2019/10/09', '2019/11/01', '2019/11/26']]","[['Routine', 'Follow-Up', 'Routine', 'Follow-Up', 'Follow-Up', 'Routine', 'Follow-Up', 'Follow-Up']]","[[86, 94, 76, 92, 98, 80, 86, 92]]"
484,SAFARI RESTAURANT,3010 4TH AVE S,44.94787,-93.27067,"[[57244, 228668, 232673, 228667, 274075, 274074, 330587, 337318, 340051, 340594, 348973]]","[['2017/10/09', '2017/11/09', '2017/12/12', '2018/10/01', '2018/11/01', '2019/09/26', '2019/11/15', '2019/12/27', '2020/01/10', '2020/01/17', '2020/01/24']]","[['Routine', 'Follow-Up', 'Follow-Up', 'Routine', 'Follow-Up', 'Routine', 'Follow-Up', 'Follow-Up', 'Follow-Up', 'Follow-Up', 'Follow-Up']]","[[86, 84, 96, 90, 98, 70, 70, 82, 86, 90, 96]]"
485,SAIGON UPTOWN RESTAURANT,3035 LYNDALE AVE S,44.94718,-93.28769,"[[63501, 225672, 225671, 271289, 271288]]","[['2017/09/08', '2017/10/30', '2018/09/06', '2018/11/28', '2019/09/20']]","[['Routine', 'Follow-Up', 'Routine', 'Follow-Up', 'Routine']]","[[82, 98, 78, 94, 94]]"
486,SASSY SPOON,5001 34TH AVE S,44.91227,-93.2224,"[[15193, 193446, 193445, 247610]]","[['2017/03/21', '2017/04/20', '2018/04/10', '2019/04/11']]","[['Routine', 'Follow-Up', 'Routine', 'Routine']]","[[92, 100, 100, 96]]"
487,SAWATDEE RESTAURANT,607 WASHINGTON AVE S #100,44.97718,-93.25962,"[[15301, 190559, 189910, 245247]]","[['2017/02/06', '2017/03/14', '2018/02/14', '2019/03/05']]","[['Routine', 'Follow-Up', 'Routine', 'Routine']]","[[98, 100, 96, 98]]"
488,SCOTT JA-MAMAS,3 DIAMOND LAKE RD W,44.90375,-93.27844,[[305140]],[['2019/05/24']],[['Routine']],[[92]]
489,SEA SALT EATERY,4801 MINNEHAHA AVE,44.91557,-93.20955,"[[15474, 200787, 200786, 254825]]","[['2017/06/01', '2017/07/19', '2018/07/17', '2019/08/06']]","[['Routine', 'Follow-Up', 'Routine', 'Routine']]","[[94, 96, 100, 94]]"
490,SEED CAFE,3252 LAKE ST W #B,44.94913,-93.32083,"[[270994, 281138, 281137]]","[['2018/11/27', '2019/02/05', '2019/11/27']]","[['Routine', 'Follow-Up', 'Routine']]","[[84, 96, 98]]"
491,SEGUE COFFEE,811 11TH AVE S,44.96902,-93.25765,[[327061]],[['2019/10/25']],[['Routine']],[[96]]
492,SEN YAI SEN LEK,2424 CENTRAL AVE NE,45.0129,-93.24776,"[[15627, 189808, 242347, 298781]]","[['2017/02/01', '2018/02/07', '2019/02/07', '2019/03/12']]","[['Routine', 'Routine', 'Routine', 'Follow-Up']]","[[98, 96, 90, 94]]"
493,SEVEN ACQUISITION LLC,700 HENNEPIN AVE,44.97801,-93.27548,"[[44689, 192037, 192036, 246712, 249154, 253686, 258092, 246711, 308055]]","[['2017/02/28', '2017/04/21', '2018/03/20', '2018/05/01', '2018/06/26', '2018/07/25', '2018/08/31', '2019/04/09', '2019/05/03']]","[['Routine', 'Follow-Up', 'Routine', 'Follow-Up', 'Follow-Up', 'Follow-Up', 'Follow-Up', 'Routine', 'Follow-Up']]","[[90, 100, 86, 90, 86, 94, 96, 80, 96]]"
494,SEWARD COMMUNITY CAFE,2129 FRANKLIN AVE E,44.96253,-93.24121,"[[15839, 200485, 203923, 200484, 252083, 254321, 252082]]","[['2017/05/31', '2017/07/13', '2017/07/27', '2018/06/06', '2018/07/11', '2018/08/22', '2019/05/30']]","[['Routine', 'Follow-Up', 'Follow-Up', 'Routine', 'Follow-Up', 'Follow-Up', 'Routine']]","[[78, 90, 100, 82, 94, 100, 94]]"
495,SHUANG CHENG RESTAURANT,1320 4TH ST SE,44.98044,-93.23657,"[[124178, 124177, 237053, 243184, 247698, 237052, 286521, 286520]]","[['2017/02/14', '2017/12/14', '2018/02/19', '2018/04/05', '2018/05/17', '2018/12/20', '2019/02/01', '2019/12/20']]","[['Follow-Up', 'Routine', 'Follow-Up', 'Follow-Up', 'Follow-Up', 'Routine', 'Follow-Up', 'Routine']]","[[96, 76, 86, 98, 100, 90, 100, 86]]"
496,SIDEWALK KITCHEN,817 WASHINGTON AVE SE,44.97385,-93.22626,"[[203828, 225449, 225448, 273440, 330868]]","[['2017/09/13', '2017/11/13', '2018/09/26', '2019/09/30', '2019/11/26']]","[['Routine', 'Follow-Up', 'Routine', 'Routine', 'Follow-Up']]","[[78, 96, 92, 90, 92]]"
497,SIKORAS POLISH MARKET & DELI,1625 WASHINGTON ST NE,45.00503,-93.25719,"[[23107, 216802, 23101, 272508, 272507]]","[['2017/08/14', '2018/08/14', '2018/08/30', '2018/09/13', '2019/08/14']]","[['Routine', 'Routine', 'Routine', 'Follow-Up', 'Routine']]","[[92, 84, 100, 96, 98]]"
498,SIMPLS,950 NICOLLET MALL #205,44.97479,-93.27499,"[[242462, 243346]]","[['2018/02/14', '2019/03/18']]","[['Routine', 'Routine']]","[[98, 96]]"
499,SIMPLS,601 MARQUETTE AVE #210,44.97686,-93.26995,"[[242465, 243776, 243777]]","[['2018/02/22', '2018/04/03', '2019/02/28']]","[['Routine', 'Follow-Up', 'Routine']]","[[100, 100, 100]]"
500,SIMPLS,800 NICOLLET MALL,44.97564,-93.27385,[[314031]],[['2019/08/16']],[['Routine']],[[100]]
501,SIP COFFEEBAR,34 13TH AVE NE #101,44.99914,-93.27166,"[[23205, 180903, 234746, 285928]]","[['2017/01/03', '2017/12/04', '2018/12/14', '2019/12/13']]","[['Routine', 'Routine', 'Routine', 'Routine']]","[[96, 100, 96, 98]]"
502,SKYWAY WOK,250 2ND AVE S #245B & C,44.98025,-93.26627,"[[180137, 236731, 236730, 286264]]","[['2017/12/21', '2018/02/12', '2018/12/18', '2019/12/16']]","[['Routine', 'Follow-Up', 'Routine', 'Routine']]","[[90, 100, 94, 100]]"
503,SMACK SHACK,603 WASHINGTON AVE N,44.98694,-93.27658,"[[29317, 29298, 196787, 29299, 199900, 196786, 248294, 248293, 313410]]","[['2017/04/24', '2017/05/23', '2017/05/23', '2017/06/29', '2017/06/29', '2018/04/19', '2018/05/30', '2019/06/06', '2019/07/05']]","[['Routine', 'Follow-Up', 'Follow-Up', 'Routine', 'Follow-Up', 'Routine', 'Follow-Up', 'Routine', 'Follow-Up']]","[[64, 100, 86, 100, 100, 86, 96, 84, 98]]"
504,SMITH & PORTER/PORTER CAFE,428 2ND ST S,44.98046,-93.26096,"[[232448, 252259, 252258, 338370]]","[['2018/06/06', '2018/08/03', '2019/12/05', '2020/01/09']]","[['Routine', 'Follow-Up', 'Routine', 'Follow-Up']]","[[88, 96, 80, 98]]"
505,SMOKE IN THE PIT,3733 CHICAGO AVE,44.93495,-93.26211,"[[29365, 222810, 222809, 272115, 272114]]","[['2017/08/22', '2017/10/19', '2018/09/10', '2018/10/22', '2019/09/24']]","[['Routine', 'Follow-Up', 'Routine', 'Follow-Up', 'Routine']]","[[78, 98, 90, 100, 100]]"
506,SNACK BAR,800 WASHINGTON AVE N #101,44.98953,-93.27869,[[330776]],[['2019/11/22']],[['Routine']],[[80]]
507,SO GOOD ASIAN,200 6TH ST S #SUITE 280,44.9769,-93.26762,"[[29465, 181186, 237301, 287065, 287155]]","[['2017/01/09', '2018/01/09', '2019/01/08', '2019/02/19', '2020/01/06']]","[['Routine', 'Routine', 'Routine', 'Follow-Up', 'Routine']]","[[100, 100, 90, 100, 96]]"
508,SOHO CAFE,2532 HENNEPIN AVE,44.95613,-93.29692,"[[29643, 229612, 229611, 276681]]","[['2017/09/29', '2017/12/18', '2018/10/01', '2019/10/02']]","[['Routine', 'Follow-Up', 'Routine', 'Routine']]","[[90, 94, 98, 94]]"
509,SONORA GRILL LONGFELLOW,3300 LAKE ST E,44.94869,-93.22392,"[[29791, 223140, 223139, 271445, 277283, 286290, 271444, 328475, 335842]]","[['2017/08/22', '2017/10/11', '2018/09/07', '2018/10/23', '2018/12/20', '2019/02/06', '2019/09/04', '2019/11/04', '2019/12/27']]","[['Routine', 'Follow-Up', 'Routine', 'Follow-Up', 'Follow-Up', 'Follow-Up', 'Routine', 'Follow-Up', 'Follow-Up']]","[[88, 96, 78, 86, 92, 96, 60, 80, 84]]"
510,SORRENTO CUCINA,625 MARQUETTE AVE #234,44.97642,-93.27017,"[[29810, 203839, 203838, 255592, 255591, 316361]]","[['2017/07/11', '2017/08/30', '2018/07/18', '2018/08/27', '2019/07/18', '2019/09/09']]","[['Routine', 'Follow-Up', 'Routine', 'Follow-Up', 'Routine', 'Follow-Up']]","[[70, 96, 82, 98, 90, 92]]"
511,SORRENTO CUCINA DUE,200 5TH ST S #290,44.97766,-93.26697,"[[29818, 192202, 245280]]","[['2017/03/08', '2018/03/02', '2019/02/28']]","[['Routine', 'Routine', 'Routine']]","[[100, 100, 98]]"
512,SOTAROL,5005 EWING AVE S,44.91218,-93.3274,"[[29854, 196841, 245970, 245969]]","[['2017/02/22', '2018/03/12', '2018/05/01', '2019/03/22']]","[['Routine', 'Routine', 'Follow-Up', 'Routine']]","[[94, 90, 96, 98]]"
513,SOTAROL,309 OAK ST SE,44.9731,-93.22669,"[[189148, 196609, 196608, 247530, 307065]]","[['2017/04/06', '2017/05/04', '2018/04/05', '2019/03/26', '2019/04/30']]","[['Routine', 'Follow-Up', 'Routine', 'Routine', 'Follow-Up']]","[[82, 96, 100, 86, 100]]"
514,SOTAROL UPTOWN,2935 GIRARD AVE S,44.94885,-93.29663,"[[194952, 204578, 255565, 254817]]","[['2017/07/15', '2018/07/18', '2018/09/11', '2019/07/18']]","[['Routine', 'Routine', 'Follow-Up', 'Routine']]","[[94, 92, 100, 100]]"
515,SOUL BOWL,520 4TH ST N,44.98493,-93.27707,"[[307655, 330408, 335622, 337976, 340165]]","[['2019/09/23', '2019/10/31', '2019/11/26', '2020/01/02', '2020/02/03']]","[['Routine', 'Follow-Up', 'Follow-Up', 'Follow-Up', 'Follow-Up']]","[[88, 88, 86, 88, 94]]"
516,SOUTHEAST LIBRARY,1222 4TH ST SE,44.98089,-93.23776,[[223148]],[['2017/11/09']],[['Routine']],[[100]]
517,SOUTHERN THEATER THE,1420 WASHINGTON AVE S,44.97354,-93.24795,"[[35946, 189779]]","[['2017/02/02', '2019/01/17']]","[['Routine', 'Routine']]","[[100, 100]]"
518,SOVEREIGN GROUNDS,813 48TH ST E,44.91588,-93.26214,"[[36072, 188237, 243417, 243416, 304288]]","[['2017/01/18', '2018/02/08', '2018/03/15', '2019/03/06', '2019/05/09']]","[['Routine', 'Routine', 'Follow-Up', 'Routine', 'Follow-Up']]","[[96, 86, 98, 90, 92]]"
519,SPARROW CAFE,5001 PENN AVE S,44.91216,-93.30845,"[[36108, 246816]]","[['2018/03/27', '2019/09/24']]","[['Routine', 'Routine']]","[[100, 100]]"
520,SPHYNX CAFE,813 4TH ST SE,44.98383,-93.24321,"[[180219, 195376, 200146, 36144, 225047, 232792, 237212, 245390, 225046, 271459, 277092, 280524, 290958, 271458, 330361]]","[['2017/03/30', '2017/05/23', '2017/07/11', '2017/08/22', '2017/11/09', '2018/01/04', '2018/02/27', '2018/04/19', '2018/08/30', '2018/10/24', '2018/11/27', '2019/01/17', '2019/03/12', '2019/09/19', '2019/11/20']]","[['Follow-Up', 'Follow-Up', 'Follow-Up', 'Routine', 'Follow-Up', 'Follow-Up', 'Follow-Up', 'Follow-Up', 'Routine', 'Follow-Up', 'Follow-Up', 'Follow-Up', 'Follow-Up', 'Routine', 'Follow-Up']]","[[94, 94, 100, 82, 84, 84, 94, 98, 74, 92, 94, 94, 96, 86, 94]]"
521,SPITZ,518 HENNEPIN AVE E,44.98917,-93.25233,"[[36203, 214080, 263879, 263878, 319552]]","[['2017/07/31', '2018/08/03', '2018/09/07', '2019/07/30', '2019/09/03']]","[['Routine', 'Routine', 'Follow-Up', 'Routine', 'Follow-Up']]","[[96, 90, 100, 90, 100]]"
522,SPOON AND STABLE,211 1ST ST N #150,44.98531,-93.26965,"[[36210, 192050, 199636, 192049, 246570, 246569, 307455]]","[['2017/03/01', '2017/05/12', '2017/06/14', '2018/03/15', '2018/04/18', '2019/03/28', '2019/05/04']]","[['Routine', 'Follow-Up', 'Follow-Up', 'Routine', 'Follow-Up', 'Routine', 'Follow-Up']]","[[88, 90, 98, 88, 96, 90, 100]]"
523,SPRING STREET TAVERN AND CLUB UNDERGROUN,355 MONROE ST NE,44.99489,-93.25206,"[[36307, 192758, 192757, 246687, 305027]]","[['2017/03/14', '2017/04/14', '2018/03/16', '2019/03/15', '2019/05/02']]","[['Routine', 'Follow-Up', 'Routine', 'Routine', 'Follow-Up']]","[[88, 96, 96, 86, 98]]"
524,SPROUT SALAD COMPANY,555 NICOLLET MALL #295,44.97817,-93.2706,"[[36315, 194442, 194441, 247424, 251666, 247423, 308361, 309885]]","[['2017/04/04', '2017/04/25', '2018/04/04', '2018/05/31', '2018/07/24', '2019/03/25', '2019/05/02', '2019/05/29']]","[['Routine', 'Follow-Up', 'Routine', 'Follow-Up', 'Follow-Up', 'Routine', 'Follow-Up', 'Follow-Up']]","[[88, 98, 94, 98, 100, 96, 96, 100]]"
525,SPROUT SALAD COMPANY,309 HURON BLVD SE,44.97321,-93.22313,"[[36319, 230959, 278708, 336581]]","[['2017/10/25', '2018/11/06', '2019/11/08', '2020/01/06']]","[['Routine', 'Routine', 'Routine', 'Follow-Up']]","[[96, 100, 86, 96]]"
526,STADIUM BAR & GRILL,207 WASHINGTON AVE N,44.9837,-93.27205,"[[36538, 231409, 278451, 335381]]","[['2017/10/24', '2018/10/30', '2019/10/29', '2019/12/03']]","[['Routine', 'Routine', 'Routine', 'Follow-Up']]","[[96, 92, 78, 96]]"
527,STANDISH CAFE,2403 38TH ST E,44.93397,-93.2368,"[[272880, 281574, 281573]]","[['2018/12/11', '2019/01/17', '2019/12/18']]","[['Routine', 'Follow-Up', 'Routine']]","[[80, 94, 92]]"
528,STANLEYS NORTHEAST BAR ROOM,2500 UNIVERSITY AVE NE,45.01338,-93.26356,"[[36563, 230977, 277285, 277284]]","[['2017/10/10', '2018/10/22', '2018/12/10', '2019/10/22']]","[['Routine', 'Routine', 'Follow-Up', 'Routine']]","[[96, 92, 100, 90]]"
529,STAR DRAGON,1540 LAKE ST E,44.94865,-93.25172,"[[36657, 200617, 200616, 253053, 259629, 253052]]","[['2017/05/23', '2017/07/05', '2018/06/18', '2018/07/18', '2018/08/28', '2019/06/12']]","[['Routine', 'Follow-Up', 'Routine', 'Follow-Up', 'Follow-Up', 'Routine']]","[[80, 98, 72, 96, 100, 94]]"
530,STATE THEATRE,805 HENNEPIN AVE,44.97662,-93.27574,"[[42550, 233384]]","[['2017/11/15', '2019/11/22']]","[['Routine', 'Routine']]","[[96, 98]]"
531,STUB & HERBS,227 OAK ST SE,44.97383,-93.22682,"[[42793, 207356, 221012, 207355, 256645, 256644, 319985, 331043]]","[['2017/07/26', '2017/08/23', '2017/09/29', '2018/07/24', '2018/09/11', '2019/07/24', '2019/09/23', '2020/01/01']]","[['Routine', 'Follow-Up', 'Follow-Up', 'Routine', 'Follow-Up', 'Routine', 'Follow-Up', 'Follow-Up']]","[[88, 80, 82, 96, 100, 82, 78, 96]]"
532,SUN STREET BREADS,4600 NICOLLET AVE,44.91945,-93.27835,"[[49739, 190033, 242990, 304653]]","[['2017/02/07', '2018/02/15', '2019/03/06', '2019/04/24']]","[['Routine', 'Routine', 'Routine', 'Follow-Up']]","[[100, 92, 94, 100]]"
533,SUPERMERCADO LA MEXICANA,1522 LAKE ST E,44.94865,-93.25206,"[[180758, 180757, 180759, 234956, 285804, 285803]]","[['2017/03/01', '2017/12/07', '2018/12/05', '2018/12/05', '2019/01/14', '2019/12/11']]","[['Follow-Up', 'Routine', 'Routine', 'Routine', 'Follow-Up', 'Routine']]","[[100, 100, 98, 94, 96, 100]]"
534,SUPERMERCADO LATINO,2312 CENTRAL AVE NE,45.01133,-93.24788,"[[57905, 180880]]","[['2017/01/03', '2019/01/02']]","[['Routine', 'Routine']]","[[100, 100]]"
535,SURLY BREWING,520 MALCOLM AVE SE,44.97287,-93.20943,"[[57960, 212632, 253741]]","[['2017/08/04', '2018/06/30', '2019/07/31']]","[['Routine', 'Routine', 'Routine']]","[[100, 100, 100]]"
536,SUSHI TAKATSU,733 MARQUETTE AVE #225,44.97555,-93.271,"[[57997, 225648, 225647, 273507, 330527]]","[['2017/09/13', '2017/11/16', '2018/09/28', '2019/09/27', '2019/10/23']]","[['Routine', 'Follow-Up', 'Routine', 'Routine', 'Follow-Up']]","[[86, 100, 98, 90, 96]]"
537,SUSHI TANGO,3001 HENNEPIN AVE,44.94743,-93.29732,"[[58034, 181424, 194736, 181423, 241527, 247497, 251961, 241526, 293740, 293739]]","[['2017/01/12', '2017/04/06', '2017/05/26', '2018/01/19', '2018/03/30', '2018/05/25', '2018/07/13', '2019/01/18', '2019/03/08', '2020/01/24']]","[['Routine', 'Follow-Up', 'Follow-Up', 'Routine', 'Follow-Up', 'Follow-Up', 'Follow-Up', 'Routine', 'Follow-Up', 'Routine']]","[[88, 96, 100, 64, 90, 92, 96, 88, 100, 94]]"
538,SUSHI TRAIN,1200 NICOLLET MALL,44.97215,-93.27748,"[[253660, 264746, 270842, 264745, 324765]]","[['2018/08/08', '2018/09/06', '2018/10/31', '2019/08/13', '2019/09/05']]","[['Routine', 'Follow-Up', 'Follow-Up', 'Routine', 'Follow-Up']]","[[74, 78, 96, 88, 96]]"
539,SZECHUAN SPICE,3016 LYNDALE AVE S,44.94766,-93.28862,"[[58114, 58115, 221369, 226632, 232050, 221368, 304953]]","[['2017/01/12', '2017/08/22', '2017/09/18', '2017/10/30', '2018/01/18', '2019/03/15', '2019/05/22']]","[['Follow-Up', 'Routine', 'Follow-Up', 'Follow-Up', 'Follow-Up', 'Routine', 'Follow-Up']]","[[100, 82, 84, 88, 84, 82, 100]]"
540,TABERNA,3126 LAKE ST W,44.94939,-93.31944,[[323775]],[['2019/10/11']],[['Routine']],[[98]]
541,TACO CAT,920 LAKE ST E,44.94931,-93.26076,"[[203718, 250942]]","[['2018/05/18', '2019/05/21']]","[['Routine', 'Routine']]","[[96, 100]]"
542,TACO TAXI,1511 LAKE ST E,44.9481,-93.25326,"[[64232, 190896, 64211, 64207, 203397, 190895, 242951, 203396, 205571, 254228, 254685, 254229, 242950, 297304, 254684, 307347, 297303]]","[['2017/02/13', '2017/03/20', '2017/06/27', '2017/07/23', '2017/08/02', '2018/02/14', '2018/03/30', '2018/07/06', '2018/07/13', '2018/07/13', '2018/08/13', '2018/08/13', '2019/01/29', '2019/03/07', '2019/07/23', '2019/07/23', '2020/01/24']]","[['Routine', 'Follow-Up', 'Routine', 'Routine', 'Follow-Up', 'Routine', 'Follow-Up', 'Routine', 'Routine', 'Routine', 'Follow-Up', 'Follow-Up', 'Routine', 'Follow-Up', 'Routine', 'Routine', 'Routine']]","[[90, 98, 92, 96, 100, 100, 100, 86, 90, 100, 100, 100, 94, 100, 100, 100, 100]]"
543,TACOCAT,920 LAKE ST E #118,44.94931,-93.26076,"[[64244, 194178, 245951]]","[['2017/03/24', '2018/03/14', '2019/03/13']]","[['Routine', 'Routine', 'Routine']]","[[100, 100, 100]]"
544,TACOS EL KEVIN MARKET,3751 PORTLAND AVE,44.93437,-93.26712,"[[321337, 321338, 336059]]","[['2019/10/24', '2019/10/24', '2019/12/11']]","[['Routine', 'Routine', 'Follow-Up']]","[[94, 82, 94]]"
545,TACOS EL MICHOACANO,311 LAKE ST E,44.94819,-93.28341,"[[64253, 203190, 254681, 254680]]","[['2017/07/01', '2018/07/13', '2018/10/06', '2019/08/16']]","[['Routine', 'Routine', 'Follow-Up', 'Routine']]","[[96, 94, 100, 96]]"
546,TACOS EL PRIMO,4741 NICOLLET AVE,44.9163,-93.27759,"[[50210, 225634, 253801, 253800]]","[['2017/09/14', '2018/06/30', '2018/07/18', '2019/07/16']]","[['Routine', 'Routine', 'Follow-Up', 'Routine']]","[[96, 92, 100, 100]]"
547,TACOS EL PRIMO,4751 NICOLLET AVE,44.9163,-93.27759,"[[202607, 254878]]","[['2018/07/17', '2019/08/09']]","[['Routine', 'Routine']]","[[100, 100]]"
548,TAILGATE SPORTS CAFE/PATTY WAGON,6042 NICOLLET AVE,44.89265,-93.27851,"[[31662, 31663, 217878, 270497, 269638]]","[['2017/01/12', '2017/08/16', '2018/08/31', '2018/10/16', '2019/08/28']]","[['Follow-Up', 'Routine', 'Routine', 'Follow-Up', 'Routine']]","[[100, 86, 92, 100, 94]]"
549,TANGLETOWNS WISE ACRE EATERY,5401 NICOLLET AVE,44.90495,-93.27777,"[[64346, 201195, 201194, 252944, 260296, 252943]]","[['2017/06/08', '2017/08/02', '2018/06/14', '2018/07/31', '2018/08/30', '2019/06/14']]","[['Routine', 'Follow-Up', 'Routine', 'Follow-Up', 'Follow-Up', 'Routine']]","[[86, 94, 84, 88, 98, 98]]"
550,TAO NATURAL FOODS,2200 DUPONT AVE S,44.96074,-93.29353,"[[64384, 64403, 202001, 202000, 252921, 200796, 252920, 312650]]","[['2017/05/24', '2017/06/08', '2017/08/07', '2018/06/14', '2018/09/24', '2019/05/23', '2019/06/14', '2019/07/24']]","[['Routine', 'Routine', 'Follow-Up', 'Routine', 'Follow-Up', 'Routine', 'Routine', 'Follow-Up']]","[[100, 92, 92, 88, 92, 88, 94, 92]]"
551,TAP SOCIETY,4555 GRAND AVE S,44.91976,-93.28408,[[280881]],[['2019/02/11']],[['Routine']],[[94]]
552,TAQUERIA & BIRRIERIA LAS CUATRO MILPAS,1526 LAKE ST E,44.94861,-93.25226,"[[265483, 277889]]","[['2018/10/30', '2019/07/27']]","[['Routine', 'Routine']]","[[98, 94]]"
553,TAQUERIA AND BIRRIERIA LAS CUATRO MILPAS,1526 LAKE ST E,44.94861,-93.25226,"[[252517, 268533, 327794]]","[['2018/08/23', '2019/08/26', '2019/10/08']]","[['Routine', 'Routine', 'Follow-Up']]","[[100, 78, 100]]"
554,TAQUERIA EL CHILO #3,311 LAKE ST E,44.94819,-93.28341,"[[64425, 200670, 200669, 252132, 252131, 313493]]","[['2017/06/01', '2017/06/29', '2018/06/05', '2018/07/05', '2019/06/10', '2019/07/31']]","[['Routine', 'Follow-Up', 'Routine', 'Follow-Up', 'Routine', 'Follow-Up']]","[[88, 100, 88, 98, 88, 92]]"
555,TAQUERIA EL VICTOR,405 LAKE ST E,44.94813,-93.26992,"[[246992, 251001]]","[['2018/05/13', '2019/05/07']]","[['Routine', 'Routine']]","[[96, 96]]"
556,TAQUERIA LA HACIENDA,334 LAKE ST E #101,44.94874,-93.27094,"[[64457, 200805, 253051]]","[['2017/06/06', '2018/06/20', '2019/08/22']]","[['Routine', 'Routine', 'Routine']]","[[100, 100, 98]]"
557,TAQUERIA LA HACIENDA 2,334 LAKE ST E #101,44.94874,-93.27094,"[[64482, 220984, 260724]]","[['2017/08/24', '2018/08/01', '2019/07/29']]","[['Routine', 'Routine', 'Routine']]","[[100, 96, 96]]"
558,TAQUERIA LOS OCAMPO,920 LAKE ST E #152,44.94931,-93.26076,"[[64527, 201886, 201885, 252796, 252795]]","[['2017/06/20', '2017/07/19', '2018/06/15', '2018/07/10', '2019/06/18']]","[['Routine', 'Follow-Up', 'Routine', 'Follow-Up', 'Routine']]","[[96, 96, 98, 98, 100]]"
559,TAQUERIA LOS OCAMPO,1501 LAKE ST E,44.9481,-93.25358,[[309613]],[['2019/07/01']],[['Routine']],[[92]]
560,TAQUERIA VICTOR HUGO,5801 NICOLLET AVE,44.89761,-93.27779,"[[64584, 194377, 64585, 249158, 252352, 311559]]","[['2017/03/31', '2017/05/15', '2017/05/30', '2018/05/19', '2019/05/23', '2019/06/27']]","[['Follow-Up', 'Follow-Up', 'Routine', 'Routine', 'Routine', 'Follow-Up']]","[[78, 94, 94, 100, 90, 96]]"
561,TAQUERIA VICTOR HUGO,405 LAKE ST E,44.94813,-93.26992,"[[231737, 231853, 231852, 275434, 275433, 333127]]","[['2017/10/30', '2017/11/20', '2018/10/12', '2018/12/04', '2019/10/11', '2019/11/15']]","[['Routine', 'Follow-Up', 'Routine', 'Follow-Up', 'Routine', 'Follow-Up']]","[[88, 100, 88, 100, 88, 96]]"
562,TARGET PLAZA (DOWNTOWN),900 NICOLLET MALL,44.97479,-93.27499,"[[230789, 234221]]","[['2017/11/29', '2019/10/29']]","[['Routine', 'Routine']]","[[100, 100]]"
563,TASTY POT,423 14TH AVE SE,44.98119,-93.2356,"[[205629, 236810, 243183, 236809, 286478, 286477]]","[['2017/12/13', '2018/02/19', '2018/04/05', '2018/12/18', '2019/01/24', '2019/12/18']]","[['Routine', 'Follow-Up', 'Follow-Up', 'Routine', 'Follow-Up', 'Routine']]","[[84, 94, 96, 86, 98, 94]]"
564,TEA HOUSE CHINESE RESTAURANT,2425 UNIVERSITY AVE SE,44.97386,-93.22157,"[[23418, 23419, 229708, 235109, 229707, 278717, 278716, 337479]]","[['2017/03/01', '2017/10/16', '2017/12/12', '2018/02/06', '2018/11/06', '2019/01/04', '2019/11/19', '2020/01/15']]","[['Follow-Up', 'Routine', 'Follow-Up', 'Follow-Up', 'Routine', 'Follow-Up', 'Routine', 'Follow-Up']]","[[100, 74, 94, 94, 86, 100, 72, 96]]"
565,TED COOK'S 19TH HOLE BBQ,2814 38TH ST E,44.93427,-93.23138,"[[124203, 124202, 236496, 243011, 236495, 291093, 291092, 341657]]","[['2017/05/03', '2017/12/21', '2018/02/14', '2018/04/06', '2019/01/16', '2019/02/22', '2020/01/16', '2020/02/04']]","[['Follow-Up', 'Routine', 'Follow-Up', 'Follow-Up', 'Routine', 'Follow-Up', 'Routine', 'Follow-Up']]","[[96, 86, 92, 100, 84, 100, 86, 86]]"
566,TENANT RESTAURANT,4300 BRYANT AVE S,44.92486,-93.29109,"[[205635, 228353, 228352, 275117, 275116]]","[['2017/10/06', '2017/11/22', '2018/10/03', '2018/11/28', '2019/10/10']]","[['Routine', 'Follow-Up', 'Routine', 'Follow-Up', 'Routine']]","[[100, 100, 94, 100, 100]]"
567,TEPPANYAKI GRILL & SUPREME BUFFET,2216 LAKE ST E,44.94937,-93.24092,"[[23569, 201200, 214000, 201199, 254221, 262136, 254220, 319966, 330678]]","[['2017/06/07', '2017/08/07', '2017/09/25', '2018/07/05', '2018/08/07', '2018/08/09', '2019/07/31', '2019/09/30', '2019/11/27']]","[['Routine', 'Follow-Up', 'Follow-Up', 'Routine', 'Follow-Up', 'Follow-Up', 'Routine', 'Follow-Up', 'Follow-Up']]","[[84, 90, 100, 72, 92, 100, 74, 90, 98]]"
568,THAI CUISINE XPRESS,1517 COMO AVE SE,44.98803,-93.22987,"[[316390, 330544]]","[['2019/09/20', '2019/11/19']]","[['Routine', 'Follow-Up']]","[[84, 100]]"
569,THE 1029 BAR,1029 MARSHALL ST NE,44.99809,-93.26813,"[[23626, 190050, 192182, 189835, 243669, 304038]]","[['2017/02/03', '2017/03/08', '2017/03/28', '2018/02/23', '2019/03/05', '2019/04/15']]","[['Routine', 'Follow-Up', 'Follow-Up', 'Routine', 'Routine', 'Follow-Up']]","[[82, 90, 100, 98, 96, 98]]"
570,THE 508,508 1ST AVE N,44.9804,-93.27433,"[[23647, 198227, 198226, 249294, 249293]]","[['2017/05/09', '2017/06/14', '2018/05/02', '2018/06/05', '2019/04/30']]","[['Routine', 'Follow-Up', 'Routine', 'Follow-Up', 'Routine']]","[[82, 100, 74, 100, 96]]"
571,THE ANCHOR FISH & CHIPS,302 13TH AVE NE,45.00058,-93.26436,"[[23666, 214795, 263534, 263533]]","[['2017/08/02', '2018/08/08', '2018/10/02', '2019/08/08']]","[['Routine', 'Routine', 'Follow-Up', 'Routine']]","[[86, 90, 100, 94]]"
572,THE BAD WAITRESS,700 CENTRAL AVE NE,44.99087,-93.25113,"[[246930, 252539, 255628, 252538, 313145]]","[['2018/06/01', '2018/07/18', '2018/08/28', '2019/05/31', '2019/07/10']]","[['Routine', 'Follow-Up', 'Follow-Up', 'Routine', 'Follow-Up']]","[[82, 88, 96, 76, 96]]"
573,THE BEST TACOS DEL SOL,1515 LAKE ST E,44.94793,-93.25289,"[[62819, 200956, 252453]]","[['2017/05/30', '2018/05/23', '2019/05/23']]","[['Routine', 'Routine', 'Routine']]","[[98, 100, 92]]"
574,THE BLUE DOOR - LONGFELLOW,3448 42ND AVE S,44.9398,-93.21313,"[[23733, 253608, 253607, 316494]]","[['2018/06/27', '2018/08/23', '2019/07/22', '2019/09/19']]","[['Routine', 'Follow-Up', 'Routine', 'Follow-Up']]","[[88, 100, 90, 94]]"
575,THE BLUE DOOR PUB,3006 LYNDALE AVE S,44.948,-93.28847,"[[237240, 247179, 247178, 308761]]","[['2018/03/27', '2018/05/22', '2019/04/16', '2019/06/14']]","[['Routine', 'Follow-Up', 'Routine', 'Follow-Up']]","[[76, 92, 82, 100]]"
576,THE BUNGALOW CLUB,4300 LAKE ST E,44.94862,-93.2112,"[[243729, 251916, 260777, 251915]]","[['2018/05/31', '2018/08/02', '2018/10/02', '2019/06/26']]","[['Routine', 'Follow-Up', 'Follow-Up', 'Routine']]","[[72, 96, 96, 94]]"
577,THE BURGER PLACE,220 6TH ST S #215,44.9769,-93.26762,"[[291950, 304830]]","[['2019/03/20', '2019/05/02']]","[['Routine', 'Follow-Up']]","[[94, 96]]"
578,THE CAFE MEOW,2323 HENNEPIN AVE,44.95949,-93.29342,"[[253448, 270286]]","[['2018/08/24', '2018/09/18']]","[['Routine', 'Follow-Up']]","[[94, 100]]"
579,THE CAJUN HOUSE,2600 UNIVERSITY AVE SE,44.97223,-93.22005,"[[198097, 200897, 205160, 223651, 200896, 251301, 254508, 251300, 311322, 316386]]","[['2017/05/22', '2017/07/06', '2017/08/16', '2017/10/13', '2018/05/22', '2018/07/13', '2018/09/13', '2019/05/21', '2019/07/19', '2019/09/05']]","[['Routine', 'Follow-Up', 'Follow-Up', 'Follow-Up', 'Routine', 'Follow-Up', 'Follow-Up', 'Routine', 'Follow-Up', 'Follow-Up']]","[[48, 78, 100, 100, 74, 82, 98, 86, 84, 92]]"
580,THE CITY MARKET,121 8TH ST S #270,44.97441,-93.27109,"[[232467, 234991]]","[['2017/12/06', '2019/12/11']]","[['Routine', 'Routine']]","[[100, 100]]"
581,THE COVE,1320 5TH ST SE,44.98149,-93.23593,"[[225140, 227207, 227206, 275176, 275175, 330143]]","[['2017/09/19', '2017/10/27', '2018/09/19', '2018/11/08', '2019/09/17', '2019/11/05']]","[['Routine', 'Follow-Up', 'Routine', 'Follow-Up', 'Routine', 'Follow-Up']]","[[86, 96, 88, 96, 88, 92]]"
582,THE FARM OF MINNESOTA,200 6TH ST S,44.9769,-93.26762,"[[205447, 220972, 271790]]","[['2017/08/24', '2018/08/30', '2019/09/12']]","[['Routine', 'Routine', 'Routine']]","[[100, 100, 100]]"
583,THE FIX STUDIO,3725 MINNEHAHA AVE,44.93511,-93.22411,"[[249296, 255522]]","[['2018/07/17', '2020/01/09']]","[['Routine', 'Routine']]","[[94, 96]]"
584,THE FREMONT,1300 LAGOON AVE,44.94947,-93.29611,"[[190589, 181269, 242058, 291223]]","[['2017/04/20', '2018/01/18', '2019/01/14', '2020/01/08']]","[['Follow-Up', 'Routine', 'Routine', 'Routine']]","[[100, 100, 100, 94]]"
585,THE FRESH MART,120 6TH ST S #219,44.97736,-93.26875,[[23926]],[['2018/08/10']],[['Routine']],[[100]]
586,THE GRAND HOTEL MINNEAPOLIS,615 2ND AVE S,44.97595,-93.26882,"[[303332, 338510]]","[['2019/12/09', '2020/01/07']]","[['Routine', 'Follow-Up']]","[[72, 94]]"
587,THE HERBIVOROUS BUTCHER,507 1ST AVE NE,44.99048,-93.25374,"[[23999, 24000, 211499, 248832, 211498, 252956, 261280]]","[['2017/01/25', '2017/07/25', '2018/05/22', '2018/06/14', '2018/07/26', '2019/06/14', '2019/07/25']]","[['Follow-Up', 'Routine', 'Follow-Up', 'Routine', 'Routine', 'Routine', 'Routine']]","[[100, 98, 98, 100, 98, 94, 92]]"
588,THE HIDEAWAY BURGER BAR,219 MAIN ST SE,44.98464,-93.25398,"[[43125, 190586, 188903, 237390, 287789, 287788]]","[['2017/01/11', '2017/03/15', '2018/01/05', '2019/01/11', '2019/02/08', '2020/01/08']]","[['Routine', 'Follow-Up', 'Routine', 'Routine', 'Follow-Up', 'Routine']]","[[84, 96, 96, 94, 98, 92]]"
589,THE HOWE DAILY KITCHEN & BAR,3675 MINNEHAHA AVE,44.93603,-93.22473,"[[41846, 203286, 203285, 255496, 255495, 320684, 330502]]","[['2017/06/27', '2017/08/24', '2018/07/18', '2018/08/23', '2019/07/30', '2019/09/26', '2019/11/26']]","[['Routine', 'Follow-Up', 'Routine', 'Follow-Up', 'Routine', 'Follow-Up', 'Follow-Up']]","[[96, 100, 76, 94, 74, 86, 94]]"
590,THE KOLLEGE KLUB DINKYTOWN,1301 4TH ST SE,44.98119,-93.23673,"[[325915, 337214]]","[['2019/11/12', '2019/12/12']]","[['Routine', 'Follow-Up']]","[[82, 90]]"
591,THE LOCAL- AN EPICUREAN CAFE AND PUB,931 NICOLLET MALL,44.97395,-93.27406,"[[29951, 203960, 254308, 254307, 314945]]","[['2017/07/06', '2018/07/09', '2018/08/15', '2019/06/27', '2019/07/22']]","[['Routine', 'Routine', 'Follow-Up', 'Routine', 'Follow-Up']]","[[96, 82, 96, 88, 94]]"
592,THE LOOP,606 WASHINGTON AVE N,44.98744,-93.27588,"[[29971, 193345, 193344, 247397, 247396]]","[['2017/03/21', '2017/04/24', '2018/04/04', '2018/05/04', '2019/04/26']]","[['Routine', 'Follow-Up', 'Routine', 'Follow-Up', 'Routine']]","[[88, 92, 76, 92, 94]]"
593,THE LORING,327 14TH AVE SE,44.9804,-93.2362,"[[237304, 254022, 254021, 314140]]","[['2018/06/14', '2018/08/07', '2019/06/14', '2019/08/01']]","[['Routine', 'Follow-Up', 'Routine', 'Follow-Up']]","[[96, 96, 90, 94]]"
594,THE LOWRY,2112 HENNEPIN AVE,44.96157,-93.29274,"[[30012, 203307, 203306, 254310, 266521]]","[['2017/06/26', '2017/09/12', '2018/06/14', '2018/09/12', '2019/08/22']]","[['Routine', 'Follow-Up', 'Routine', 'Follow-Up', 'Routine']]","[[96, 100, 96, 96, 92]]"
595,THE LOWRY CAFE,2207 LOWRY AVE N,45.01304,-93.30874,"[[233444, 245345, 245344, 302500]]","[['2018/03/02', '2018/05/01', '2019/03/01', '2019/04/30']]","[['Routine', 'Follow-Up', 'Routine', 'Follow-Up']]","[[88, 96, 76, 94]]"
596,THE LYNHALL,2640 LYNDALE AVE S,44.95404,-93.28848,"[[189173, 217950, 217949, 267016, 266506]]","[['2017/08/03', '2017/11/03', '2018/08/02', '2018/10/04', '2019/08/02']]","[['Routine', 'Follow-Up', 'Routine', 'Follow-Up', 'Routine']]","[[82, 100, 90, 94, 92]]"
597,THE MELTING POT RESTAURANT,80 9TH ST S,44.97482,-93.27267,"[[30057, 225032, 228849, 225031]]","[['2017/09/07', '2017/10/10', '2017/11/07', '2019/03/12']]","[['Routine', 'Follow-Up', 'Follow-Up', 'Routine']]","[[88, 96, 100, 94]]"
598,THE MILL NORTHEAST,1851 CENTRAL AVE NE,45.00761,-93.24701,"[[180874, 234322, 234321, 285981, 285980, 339778]]","[['2017/11/21', '2018/01/08', '2018/12/07', '2019/02/04', '2019/12/09', '2020/01/10']]","[['Routine', 'Follow-Up', 'Routine', 'Follow-Up', 'Routine', 'Follow-Up']]","[[80, 96, 96, 100, 88, 94]]"
599,THE NICOLLET DINER & MUFFIN TOP CAFE,1428 NICOLLET AVE,44.96789,-93.27817,"[[30121, 211505, 220003, 211504, 262449, 262448]]","[['2017/07/25', '2017/08/21', '2017/09/12', '2018/08/02', '2018/09/06', '2019/07/24']]","[['Routine', 'Follow-Up', 'Follow-Up', 'Routine', 'Follow-Up', 'Routine']]","[[86, 96, 96, 90, 100, 94]]"
600,THE OFFICE PUB & GRILL,307 WASHINGTON AVE N,44.98453,-93.27319,"[[30167, 205240, 254948, 265449, 254947, 316372]]","[['2017/07/19', '2018/07/16', '2018/08/17', '2018/09/18', '2019/07/18', '2019/08/16']]","[['Routine', 'Routine', 'Follow-Up', 'Follow-Up', 'Routine', 'Follow-Up']]","[[96, 86, 92, 100, 82, 98]]"
601,THE POURHOUSE,2923 GIRARD AVE S,44.94885,-93.29663,"[[276924, 279905, 279460]]","[['2018/11/13', '2018/12/27', '2019/11/13']]","[['Routine', 'Follow-Up', 'Routine']]","[[98, 100, 96]]"
602,THE PRODIGAL PUB,25 26TH ST E,44.95533,-93.27682,[[308389]],[['2019/06/19']],[['Routine']],[[94]]
603,THE SALAD BAR,40 7TH ST S,44.978,-93.273,[[311410]],[['2019/07/19']],[['Routine']],[[94]]
604,THE SAMPLE ROOM,2124 MARSHALL ST NE,45.00955,-93.27237,"[[30235, 191255, 194507, 198502, 204353, 190922, 242276]]","[['2017/01/31', '2017/03/30', '2017/05/17', '2017/06/16', '2017/07/13', '2018/02/06', '2019/02/05']]","[['Routine', 'Follow-Up', 'Follow-Up', 'Follow-Up', 'Follow-Up', 'Routine', 'Routine']]","[[84, 96, 96, 100, 100, 96, 96]]"
605,THE SEVILLE CLUB,15 GLENWOOD AVE,44.97867,-93.27695,"[[30255, 204202, 204201, 253469]]","[['2017/07/11', '2017/11/02', '2018/06/26', '2019/06/27']]","[['Routine', 'Follow-Up', 'Routine', 'Routine']]","[[92, 100, 100, 94]]"
606,THE SHERIDAN ROOM,337 13TH AVE NE,45.00121,-93.2627,"[[180145, 180144, 235115, 235114, 286002, 339779]]","[['2017/01/18', '2017/12/06', '2018/01/10', '2018/12/05', '2019/12/06', '2020/01/09']]","[['Follow-Up', 'Routine', 'Follow-Up', 'Routine', 'Routine', 'Follow-Up']]","[[96, 78, 100, 98, 90, 94]]"
607,THE SIMPLE SANDWICH,215 4TH ST S,44.97817,-93.26685,"[[188928, 196545, 246996, 246995]]","[['2017/04/20', '2018/03/28', '2018/05/24', '2019/03/25']]","[['Routine', 'Routine', 'Follow-Up', 'Routine']]","[[96, 78, 100, 98]]"
608,THE SONDER SHAKER,130 HENNEPIN AVE E,44.98711,-93.25803,"[[237175, 246047, 309140]]","[['2018/03/14', '2019/04/18', '2019/06/04']]","[['Routine', 'Routine', 'Follow-Up']]","[[98, 84, 94]]"
609,THE SOUTHERN THEATER,1420 WASHINGTON AVE S,44.97354,-93.24795,"[[35948, 189803]]","[['2017/02/02', '2019/01/17']]","[['Routine', 'Routine']]","[[100, 100]]"
610,THE STRAY DOG,401 HENNEPIN AVE E,44.9888,-93.25494,"[[230926, 243655, 243654, 304033]]","[['2018/02/21', '2018/04/04', '2019/03/05', '2019/04/23']]","[['Routine', 'Follow-Up', 'Routine', 'Follow-Up']]","[[86, 100, 92, 100]]"
611,THE WANDERING MUG,811 LASALLE AVE,44.97592,-93.27444,[[305032]],[['2019/05/21']],[['Routine']],[[92]]
612,THE WIENERY,414 CEDAR AVE S,44.96962,-93.2475,"[[30389, 202624, 203582, 202623, 251847, 251846, 310340]]","[['2017/05/15', '2017/07/08', '2017/08/29', '2018/04/30', '2018/06/26', '2019/05/06', '2019/07/16']]","[['Routine', 'Follow-Up', 'Follow-Up', 'Routine', 'Follow-Up', 'Routine', 'Follow-Up']]","[[84, 94, 100, 92, 100, 72, 98]]"
613,THEATRE IN THE ROUND,245 CEDAR AVE S,44.97246,-93.24685,"[[208983, 231647]]","[['2017/10/24', '2019/10/24']]","[['Routine', 'Routine']]","[[100, 100]]"
614,THR3 JACK,724 3RD ST N,44.98758,-93.27851,[[330391]],[['2019/12/05']],[['Routine']],[[92]]
615,TIBET KITCHEN BAR & RESTAURANT,1833 NICOLLET AVE,44.96425,-93.27752,"[[304445, 308957]]","[['2019/03/12', '2019/04/19']]","[['Routine', 'Follow-Up']]","[[84, 100]]"
616,TILIA,2726 43RD ST W,44.92467,-93.31405,"[[30646, 201214, 217879, 228640, 233876, 201213, 253726, 281252, 253725]]","[['2017/06/01', '2017/08/11', '2017/10/06', '2017/11/22', '2017/12/08', '2018/06/25', '2018/12/07', '2019/02/06', '2019/06/25']]","[['Routine', 'Follow-Up', 'Follow-Up', 'Follow-Up', 'Follow-Up', 'Routine', 'Follow-Up', 'Follow-Up', 'Routine']]","[[80, 86, 86, 86, 94, 60, 90, 94, 92]]"
617,TINTO KITCHEN,4959 PENN AVE S,44.91255,-93.30833,"[[228097, 234855, 242304, 234854, 281366, 281365]]","[['2017/12/05', '2018/02/06', '2018/03/08', '2018/12/11', '2019/02/08', '2020/01/13']]","[['Routine', 'Follow-Up', 'Follow-Up', 'Routine', 'Follow-Up', 'Routine']]","[[72, 86, 98, 86, 96, 94]]"
618,TINY DINER,1024 38TH ST E,44.93439,-93.25907,"[[30696, 203537, 223030, 203536, 264677, 264676, 319990, 330743]]","[['2017/07/06', '2017/08/23', '2017/10/11', '2018/07/31', '2018/10/11', '2019/07/31', '2019/09/24', '2019/11/26']]","[['Routine', 'Follow-Up', 'Follow-Up', 'Routine', 'Follow-Up', 'Routine', 'Follow-Up', 'Follow-Up']]","[[62, 84, 100, 78, 98, 88, 88, 98]]"
619,TINY DINER FARMERS MARKET,1024 38TH ST E,44.93439,-93.25907,"[[205438, 222013, 274937]]","[['2017/08/24', '2018/09/27', '2019/07/31']]","[['Routine', 'Routine', 'Routine']]","[[100, 100, 100]]"
620,TONY JAROS' RIVER GARDENS,2500 MARSHALL ST NE,45.01329,-93.27247,"[[36773, 189795, 236376, 286128, 340183]]","[['2017/02/02', '2017/12/15', '2018/12/24', '2019/12/24', '2020/01/07']]","[['Routine', 'Routine', 'Routine', 'Routine', 'Follow-Up']]","[[96, 96, 96, 88, 100]]"
621,TOOTIES ON LOWRY,2706 LOWRY AVE N,45.01345,-93.31498,"[[36824, 238080, 238079, 287863, 287862, 339461]]","[['2018/01/12', '2018/02/14', '2018/12/20', '2019/02/14', '2019/12/16', '2020/01/16']]","[['Routine', 'Follow-Up', 'Routine', 'Follow-Up', 'Routine', 'Follow-Up']]","[[94, 100, 76, 94, 90, 96]]"
622,TORI RAMEN,2201 44TH AVE N,45.03523,-93.30894,"[[248040, 254889, 254888, 315362]]","[['2018/07/13', '2018/09/19', '2019/07/11', '2019/08/28']]","[['Routine', 'Follow-Up', 'Routine', 'Follow-Up']]","[[76, 94, 68, 94]]"
623,TOSCA /TURTLE BREAD,3421 44TH ST W,44.92309,-93.32369,"[[36938, 191487, 246336, 249103, 253370, 246335]]","[['2017/02/27', '2018/03/13', '2018/05/02', '2018/06/22', '2018/08/17', '2019/03/29']]","[['Routine', 'Routine', 'Follow-Up', 'Follow-Up', 'Follow-Up', 'Routine']]","[[84, 82, 92, 88, 100, 98]]"
624,TOWN HALL LANES,5019 34TH AVE S,44.9119,-93.22245,"[[37021, 229348, 229347, 277487, 335304]]","[['2017/10/11', '2017/12/07', '2018/10/26', '2019/10/24', '2019/12/18']]","[['Routine', 'Follow-Up', 'Routine', 'Routine', 'Follow-Up']]","[[94, 100, 100, 86, 94]]"
625,TOWN HALL TAP,4810 CHICAGO AVE,44.91576,-93.26303,"[[37046, 200144, 200143, 253162, 263493, 253161, 314702]]","[['2017/05/24', '2017/07/05', '2018/06/12', '2018/08/09', '2018/09/13', '2019/06/25', '2019/07/29']]","[['Routine', 'Follow-Up', 'Routine', 'Follow-Up', 'Follow-Up', 'Routine', 'Follow-Up']]","[[92, 100, 88, 92, 100, 82, 100]]"
626,TOWN TALK DINER & GASTROPUB,2707 LAKE ST E,44.94811,-93.23272,"[[37053, 199585, 37054, 233218, 281028]]","[['2017/05/17', '2017/07/19', '2017/11/16', '2018/12/06', '2019/12/05']]","[['Follow-Up', 'Follow-Up', 'Routine', 'Routine', 'Routine']]","[[100, 100, 96, 100, 94]]"
627,TRAVAIL,1930 HENNEPIN AVE,44.96329,-93.2914,[[291949]],[['2019/04/25']],[['Routine']],[[84]]
628,TRIESTE CAFE,10 5TH ST S #GROUND FLR,44.97969,-93.27171,"[[124154, 197710, 47714, 231245, 278470]]","[['2017/05/03', '2017/07/11', '2017/10/20', '2018/11/02', '2019/10/31']]","[['Follow-Up', 'Follow-Up', 'Routine', 'Routine', 'Routine']]","[[86, 94, 100, 100, 100]]"
629,TRUCE,1428 32ND ST W,44.94491,-93.29857,"[[37174, 191938, 246363]]","[['2017/02/28', '2018/03/14', '2019/03/22']]","[['Routine', 'Routine', 'Routine']]","[[96, 94, 100]]"
630,TRUFFLE HILL CHOCOLATES,120 6TH ST S,44.97736,-93.26875,[[279827]],[['2019/01/08']],[['Routine']],[[100]]
631,TURTLE BREAD,4205 34TH ST E,44.94131,-93.21237,"[[43217, 214095, 214094, 270352, 325846]]","[['2017/08/08', '2017/10/05', '2018/09/05', '2019/08/23', '2019/10/24']]","[['Routine', 'Follow-Up', 'Routine', 'Routine', 'Follow-Up']]","[[94, 100, 98, 86, 100]]"
632,U GARDEN RESTAURANT,2725 UNIVERSITY AVE SE,44.97236,-93.21699,"[[43409, 204592, 204591, 258047, 258046]]","[['2017/07/18', '2017/08/09', '2018/07/25', '2018/10/01', '2019/07/23']]","[['Routine', 'Follow-Up', 'Routine', 'Follow-Up', 'Routine']]","[[82, 100, 76, 96, 96]]"
633,UNCLE FRANKY'S,728 BROADWAY ST NE,44.99852,-93.25139,"[[124404, 124403, 236296, 242536, 235522, 286469, 286468, 339034]]","[['2017/01/24', '2017/12/12', '2018/02/06', '2018/03/13', '2018/12/17', '2019/01/28', '2019/12/16', '2020/01/29']]","[['Follow-Up', 'Routine', 'Follow-Up', 'Follow-Up', 'Routine', 'Follow-Up', 'Routine', 'Follow-Up']]","[[100, 92, 94, 100, 90, 94, 90, 92]]"
634,UNION,731 HENNEPIN AVE,44.97709,-93.27537,"[[43565, 224652, 224651, 273210, 273209]]","[['2017/09/07', '2017/11/15', '2018/09/27', '2018/11/09', '2019/09/19']]","[['Routine', 'Follow-Up', 'Routine', 'Follow-Up', 'Routine']]","[[76, 100, 74, 100, 94]]"
635,UPTOWN DINER,2548 HENNEPIN AVE,44.95583,-93.2972,"[[50323, 201873, 201872, 252918]]","[['2017/06/08', '2017/08/10', '2018/06/18', '2019/06/26']]","[['Routine', 'Follow-Up', 'Routine', 'Routine']]","[[94, 100, 100, 94]]"
636,UPTOWN PIZZA,323 LAKE ST W,44.94811,-93.28393,"[[249490, 258061, 268873, 271504, 275475, 279861, 258060, 340407]]","[['2018/07/12', '2018/08/22', '2018/08/29', '2018/10/10', '2018/11/14', '2018/12/19', '2020/01/07', '2020/01/22']]","[['Routine', 'Follow-Up', 'Follow-Up', 'Follow-Up', 'Follow-Up', 'Follow-Up', 'Routine', 'Follow-Up']]","[[88, 88, 92, 92, 94, 98, 88, 96]]"
637,UPTOWN TAVERN & ROOFTOP,1400 LAGOON AVE,44.94941,-93.29738,"[[50385, 204576, 204575, 257452]]","[['2017/07/01', '2017/09/22', '2018/07/26', '2019/07/25']]","[['Routine', 'Follow-Up', 'Routine', 'Routine']]","[[94, 100, 100, 96]]"
638,UPTOWN THEATRE,2906 HENNEPIN AVE,44.94906,-93.29867,"[[50391, 205417, 292608]]","[['2017/07/17', '2019/01/15', '2019/02/26']]","[['Routine', 'Routine', 'Follow-Up']]","[[96, 90, 96]]"
639,URBAN EATERY,2730 LAKE ST W #1ST FL,44.94989,-93.31518,"[[50462, 201972, 224503, 231652, 240486, 201971, 254652, 254651]]","[['2017/06/22', '2017/08/31', '2017/10/27', '2018/01/12', '2018/02/23', '2018/06/29', '2018/09/07', '2019/07/11']]","[['Routine', 'Follow-Up', 'Follow-Up', 'Follow-Up', 'Follow-Up', 'Routine', 'Follow-Up', 'Routine']]","[[70, 86, 96, 96, 100, 90, 96, 100]]"
640,VALENTINO CAFE,900 2ND AVE S,44.9737,-93.27186,"[[50559, 201299, 201298, 252597, 252596, 313668]]","[['2017/06/06', '2017/07/05', '2018/06/12', '2018/07/17', '2019/06/11', '2019/07/08']]","[['Routine', 'Follow-Up', 'Routine', 'Follow-Up', 'Routine', 'Follow-Up']]","[[98, 96, 86, 100, 86, 96]]"
641,VALERIES TAQUERIA,30 32ND ST E,44.9452,-93.27753,"[[50607, 201812, 201811, 253744, 253743]]","[['2017/06/19', '2017/07/24', '2018/06/19', '2018/08/16', '2019/06/12']]","[['Routine', 'Follow-Up', 'Routine', 'Follow-Up', 'Routine']]","[[94, 96, 94, 100, 98]]"
642,VARSITY THEATRE,1308 4TH ST SE,44.98057,-93.23692,"[[240361, 247873]]","[['2018/04/13', '2019/04/17']]","[['Routine', 'Routine']]","[[96, 96]]"
643,VEGAN EAST,2409 LYNDALE AVE S,44.95872,-93.2876,"[[268964, 277246]]","[['2018/10/26', '2019/10/23']]","[['Routine', 'Routine']]","[[96, 100]]"
644,VELLEE DELI,109 7TH ST S #263,44.97593,-93.27064,"[[50660, 192244, 246321, 246320]]","[['2017/03/08', '2018/03/19', '2018/04/23', '2019/03/18']]","[['Routine', 'Routine', 'Follow-Up', 'Routine']]","[[98, 92, 100, 94]]"
645,VENTURE ACADEMY,315 27TH AVE SE,44.973,-93.21858,"[[205628, 227143, 246310, 272328, 307355]]","[['2017/09/28', '2018/03/16', '2018/09/20', '2019/03/28', '2019/09/20']]","[['Routine', 'Routine', 'Routine', 'Routine', 'Routine']]","[[92, 100, 100, 100, 98]]"
646,VICTORS 1959 CAFE,3756 GRAND AVE S,44.93423,-93.28462,"[[50819, 232204, 232203, 277119]]","[['2017/10/26', '2017/12/19', '2018/10/24', '2019/11/14']]","[['Routine', 'Follow-Up', 'Routine', 'Routine']]","[[80, 100, 96, 94]]"
647,VILLAGE HOUSE QUE VIET,2211 JOHNSON ST NE,45.00994,-93.2369,[[328971]],[['2019/09/16']],[['Routine']],[[100]]
648,VITALIS,1300 NICOLLET MALL,44.97086,-93.27826,"[[234732, 243291, 245972, 243290]]","[['2018/02/13', '2018/03/13', '2018/04/17', '2019/08/19']]","[['Routine', 'Follow-Up', 'Follow-Up', 'Routine']]","[[86, 90, 100, 98]]"
649,W MINNEAPOLIS - THE FOSHAY,821 MARQUETTE AVE,44.97448,-93.2718,"[[58445, 208287, 208286, 254897, 254896]]","[['2017/07/19', '2017/08/16', '2018/07/17', '2018/08/15', '2019/07/15']]","[['Routine', 'Follow-Up', 'Routine', 'Follow-Up', 'Routine']]","[[80, 96, 92, 100, 96]]"
650,WAFFLE BAR,2758 LYNDALE AVE S,44.95217,-93.28849,"[[246988, 254442]]","[['2018/06/18', '2019/12/23']]","[['Routine', 'Routine']]","[[100, 100]]"
651,WAKAME SUSHI & ASIAN BISTRO,3070 EXCELSIOR BLVD,44.94759,-93.32256,"[[58549, 200239, 205631, 200238, 252847, 252846]]","[['2017/05/24', '2017/07/18', '2017/09/25', '2018/06/07', '2018/07/19', '2019/06/19']]","[['Routine', 'Follow-Up', 'Follow-Up', 'Routine', 'Follow-Up', 'Routine']]","[[52, 84, 96, 74, 100, 96]]"
652,WALDORF CITY SCHOOL,2344 NICOLLET AVE,44.95947,-93.27839,"[[58554, 191797, 242936]]","[['2017/02/27', '2018/02/13', '2019/02/19']]","[['Routine', 'Routine', 'Routine']]","[[94, 94, 96]]"
653,WALKIN' DOG,618 2ND AVE S #119 NORTH,44.97622,-93.26974,"[[58725, 190222, 190221, 266933]]","[['2017/02/09', '2017/03/28', '2018/08/22', '2018/10/02']]","[['Routine', 'Follow-Up', 'Routine', 'Follow-Up']]","[[88, 92, 94, 100]]"
654,WASABI FUSION CUISINE,903 WASHINGTON AVE S,44.97617,-93.25594,"[[58804, 227823, 265318, 271795, 265317]]","[['2017/08/09', '2018/08/14', '2018/09/12', '2018/10/11', '2019/08/13']]","[['Routine', 'Routine', 'Follow-Up', 'Follow-Up', 'Routine']]","[[88, 88, 94, 96, 100]]"
655,WEDGE TABLE,2412 NICOLLET AVE,44.95847,-93.27838,"[[225879, 233856, 232084, 277701, 237178]]","[['2017/11/02', '2018/01/05', '2018/10/30', '2019/11/04', '2020/01/06']]","[['Routine', 'Routine', 'Routine', 'Routine', 'Routine']]","[[96, 100, 94, 94, 100]]"
656,WHITE CASTLE #26,100 LAKE ST W,44.94864,-93.28019,"[[65383, 233220]]","[['2017/11/06', '2019/05/14']]","[['Routine', 'Routine']]","[[96, 98]]"
657,WHITE CASTLE #29,608 CENTRAL AVE NE,44.98988,-93.25183,"[[65386, 192767, 192766]]","[['2017/03/14', '2017/04/18', '2018/12/17']]","[['Routine', 'Follow-Up', 'Routine']]","[[100, 100, 96]]"
658,WHOLE SUM,824 50TH ST W,44.91253,-93.29044,"[[65555, 199787, 251027, 251026]]","[['2017/05/19', '2018/05/18', '2018/09/02', '2019/06/23']]","[['Routine', 'Routine', 'Follow-Up', 'Routine']]","[[94, 84, 100, 94]]"
659,WHOLE SUM KITCHEN,824 50TH ST W,44.91253,-93.29044,"[[65560, 188246, 241385, 241384, 294090, 294089]]","[['2017/01/17', '2018/01/22', '2018/03/09', '2019/01/22', '2019/02/28', '2020/01/22']]","[['Routine', 'Routine', 'Follow-Up', 'Routine', 'Follow-Up', 'Routine']]","[[96, 92, 98, 86, 100, 94]]"
660,WILDE CAFE & SPIRITS,65 MAIN ST SE,44.98613,-93.25797,"[[246649, 254016, 254015]]","[['2018/06/14', '2018/07/25', '2019/06/18']]","[['Routine', 'Follow-Up', 'Routine']]","[[90, 96, 96]]"
661,WILLIAMS UPTOWN PUB & PEANUT BAR,2911 HENNEPIN AVE,44.94954,-93.29787,"[[17410, 231995, 231638, 278077]]","[['2017/10/28', '2017/12/29', '2018/10/30', '2019/10/30']]","[['Routine', 'Follow-Up', 'Routine', 'Routine']]","[[94, 100, 96, 100]]"
662,WINGS & SEAFOOD TO GO,3404 NICOLLET AVE,44.94108,-93.2782,"[[123987, 235120, 235119, 281257]]","[['2017/12/06', '2018/01/17', '2018/12/11', '2019/12/12']]","[['Routine', 'Follow-Up', 'Routine', 'Routine']]","[[92, 100, 94, 92]]"
663,WORLD STREET KITCHEN,2743 LYNDALE AVE S,44.95252,-93.28752,"[[17692, 196530, 17703, 196529, 200881, 252300, 247880, 253597]]","[['2017/04/17', '2017/05/19', '2017/06/06', '2018/04/13', '2018/06/10', '2018/06/24', '2019/04/05', '2019/05/17']]","[['Routine', 'Follow-Up', 'Routine', 'Routine', 'Routine', 'Routine', 'Routine', 'Routine']]","[[96, 100, 100, 100, 96, 100, 94, 98]]"
664,XIN WONG,4749 NICOLLET AVE,44.9163,-93.27759,"[[193223, 197963, 197962, 252314, 252313, 313559]]","[['2017/05/08', '2017/06/08', '2018/06/06', '2018/07/11', '2019/06/12', '2019/07/10']]","[['Routine', 'Follow-Up', 'Routine', 'Follow-Up', 'Routine', 'Follow-Up']]","[[86, 100, 88, 100, 90, 100]]"
665,YOGURT LAB,80 8TH ST S #226,44.97609,-93.27207,"[[17955, 194933]]","[['2017/04/10', '2018/09/27']]","[['Routine', 'Routine']]","[[100, 100]]"
666,YOUNG JONI,165 13TH AVE NE,45.00121,-93.26666,"[[192545, 203673, 248845, 252670, 248844, 309405]]","[['2017/04/25', '2018/04/26', '2018/05/25', '2018/06/29', '2019/04/24', '2019/06/04']]","[['Routine', 'Routine', 'Follow-Up', 'Follow-Up', 'Routine', 'Follow-Up']]","[[98, 94, 96, 96, 90, 100]]"
667,ZAKIA DELI,451 STINSON PKWY #B,44.99478,-93.22631,"[[24116, 197062, 247365, 247364]]","[['2017/04/24', '2018/04/02', '2018/05/16', '2019/04/02']]","[['Routine', 'Routine', 'Follow-Up', 'Routine']]","[[98, 84, 96, 98]]"
668,ZELINO,831 NICOLLET MALL,44.97499,-93.27322,"[[29397, 205118, 254522]]","[['2017/07/12', '2018/07/12', '2019/07/09']]","[['Routine', 'Routine', 'Routine']]","[[100, 96, 96]]"
669,ZELO,831 NICOLLET MALL,44.97499,-93.27322,"[[29393, 205115, 254521, 254520]]","[['2017/07/12', '2018/07/12', '2018/08/15', '2019/07/09']]","[['Routine', 'Routine', 'Follow-Up', 'Routine']]","[[96, 84, 92, 92]]"
670,ZETTAS,2424 NICOLLET AVE,44.95822,-93.27838,[[280882]],[['2019/02/01']],[['Routine']],[[96]]
671,ZUMBRO CAFE,2803 43RD ST W,44.92447,-93.31501,"[[24299, 24300, 236468, 281116]]","[['2017/02/02', '2017/10/25', '2018/12/07', '2020/01/07']]","[['Follow-Up', 'Routine', 'Routine', 'Routine']]","[[100, 80, 96, 96]]"
