,inspect_name,address,latitude,longitude,inspectionidnumber,dateofinspection,inspectiontype,inspectionscore,updated
0,38TH ST DAIRY QUEEN,3747 13TH AVE S,44.9343,-93.25582,"[44484, 198040, 249069]","['2017/05/10', '2018/05/04', '2019/05/16']","['Routine', 'Routine', 'Routine']","[92, 98, 96]","Fri, Mar 13, 2020 at 02:32 AM"
1,5 CORNER MARKET,2425 WEST BROADWAY,45.00577,-93.31175,[315055],['2019/09/04'],['Routine'],[98],"Fri, Mar 13, 2020 at 02:32 AM"
2,5TH AVE MARKET,201 5TH AVE N,44.98635,-93.27342,"[44652, 181142, 237545, 286986, 287156]","['2017/01/04', '2018/01/12', '2019/01/03', '2019/02/13', '2019/12/03']","['Routine', 'Routine', 'Routine', 'Follow-Up', 'Routine']","[100, 100, 96, 100, 100]","Fri, Mar 13, 2020 at 02:32 AM"
3,A & J FISH & CHICKEN,500 LAKE ST E,44.94859,-93.26869,"[44833, 228301, 228300, 274054, 274053, 330518]","['2017/10/09', '2017/11/09', '2018/10/01', '2018/11/01', '2019/09/25', '2019/11/07']","['Routine', 'Follow-Up', 'Routine', 'Follow-Up', 'Routine', 'Follow-Up']","[86, 100, 88, 100, 70, 94]","Fri, Mar 13, 2020 at 02:32 AM"
4,A LA SALSA RESTAURANT,920 LAKE ST E #155,44.94931,-93.26076,"[32331, 191472, 243457, 299767, 355153]","['2017/02/21', '2018/02/20', '2019/02/21', '2020/02/12', '2020/02/24']","['Routine', 'Routine', 'Routine', 'Routine', 'Follow-Up']","[100, 98, 94, 84, 94]","Fri, Mar 13, 2020 at 02:32 AM"
5,AARAN RESTAURANT,2910 PILLSBURY AVE,44.94969,-93.2821,"[274005, 286257, 286256]","['2018/12/20', '2019/02/01', '2019/12/26']","['Routine', 'Follow-Up', 'Routine']","[82, 100, 96]","Fri, Mar 13, 2020 at 02:32 AM"
6,AC HOTEL MINNEAPOLIS DOWNTOWN,401 HENNEPIN AVE,44.9888,-93.25494,"[124347, 233758, 279995, 337879]","['2017/11/21', '2018/11/21', '2019/11/26', '2019/12/27']","['Routine', 'Routine', 'Routine', 'Follow-Up']","[100, 100, 88, 100]","Fri, Mar 13, 2020 at 02:32 AM"
7,AFC SUSHI @ KOWALSKIS #5366,2440 HENNEPIN AVE,44.95767,-93.29608,"[180494, 241935, 295094]","['2018/01/09', '2019/01/09', '2020/01/07']","['Routine', 'Routine', 'Routine']","[100, 96, 100]","Fri, Mar 13, 2020 at 02:32 AM"
8,AFC SUSHI @ WALGREENS #16275,655 NICOLLET MALL,0.0,0.0,"[51653, 189647, 251243, 251242]","['2017/01/25', '2018/05/22', '2018/06/20', '2019/05/22']","['Routine', 'Routine', 'Follow-Up', 'Routine']","[96, 87, 96, 98]","Fri, Mar 13, 2020 at 02:32 AM"
9,ALOFT HOTEL MINNEAPOLIS,900 WASHINGTON AVE S,44.97659,-93.25502,"[59226, 194020, 246855, 246854]","['2017/03/21', '2018/03/27', '2018/07/11', '2019/03/26']","['Routine', 'Routine', 'Follow-Up', 'Routine']","[100, 86, 96, 96]","Fri, Mar 13, 2020 at 02:32 AM"
10,AMERICAN LEGION,5600 34TH AVE S,44.90155,-93.22334,"[59408, 240981, 240503]","['2018/01/17', '2018/02/28', '2019/07/23']","['Routine', 'Follow-Up', 'Routine']","[90, 92, 92]","Fri, Mar 13, 2020 at 02:32 AM"
11,AMERICAN LEGION POST #99,5600 34TH AVE S,44.90155,-93.22334,"[59457, 240972, 240971]","['2018/01/17', '2018/02/28', '2019/07/23']","['Routine', 'Follow-Up', 'Routine']","[90, 92, 92]","Fri, Mar 13, 2020 at 02:32 AM"
12,ANTRO BAR,419 LAKE ST E,44.94779,-93.26942,"[280886, 294805]","['2019/02/01', '2020/01/31']","['Routine', 'Routine']","[98, 96]","Fri, Mar 13, 2020 at 02:32 AM"
13,APPLE SPICE,740 HARDING ST NE,44.9974,-93.22234,"[272025, 280091, 280090]","['2018/11/21', '2019/01/04', '2019/11/22']","['Routine', 'Follow-Up', 'Routine']","[88, 94, 96]","Fri, Mar 13, 2020 at 02:32 AM"
14,AREA CONCESSIONS,600 KENWOOD PKWY,44.97083,-93.29497,[325140],['2019/10/05'],['Routine'],[100],"Fri, Mar 13, 2020 at 02:32 AM"
15,ARIA AT THE JEUNE LUNE,105 1ST ST N,44.98471,-93.26873,"[11086, 198067, 249338]","['2017/05/10', '2018/05/03', '2019/05/04']","['Routine', 'Routine', 'Routine']","[100, 100, 96]","Fri, Mar 13, 2020 at 02:32 AM"
16,AUGIES CABARET,424 HENNEPIN AVE,44.97994,-93.27258,[18318],['2018/10/02'],['Routine'],[100],"Fri, Mar 13, 2020 at 02:32 AM"
17,AUGUSTANA  APARTMENTS,1510 11TH AVE S,44.96762,-93.2586,"[18382, 194013, 246885]","['2017/03/14', '2018/03/15', '2019/03/19']","['Routine', 'Routine', 'Routine']","[100, 96, 100]","Fri, Mar 13, 2020 at 02:32 AM"
18,BAD AXE THROWING,2505 KENNEDY ST NE,44.99564,-93.22465,"[318691, 331977]","['2019/10/06', '2019/11/17']","['Routine', 'Follow-Up']","[84, 98]","Fri, Mar 13, 2020 at 02:32 AM"
19,BAMINI'S COFFEE,2414 7TH ST S,44.9675,-93.23691,"[232268, 232341, 277007]","['2017/10/24', '2018/10/23', '2019/10/25']","['Routine', 'Routine', 'Routine']","[96, 96, 96]","Fri, Mar 13, 2020 at 02:32 AM"
20,BAND BOX,729 10TH ST S,44.96905,-93.26345,"[25203, 231247, 231246, 277628, 335734]","['2017/10/17', '2017/11/15', '2018/10/17', '2019/10/17', '2019/11/18']","['Routine', 'Follow-Up', 'Routine', 'Routine', 'Follow-Up']","[90, 100, 90, 88, 96]","Fri, Mar 13, 2020 at 02:32 AM"
21,BARBETTE,1600 LAKE ST W,44.94863,-93.25104,"[25354, 193285, 197611, 201956, 193284, 246658, 249265, 253160, 264612, 272873, 279768, 246657, 307528]","['2017/03/06', '2017/05/01', '2017/06/19', '2017/08/16', '2018/03/14', '2018/05/08', '2018/06/15', '2018/08/08', '2018/09/18', '2018/11/13', '2019/01/25', '2019/03/29', '2019/05/16']","['Routine', 'Follow-Up', 'Follow-Up', 'Follow-Up', 'Routine', 'Follow-Up', 'Follow-Up', 'Follow-Up', 'Follow-Up', 'Follow-Up', 'Follow-Up', 'Routine', 'Follow-Up']","[90, 92, 96, 100, 64, 90, 94, 94, 92, 94, 100, 94, 96]","Fri, Mar 13, 2020 at 02:32 AM"
22,BARFLY,711 HENNEPIN AVE,44.97743,-93.27489,"[125789, 241609]","['2018/01/10', '2019/01/24']","['Routine', 'Routine']","[96, 100]","Fri, Mar 13, 2020 at 02:32 AM"
23,BARWAQO RESTAURANT,2820 13TH AVE S,44.95073,-93.25693,"[233148, 242539, 242538, 294169, 294168, 350184]","['2018/01/29', '2018/02/24', '2019/01/22', '2019/02/13', '2020/01/23', '2020/02/12']","['Routine', 'Follow-Up', 'Routine', 'Follow-Up', 'Routine', 'Follow-Up']","[90, 100, 92, 100, 90, 100]","Fri, Mar 13, 2020 at 02:32 AM"
24,BEAST BARBEQUE,825 HENNEPIN AVE E,44.97643,-93.27643,"[291902, 313272]","['2019/06/04', '2019/07/15']","['Routine', 'Follow-Up']","[86, 92]","Fri, Mar 13, 2020 at 02:32 AM"
25,BEP EATERY,733 MARQUETTE AVE #223,44.97555,-93.271,"[303710, 310422]","['2019/05/15', '2019/06/28']","['Routine', 'Follow-Up']","[82, 98]","Fri, Mar 13, 2020 at 02:32 AM"
26,BILL'S IMPORTED FOODS,721 LAKE ST W,44.94806,-93.28912,"[37806, 229604, 229603]","['2017/10/12', '2017/12/19', '2019/04/23']","['Routine', 'Follow-Up', 'Routine']","[96, 100, 98]","Fri, Mar 13, 2020 at 02:32 AM"
27,BILLY & MARTYS,220 6TH ST S,44.9769,-93.26762,"[124781, 236494, 281544]","['2017/12/20', '2018/12/17', '2019/12/06']","['Routine', 'Routine', 'Routine']","[100, 98, 96]","Fri, Mar 13, 2020 at 02:32 AM"
28,BIRDSONG SOUPS,920 LAKE ST E #107,44.94931,-93.26076,"[37963, 227557, 274262]","['2017/10/04', '2018/10/04', '2019/12/11']","['Routine', 'Routine', 'Routine']","[100, 100, 100]","Fri, Mar 13, 2020 at 02:32 AM"
29,BISMILLAH GROCERY STORE,2926 CHICAGO AVE,44.94922,-93.26306,[286781],['2019/03/07'],['Routine'],[94],"Fri, Mar 13, 2020 at 02:32 AM"
30,BLONG THAO LLC,4601 SNELLING AVE,44.91879,-93.21571,[313399],['2019/08/07'],['Routine'],[94],"Fri, Mar 13, 2020 at 02:32 AM"
31,BOBBY & STEVE'S AUTO WORLD,1221 WASHINGTON AVE S,44.97407,-93.25106,"[45032, 230733, 230734, 277240]","['2017/10/12', '2017/12/14', '2018/10/12', '2019/10/11']","['Routine', 'Follow-Up', 'Routine', 'Routine']","[80, 100, 98, 100]","Fri, Mar 13, 2020 at 02:32 AM"
32,BOLDER OPTIONS,2100 STEVENS AVE,44.9618,-93.27565,"[45088, 196711, 248317]","['2017/04/20', '2018/04/19', '2019/04/18']","['Routine', 'Routine', 'Routine']","[100, 100, 98]","Fri, Mar 13, 2020 at 02:32 AM"
33,BOOLAAYNUR RESTAURANT,1819 NICOLLET AVE,44.96459,-93.27744,"[268965, 277471, 277470, 335037]","['2018/10/26', '2018/12/18', '2019/10/25', '2019/12/26']","['Routine', 'Follow-Up', 'Routine', 'Follow-Up']","[84, 94, 88, 96]","Fri, Mar 13, 2020 at 02:32 AM"
34,BRAVA COFFEE AND FOODS,2021 HENNEPIN AVE E,44.96211,-93.29142,"[203706, 242322, 242321]","['2018/02/06', '2018/03/20', '2019/07/30']","['Routine', 'Follow-Up', 'Routine']","[74, 92, 94]","Fri, Mar 13, 2020 at 02:32 AM"
35,BREAD & PICKLE,4135 WEST LAKE HARRIET PKWY,44.92824,-93.29749,"[45461, 200012, 200011, 253141, 270862, 253140]","['2017/05/23', '2017/06/27', '2018/06/15', '2018/09/04', '2018/09/17', '2019/07/08']","['Routine', 'Follow-Up', 'Routine', 'Follow-Up', 'Follow-Up', 'Routine']","[88, 100, 88, 92, 100, 92]","Fri, Mar 13, 2020 at 02:32 AM"
36,BROADWAY CHOW MEIN,607 WEST BROADWAY,44.99855,-93.28682,"[190549, 180561, 277135, 279942, 281590, 277134, 334781]","['2017/03/30', '2018/10/24', '2018/11/15', '2018/12/14', '2019/01/15', '2019/10/22', '2019/11/29']","['Follow-Up', 'Routine', 'Follow-Up', 'Follow-Up', 'Follow-Up', 'Routine', 'Follow-Up']","[100, 78, 78, 94, 94, 84, 90]","Fri, Mar 13, 2020 at 02:32 AM"
37,BRYN MAWR PIZZA & DELI,404 CEDAR LAKE RD S,44.97377,-93.30876,"[52765, 196368, 247285]","['2017/03/27', '2018/04/04', '2019/04/03']","['Routine', 'Routine', 'Routine']","[94, 94, 98]","Fri, Mar 13, 2020 at 02:32 AM"
38,BUS STOP BREWHOUSE,600 4TH ST S #O,0.0,0.0,"[286503, 304139]","['2019/03/15', '2019/04/23']","['Routine', 'Follow-Up']","[88, 100]","Fri, Mar 13, 2020 at 02:32 AM"
39,BUTCHER & THE BOAR,1121 HENNEPIN AVE,44.97466,-93.27972,"[59767, 226771, 226770, 275316, 275315, 332488]","['2017/09/25', '2017/11/06', '2018/10/02', '2018/11/07', '2019/10/03', '2019/10/31']","['Routine', 'Follow-Up', 'Routine', 'Follow-Up', 'Routine', 'Follow-Up']","[92, 100, 88, 100, 78, 100]","Fri, Mar 13, 2020 at 02:32 AM"
40,CAANO KITCHEN,2910 PILLSBURY AVE #413,44.94969,-93.2821,"[59931, 59932, 229139, 234057, 229138, 275469, 275468, 332867]","['2017/01/12', '2017/10/10', '2017/11/27', '2018/01/18', '2018/10/11', '2018/11/13', '2019/10/09', '2019/11/26']","['Follow-Up', 'Routine', 'Follow-Up', 'Follow-Up', 'Routine', 'Follow-Up', 'Routine', 'Follow-Up']","[88, 76, 96, 98, 78, 96, 78, 94]","Fri, Mar 13, 2020 at 02:32 AM"
41,CAFE MAUDE,5411 PENN AVE S,44.9047,-93.30827,"[60116, 60117, 245422, 245423, 303779]","['2017/04/03', '2018/03/01', '2018/04/27', '2019/03/07', '2020/03/03']","['Follow-Up', 'Routine', 'Follow-Up', 'Routine', 'Routine']","[100, 92, 100, 94, 82]","Fri, Mar 13, 2020 at 02:32 AM"
42,CAFE RACER KITCHEN,2929 25TH ST E,44.9572,-93.22864,"[60174, 198405, 198404, 249157]","['2017/05/16', '2017/06/21', '2018/05/03', '2019/05/01']","['Routine', 'Follow-Up', 'Routine', 'Routine']","[86, 94, 92, 96]","Fri, Mar 13, 2020 at 02:32 AM"
43,CAFFREYS DELI & SUBS,3008 LYNDALE AVE S,45.01102,-93.28755,"[277238, 278524, 281393, 278523]","['2018/11/01', '2018/12/12', '2019/02/08', '2019/11/01']","['Routine', 'Follow-Up', 'Follow-Up', 'Routine']","[94, 100, 100, 98]","Fri, Mar 13, 2020 at 02:32 AM"
44,CAIRO GRILL,128 LAKE ST W,44.94864,-93.28098,"[257457, 278315, 286756, 278314]","['2018/10/24', '2018/12/19', '2019/02/19', '2019/11/26']","['Routine', 'Follow-Up', 'Follow-Up', 'Routine']","[94, 98, 100, 92]","Fri, Mar 13, 2020 at 02:32 AM"
45,CANDYLAND,27 7TH ST S #MAIN FLOOR,44.97714,-93.2744,"[11484, 271753, 272577]","['2017/04/04', '2018/09/24', '2019/09/19']","['Routine', 'Routine', 'Routine']","[100, 98, 96]","Fri, Mar 13, 2020 at 02:32 AM"
46,CANOPY BY HILTON MINNEAPOLIS-MILL DISTRICT,708 3RD ST S,44.97681,-93.2588,[296884],['2020/03/04'],['Routine'],[90],"Fri, Mar 13, 2020 at 02:32 AM"
47,CANTEEN VENDING SERVICES DIVISION,700 24TH AVE SE,44.98071,-93.21701,[276935],['2018/12/20'],['Routine'],[100],"Fri, Mar 13, 2020 at 02:32 AM"
48,CARDINAL BAR,2920 38TH ST E,44.93433,-93.31729,"[11670, 229370, 229369, 276827, 335149]","['2017/10/12', '2017/12/07', '2018/10/22', '2019/10/24', '2019/12/09']","['Routine', 'Follow-Up', 'Routine', 'Routine', 'Follow-Up']","[86, 100, 100, 84, 100]","Fri, Mar 13, 2020 at 02:32 AM"
49,CARIBOU COFFEE #1218,1730 NEW BRIGHTON BLVD #102,45.00562,-93.22787,"[18629, 253320]","['2018/06/25', '2018/07/25']","['Routine', 'Follow-Up']","[90, 92]","Fri, Mar 13, 2020 at 02:32 AM"
50,CARIBOU COFFEE #1307,501 5TH ST N,44.98657,-93.24705,"[18700, 216794]","['2017/08/14', '2019/07/30']","['Routine', 'Routine']","[100, 100]","Fri, Mar 13, 2020 at 02:32 AM"
51,CARNICERIA LA HUAZTECA,419 LAKE ST E,44.94779,-93.26942,"[245909, 250941]","['2018/05/18', '2019/05/17']","['Routine', 'Routine']","[96, 100]","Fri, Mar 13, 2020 at 02:32 AM"
52,CEDAR CULTURAL CENTER,416 CEDAR AVE S,44.96938,-93.2476,"[19083, 193264]","['2017/03/16', '2019/03/13']","['Routine', 'Routine']","[100, 100]","Fri, Mar 13, 2020 at 02:32 AM"
53,CEDAR GRILL AND DELI,629 CEDAR AVE S,44.96686,-93.24696,"[251624, 263464, 263463, 325071]","['2018/08/09', '2018/10/12', '2019/08/15', '2019/10/09']","['Routine', 'Follow-Up', 'Routine', 'Follow-Up']","[88, 98, 84, 96]","Fri, Mar 13, 2020 at 02:32 AM"
54,CENTRAL DELI & COFFEE,1831 CENTRAL AVE NE,45.00715,-93.24683,"[19257, 19258, 231223, 231222, 277697, 277696]","['2017/01/06', '2017/10/10', '2017/10/31', '2018/10/25', '2018/11/29', '2019/10/24']","['Follow-Up', 'Routine', 'Follow-Up', 'Routine', 'Follow-Up', 'Routine']","[100, 94, 100, 98, 100, 92]","Fri, Mar 13, 2020 at 02:32 AM"
55,CHILDRENS HOSPITAL & CLINICS,2525 CHICAGO AVE,44.95662,-93.26173,"[25812, 188227, 241154, 290917]","['2017/01/17', '2018/01/18', '2019/01/21', '2020/01/24']","['Routine', 'Routine', 'Routine', 'Routine']","[100, 98, 88, 96]","Fri, Mar 13, 2020 at 02:32 AM"
56,CHOWGIRLS KILLER CATERING,336 HOOVER ST NE,44.9927,-93.2183,"[203709, 225435, 272390, 272389]","['2017/09/14', '2018/09/20', '2018/10/22', '2019/09/10']","['Routine', 'Routine', 'Follow-Up', 'Routine']","[98, 88, 96, 94]","Fri, Mar 13, 2020 at 02:32 AM"
57,CITY FOOD STUDIO,3722 CHICAGO AVE,44.93505,-93.26289,"[31719, 188585, 241607, 241606, 302248]","['2017/01/19', '2018/01/28', '2018/07/25', '2019/01/10', '2020/02/11']","['Routine', 'Routine', 'Follow-Up', 'Routine', 'Routine']","[100, 96, 100, 100, 92]","Fri, Mar 13, 2020 at 02:32 AM"
58,COBBLE LLC,610 28TH ST W,44.95228,-93.2871,[278780],['2019/06/16'],['Routine'],[94],"Fri, Mar 13, 2020 at 02:32 AM"
59,COLONIAL MARKET,2750 NICOLLET AVE,44.95218,-93.27834,"[336908, 340638]","['2020/01/09', '2020/01/22']","['Routine', 'Follow-Up']","[86, 100]","Fri, Mar 13, 2020 at 02:32 AM"
60,COMMON GROUNDS,2701 WELLS FARGO WAY,44.95341,-93.27031,"[38695, 190912, 240512]","['2017/02/17', '2018/01/17', '2020/01/15']","['Routine', 'Routine', 'Routine']","[100, 100, 100]","Fri, Mar 13, 2020 at 02:32 AM"
61,COMPASS GROUP,2701 WELLS FARGO WAY,44.95341,-93.27031,"[38690, 190907, 241099, 290911, 340381]","['2017/02/17', '2018/01/17', '2019/01/17', '2020/01/07', '2020/01/15']","['Routine', 'Routine', 'Routine', 'Routine', 'Follow-Up']","[100, 90, 92, 84, 100]","Fri, Mar 13, 2020 at 02:32 AM"
62,CONSOLIDATED MANAGEMENT COMPANY,3660 TECHNOLOGY DR,45.03279,-93.27908,"[233618, 242011, 292605, 350463]","['2018/01/22', '2019/01/22', '2020/01/22', '2020/02/06']","['Routine', 'Routine', 'Routine', 'Follow-Up']","[92, 94, 86, 100]","Fri, Mar 13, 2020 at 02:32 AM"
63,CORE MEALS,1200 WEST BROADWAY,44.9994,-93.29608,[293889],['2019/05/19'],['Routine'],[94],"Fri, Mar 13, 2020 at 02:32 AM"
64,COSMIC BEAN DISPENSARY,1315 4TH ST SE,44.98106,-93.23624,[286361],['2019/06/27'],['Routine'],[98],"Fri, Mar 13, 2020 at 02:32 AM"
65,COURTYARD MINNEAPOLIS DOWNTOWN,1500 WASHINGTON AVE S,44.97385,-93.24784,"[45627, 189648, 242845, 298619]","['2017/01/31', '2018/02/06', '2019/02/11', '2020/02/10']","['Routine', 'Routine', 'Routine', 'Routine']","[96, 100, 100, 94]","Fri, Mar 13, 2020 at 02:32 AM"
66,CRAVE CAFE,2100 SUMMER ST NE,44.99603,-93.23046,"[181303, 236544, 236543, 286890]","['2017/12/21', '2018/02/03', '2018/12/21', '2020/01/02']","['Routine', 'Follow-Up', 'Routine', 'Routine']","[80, 100, 98, 94]","Fri, Mar 13, 2020 at 02:32 AM"
67,CROSSTOWN QWIK N SERVE,6004 PENN AVE S,44.89407,-93.30905,"[46024, 230984, 230983]","['2017/10/23', '2017/11/30', '2019/04/24']","['Routine', 'Follow-Up', 'Routine']","[96, 100, 98]","Fri, Mar 13, 2020 at 02:32 AM"
68,CROWNE PLAZA - KRONA BAR & GRILL,618 2ND AVE S,44.97622,-93.26974,"[46063, 189934, 242957, 297627]","['2017/02/01', '2018/02/14', '2019/02/12', '2020/02/11']","['Routine', 'Routine', 'Routine', 'Routine']","[98, 96, 100, 98]","Fri, Mar 13, 2020 at 02:32 AM"
69,CUB FOODS,5937 NICOLLET AVE,44.89494,-93.27702,"[180564, 236952, 285971]","['2017/12/28', '2018/12/18', '2019/12/17']","['Routine', 'Routine', 'Routine']","[98, 100, 100]","Fri, Mar 13, 2020 at 02:32 AM"
70,CUB FOODS BROADWAY,701 WEST BROADWAY,44.99826,-93.2892,"[46232, 194246, 194245, 247410]","['2017/03/30', '2017/04/26', '2018/04/03', '2019/04/03']","['Routine', 'Follow-Up', 'Routine', 'Routine']","[84, 96, 100, 96]","Fri, Mar 13, 2020 at 02:32 AM"
71,CUP FOODS,3759 CHICAGO AVE,44.93431,-93.2621,"[53032, 191889, 191888, 246445, 246444, 308535, 308534]","['2017/02/27', '2017/03/29', '2018/03/12', '2018/05/09', '2019/03/07', '2019/04/30', '2020/03/04']","['Routine', 'Follow-Up', 'Routine', 'Follow-Up', 'Routine', 'Follow-Up', 'Routine']","[74, 96, 74, 96, 72, 92, 92]","Fri, Mar 13, 2020 at 02:32 AM"
72,D BRIAN'S,600 4TH ST S #210,0.0,0.0,"[227109, 230747, 230746, 278434, 335409]","['2017/10/17', '2017/12/14', '2018/10/17', '2019/10/16', '2019/11/18']","['Routine', 'Follow-Up', 'Routine', 'Routine', 'Follow-Up']","[84, 100, 96, 84, 100]","Fri, Mar 13, 2020 at 02:32 AM"
73,D'AMICO CATERING AT CALHOUN BEACH CLUB,2925 DEAN PKWY,44.94989,-93.31518,"[53339, 209050, 263393]","['2017/07/22', '2018/08/02', '2019/08/02']","['Routine', 'Routine', 'Routine']","[96, 96, 100]","Fri, Mar 13, 2020 at 02:32 AM"
74,DAALIS COFFEE,912 24TH ST E #102,44.95968,-93.26037,"[246989, 253063, 314459]","['2018/06/19', '2019/06/19', '2019/08/15']","['Routine', 'Routine', 'Follow-Up']","[94, 82, 96]","Fri, Mar 13, 2020 at 02:32 AM"
75,DALLO FOOD,1603 CHICAGO AVE,44.96685,-93.26211,"[321766, 333371, 338820]","['2019/10/03', '2019/11/11', '2019/12/30']","['Routine', 'Follow-Up', 'Follow-Up']","[86, 86, 88]","Fri, Mar 13, 2020 at 02:32 AM"
76,DANCING GANESHA,1100 HARMON PL,44.97428,-93.27887,"[193524, 200000, 202527, 199999, 251425, 251424, 310496]","['2017/05/23', '2017/06/21', '2017/08/04', '2018/05/22', '2018/06/19', '2019/05/15', '2019/06/13']","['Routine', 'Follow-Up', 'Follow-Up', 'Routine', 'Follow-Up', 'Routine', 'Follow-Up']","[86, 90, 100, 86, 100, 86, 92]","Fri, Mar 13, 2020 at 02:32 AM"
77,DAYS HOTEL ON UNIVERSITY,2407 UNIVERSITY AVE SE #COLLEEN WR,44.97434,-93.22173,"[60433, 192475]","['2017/03/13', '2018/09/12']","['Routine', 'Routine']","[92, 96]","Fri, Mar 13, 2020 at 02:32 AM"
78,DEEQA RESTAURANT,620 16TH AVE S #29,44.96815,-93.25033,"[60518, 192337, 192336, 242981, 296434, 296433]","['2017/02/07', '2017/03/23', '2018/02/12', '2019/02/04', '2019/03/12', '2020/02/06']","['Routine', 'Follow-Up', 'Routine', 'Routine', 'Follow-Up', 'Routine']","[88, 100, 96, 88, 100, 96]","Fri, Mar 13, 2020 at 02:32 AM"
79,DEJA VU,315 WASHINGTON AVE N,44.98466,-93.27338,"[60603, 243619]","['2018/02/22', '2019/08/16']","['Routine', 'Routine']","[100, 96]","Fri, Mar 13, 2020 at 02:32 AM"
80,DEMI 212/DEMI,212 2ND ST N,44.98464,-93.25398,"[286962, 307392]","['2019/03/27', '2019/05/03']","['Routine', 'Follow-Up']","[82, 98]","Fri, Mar 13, 2020 at 02:32 AM"
81,DIAMONDS COFFEE SHOPPE,1618 CENTRAL AVE NE,45.00518,-93.24873,"[60748, 198471, 198470]","['2017/05/10', '2017/06/07', '2018/11/20']","['Routine', 'Follow-Up', 'Routine']","[94, 96, 98]","Fri, Mar 13, 2020 at 02:32 AM"
82,DIYAR RESTAURANT,2910 PILLSBURY AVE #407,44.94969,-93.2821,"[287073, 304154]","['2019/03/12', '2019/05/03']","['Routine', 'Follow-Up']","[80, 98]","Fri, Mar 13, 2020 at 02:32 AM"
83,DOTS GRAY,208 29TH AVE N,45.00971,-93.28095,"[243042, 247715]","['2018/04/09', '2019/04/24']","['Routine', 'Routine']","[100, 98]","Fri, Mar 13, 2020 at 02:32 AM"
84,DOUBLETREE BY HILTON HOTEL MINNEAPOLIS - UNIVERSITY AREA,511 HURON BLVD SE,44.97101,-93.22259,"[242305, 242512, 290950]","['2018/01/19', '2019/01/18', '2020/01/27']","['Routine', 'Routine', 'Routine']","[100, 94, 94]","Fri, Mar 13, 2020 at 02:32 AM"
85,DOWNTOWN CABARET,115 4TH ST S,44.97861,-93.2679,"[12154, 189612, 242331, 242330, 296865, 296864]","['2017/01/30', '2018/02/07', '2018/03/30', '2019/02/08', '2019/04/08', '2020/02/10']","['Routine', 'Routine', 'Follow-Up', 'Routine', 'Follow-Up', 'Routine']","[100, 84, 98, 98, 98, 98]","Fri, Mar 13, 2020 at 02:32 AM"
86,DR49,4953 XERXES AVE S,44.9127,-93.3186,[307787],['2019/06/14'],['Routine'],[94],"Fri, Mar 13, 2020 at 02:32 AM"
87,DRAKE HOTEL,416 10TH ST S,44.97161,-93.26796,"[12271, 231767, 277911, 277910]","['2017/10/25', '2018/10/31', '2018/12/07', '2019/10/30']","['Routine', 'Routine', 'Follow-Up', 'Routine']","[96, 92, 100, 94]","Fri, Mar 13, 2020 at 02:32 AM"
88,DUCK DUCK COFFEE,1830 38TH ST E,44.93425,-93.24695,"[335484, 339011]","['2019/12/16', '2020/01/22']","['Routine', 'Follow-Up']","[90, 100]","Fri, Mar 13, 2020 at 02:32 AM"
89,DUR DUR RESTAURANT,2511 BLOOMINGTON AVE,44.95686,-93.25204,"[287029, 304718, 309582, 313579]","['2019/03/12', '2019/04/29', '2019/06/06', '2019/07/15']","['Routine', 'Follow-Up', 'Follow-Up', 'Follow-Up']","[78, 76, 80, 94]","Fri, Mar 13, 2020 at 02:32 AM"
90,E & L SUPERMARKET & DELI,1122 LOWRY AVE N,45.01336,-93.29397,"[19830, 196393, 247714, 247713, 331073]","['2017/04/06', '2018/04/06', '2018/05/07', '2019/10/02', '2019/11/12']","['Routine', 'Routine', 'Follow-Up', 'Routine', 'Follow-Up']","[96, 92, 100, 72, 92]","Fri, Mar 13, 2020 at 02:32 AM"
91,EASTSIDE FOOD COOPERATIVE,2551 CENTRAL AVE NE,45.01451,-93.24681,"[20034, 228258, 276324, 333417]","['2017/10/05', '2018/10/16', '2019/10/15', '2019/11/18']","['Routine', 'Routine', 'Routine', 'Follow-Up']","[96, 96, 78, 96]","Fri, Mar 13, 2020 at 02:32 AM"
92,EBENEZER LOREN ON PARK,2625 PARK AVE,44.95443,-93.26447,"[245396, 248617]","['2018/04/27', '2019/04/23']","['Routine', 'Routine']","[94, 94]","Fri, Mar 13, 2020 at 02:32 AM"
93,EDDINGTON'S,625 MARQUETTE AVE #232,44.97642,-93.27017,[340316],['2020/03/04'],['Routine'],[62],"Fri, Mar 13, 2020 at 02:32 AM"
94,EINSTEIN BROS BAGELS,720 22ND AVE S,44.96561,-93.24177,"[26321, 221954]","['2017/08/24', '2019/02/15']","['Routine', 'Routine']","[98, 98]","Fri, Mar 13, 2020 at 02:32 AM"
95,EL CAFE,3001 BROADWAY ST NE,44.99974,-93.21928,"[303333, 310311]","['2019/05/03', '2019/06/11']","['Routine', 'Follow-Up']","[86, 98]","Fri, Mar 13, 2020 at 02:32 AM"
96,EL POLLO DE LOS SANTOS,1700 LAKE ST E,44.94865,-93.2493,"[26602, 192421, 247072]","['2017/03/11', '2018/03/27', '2019/03/18']","['Routine', 'Routine', 'Routine']","[100, 98, 100]","Fri, Mar 13, 2020 at 02:32 AM"
97,ELEMENT BY WESTIN MINNEAPOLIS DWNTOWN NORTH LOOP,501 6TH AVE N,44.98397,-93.27925,[340532],['2020/02/14'],['Routine'],[96],"Fri, Mar 13, 2020 at 02:32 AM"
98,ELK'S LOUNGE,1614 PLYMOUTH AVE N,44.99179,-93.30149,"[188941, 252894]","['2018/06/04', '2020/01/16']","['Routine', 'Routine']","[98, 90]","Fri, Mar 13, 2020 at 02:32 AM"
99,EMBASSY SUITES MINNEAPOLIS DOWNTOWN,12 6TH ST S,44.97883,-93.27279,"[32206, 217867, 263846, 324001]","['2017/08/15', '2018/08/09', '2019/08/13', '2019/09/11']","['Routine', 'Routine', 'Routine', 'Follow-Up']","[100, 92, 90, 100]","Fri, Mar 13, 2020 at 02:32 AM"
100,EUREST @ SRI COFFEE BAR,111 WASHINGTON AVE S,44.98049,-93.26682,[245901],['2019/06/17'],['Routine'],[98],"Fri, Mar 13, 2020 at 02:32 AM"
101,EUREST DINING @ AMERICAN EXPRESS,707 2ND AVE S,44.97519,-93.26907,"[32603, 204045, 259453]","['2017/07/12', '2018/07/31', '2019/08/05']","['Routine', 'Routine', 'Routine']","[100, 96, 92]","Fri, Mar 13, 2020 at 02:32 AM"
102,EUREST DINING COLOPLAST,1601 WEST RIVER RD N,44.99539,-93.2775,"[280906, 298342, 298341]","['2019/02/14', '2019/03/28', '2020/02/11']","['Routine', 'Follow-Up', 'Routine']","[86, 100, 96]","Fri, Mar 13, 2020 at 02:32 AM"
103,EVERETT'S FOODS,1833 38TH ST E,44.93388,-93.24682,"[251095, 262029, 262028]","['2018/07/24', '2018/09/19', '2019/07/10']","['Routine', 'Follow-Up', 'Routine']","[90, 100, 94]","Fri, Mar 13, 2020 at 02:32 AM"
104,FABULOUS RESTAURANT & CATERING,2602 BLOOMINGTON AVE,44.95531,-93.25283,"[38991, 199578, 199577, 247402, 308778]","['2017/05/10', '2017/06/26', '2018/04/05', '2019/04/10', '2019/05/21']","['Routine', 'Follow-Up', 'Routine', 'Routine', 'Follow-Up']","[94, 100, 100, 94, 96]","Fri, Mar 13, 2020 at 02:32 AM"
105,FATHI CAFE,2910 PILLSBURY AVE,44.94969,-93.2821,"[39324, 207437, 224677, 207436, 256691, 256690, 316303]","['2017/07/20', '2017/09/06', '2017/09/25', '2018/07/24', '2018/09/18', '2019/07/19', '2019/12/17']","['Routine', 'Follow-Up', 'Follow-Up', 'Routine', 'Follow-Up', 'Routine', 'Follow-Up']","[82, 98, 100, 92, 98, 88, 98]","Fri, Mar 13, 2020 at 02:32 AM"
106,FIRST AVENUE,701 1ST AVE N,44.97828,-93.27603,"[198099, 201468, 210108, 223921, 201467, 251261, 251260, 310583]","['2017/06/13', '2017/07/28', '2017/08/30', '2017/10/11', '2018/05/18', '2018/06/22', '2019/05/15', '2019/06/11']","['Routine', 'Follow-Up', 'Follow-Up', 'Follow-Up', 'Routine', 'Follow-Up', 'Routine', 'Follow-Up']","[86, 90, 94, 96, 78, 100, 90, 100]","Fri, Mar 13, 2020 at 02:32 AM"
107,FIVE DECO,2917 BRYANT AVE S,44.94935,-93.29027,"[46447, 231998, 231641, 279458]","['2017/10/28', '2017/12/29', '2018/11/13', '2019/11/13']","['Routine', 'Follow-Up', 'Routine', 'Routine']","[94, 98, 100, 94]","Fri, Mar 13, 2020 at 02:32 AM"
108,FIVE WATT COFFEE,3350 LYNDALE AVE S,45.01653,-93.2876,[304659],['2019/05/23'],['Routine'],[98],"Fri, Mar 13, 2020 at 02:32 AM"
109,FLAMINGO RESTAURANT LLC,201 LAKE ST E,44.9478,-93.28183,"[251067, 275093]","['2018/10/09', '2019/11/16']","['Routine', 'Routine']","[96, 100]","Fri, Mar 13, 2020 at 02:32 AM"
110,FOCAL POINTE CAFE (PHILLIPS EYE),2215 PARK AVE,44.95995,-93.26432,"[46653, 198372, 198371]","['2017/05/16', '2017/06/13', '2018/11/02']","['Routine', 'Follow-Up', 'Routine']","[94, 100, 92]","Fri, Mar 13, 2020 at 02:32 AM"
111,FUENTE DE SODAS VIKKY,417 LAKE ST E,44.94779,-93.26942,"[233188, 238092, 340571]","['2018/01/12', '2020/01/10', '2020/01/17']","['Routine', 'Routine', 'Follow-Up']","[98, 78, 100]","Fri, Mar 13, 2020 at 02:32 AM"
112,GALE MANSION,2115 STEVENS AVE,44.96134,-93.27491,"[54131, 197815, 249383]","['2017/05/05', '2018/05/11', '2019/05/10']","['Routine', 'Routine', 'Routine']","[98, 96, 96]","Fri, Mar 13, 2020 at 02:32 AM"
113,GAS PLUS 5,5601 XERXES AVE S,44.90132,-93.3185,"[54268, 54269, 246681]","['2017/01/17', '2018/03/14', '2019/05/02']","['Follow-Up', 'Routine', 'Routine']","[100, 96, 96]","Fri, Mar 13, 2020 at 02:32 AM"
114,GATEWAY CAFE BY D'AMICO & SONS,200 OAK ST SE,44.97538,-93.23305,"[60869, 194239, 247149]","['2017/03/23', '2018/04/02', '2019/03/29']","['Routine', 'Routine', 'Routine']","[76, 98, 96]","Fri, Mar 13, 2020 at 02:32 AM"
115,GEEK LOVE CAFE,3032 MINNEHAHA AVE,44.94723,-93.23397,"[276916, 277474, 277473]","['2018/10/25', '2018/12/20', '2019/10/24']","['Routine', 'Follow-Up', 'Routine']","[92, 100, 94]","Fri, Mar 13, 2020 at 02:32 AM"
116,GLOBAL COFFEE,912 24TH ST E #B113,44.95968,-93.26037,[304219],['2019/04/30'],['Routine'],[94],"Fri, Mar 13, 2020 at 02:32 AM"
117,GOLD ROOM RESTAURANT AND LOUNGE,528 HENNEPIN AVE,44.9794,-93.27351,"[277717, 286447]","['2018/12/26', '2020/01/03']","['Routine', 'Routine']","[96, 94]","Fri, Mar 13, 2020 at 02:32 AM"
118,GOOD DEAL ORIENTAL FOODS,1800 LOWRY AVE N,45.01349,-93.30227,"[12408, 228320, 228319, 276369, 276368, 332253]","['2017/09/29', '2017/11/29', '2018/10/12', '2018/11/15', '2019/10/08', '2019/12/05']","['Routine', 'Follow-Up', 'Routine', 'Follow-Up', 'Routine', 'Follow-Up']","[92, 100, 96, 100, 78, 100]","Fri, Mar 13, 2020 at 02:32 AM"
119,GOOD TO GO,800 LASALLE AVE #214,44.97641,-93.27513,"[251133, 254735, 254734, 315678]","['2018/07/17', '2018/08/22', '2019/07/18', '2019/08/26']","['Routine', 'Follow-Up', 'Routine', 'Follow-Up']","[88, 96, 78, 96]","Fri, Mar 13, 2020 at 02:32 AM"
120,GRACE CENTER FOR COMMUNITY LIFE,1500 6TH ST NE,44.96936,-93.25057,"[12552, 230952, 292999]","['2017/10/24', '2019/01/26', '2020/02/22']","['Routine', 'Routine', 'Routine']","[100, 100, 100]","Fri, Mar 13, 2020 at 02:32 AM"
121,GRAND CAFE - HONEYWELL,1433 STINSON PKWY,45.00212,-93.22144,"[12614, 188952, 237435, 287861, 287860]","['2017/01/23', '2018/01/10', '2019/01/10', '2019/03/18', '2020/02/11']","['Routine', 'Routine', 'Routine', 'Follow-Up', 'Routine']","[100, 98, 88, 96, 92]","Fri, Mar 13, 2020 at 02:32 AM"
122,GRAY FOX,801 MARQUETTE AVE #TCF ATRIUM,0.0,0.0,"[251297, 272105, 272104, 327291]","['2018/09/12', '2018/10/09', '2019/08/28', '2019/09/26']","['Routine', 'Follow-Up', 'Routine', 'Follow-Up']","[94, 96, 84, 100]","Fri, Mar 13, 2020 at 02:32 AM"
123,GREAT HARVEST BREAD CO.,4314 UPTON AVE S,44.92399,-93.31524,"[12785, 219072, 270427, 270426]","['2017/08/16', '2018/08/22', '2018/09/27', '2019/08/21']","['Routine', 'Routine', 'Follow-Up', 'Routine']","[84, 90, 100, 96]","Fri, Mar 13, 2020 at 02:32 AM"
124,GREENWAY CAFE,2833 13TH AVE S #101,44.95078,-93.25592,"[20158, 203438, 254456]","['2017/07/05', '2018/07/10', '2019/07/31']","['Routine', 'Routine', 'Routine']","[100, 100, 100]","Fri, Mar 13, 2020 at 02:32 AM"
125,GRUMPY'S BAR,2200 4TH ST NE,45.00164,-93.28466,"[20239, 200618]","['2017/05/26', '2018/12/21']","['Routine', 'Routine']","[96, 94]","Fri, Mar 13, 2020 at 02:32 AM"
126,GULET DELI & GROCERY,922 24TH ST E,44.95941,-93.25991,"[124325, 230968, 230967, 275907, 275906, 334261]","['2017/10/25', '2017/11/28', '2018/10/16', '2018/12/04', '2019/10/15', '2019/11/26']","['Routine', 'Follow-Up', 'Routine', 'Follow-Up', 'Routine', 'Follow-Up']","[96, 100, 94, 100, 86, 98]","Fri, Mar 13, 2020 at 02:32 AM"
127,GUTHRIE THEATER - CULINAIRE,818 2ND ST S #TRACT E,44.97815,-93.2553,"[20367, 181022, 181021, 240979, 290635]","['2017/01/04', '2017/03/10', '2018/01/03', '2019/01/09', '2020/01/21']","['Routine', 'Follow-Up', 'Routine', 'Routine', 'Routine']","[100, 100, 100, 100, 92]","Fri, Mar 13, 2020 at 02:32 AM"
128,HAMDI COFFEE,2910 PILLSBURY AVE,44.94969,-93.2821,[331132],['2019/10/16'],['Routine'],[94],"Fri, Mar 13, 2020 at 02:32 AM"
129,HAMPTON INN & SUITES,2812 UNIVERSITY AVE SE,44.97104,-93.21676,"[204193, 208352]","['2017/07/27', '2019/01/03']","['Routine', 'Routine']","[98, 96]","Fri, Mar 13, 2020 at 02:32 AM"
130,HARWANAAG RESTAURANT,2532 25TH AVE S,44.95614,-93.2367,"[237277, 251219, 255466, 251218, 309814]","['2018/05/22', '2018/07/19', '2018/08/23', '2019/05/02', '2019/07/01']","['Routine', 'Follow-Up', 'Follow-Up', 'Routine', 'Follow-Up']","[96, 80, 96, 86, 96]","Fri, Mar 13, 2020 at 02:32 AM"
131,HEART HOSPITAL KITCHEN,800 28TH ST E,44.95458,-93.26133,"[51374, 195073, 247606]","['2017/04/05', '2018/04/09', '2019/04/11']","['Routine', 'Routine', 'Routine']","[100, 98, 100]","Fri, Mar 13, 2020 at 02:32 AM"
132,HENNEPIN COUNTY MEDICAL CENTER,701 PARK AVE,44.97208,-93.26244,"[27096, 228625, 277084, 333366]","['2017/09/19', '2018/09/19', '2019/09/23', '2019/11/20']","['Routine', 'Routine', 'Routine', 'Follow-Up']","[100, 100, 88, 96]","Fri, Mar 13, 2020 at 02:32 AM"
133,HEWING HOTEL,300 WASHINGTON AVE N,44.97302,-93.23473,"[192808, 192942, 197602, 192941, 247219, 249318, 247218, 309482]","['2017/03/14', '2017/05/01', '2017/06/01', '2018/03/30', '2018/05/04', '2018/05/30', '2019/04/15', '2019/05/16']","['Routine', 'Follow-Up', 'Follow-Up', 'Routine', 'Follow-Up', 'Follow-Up', 'Routine', 'Follow-Up']","[82, 94, 100, 84, 94, 100, 84, 100]","Fri, Mar 13, 2020 at 02:32 AM"
134,HIAWATHA GOLF COURSE,4553 LONGFELLOW AVE,44.92045,-93.24399,"[27322, 201634, 281578]","['2017/06/13', '2018/12/11', '2019/06/19']","['Routine', 'Routine', 'Routine']","[98, 100, 100]","Fri, Mar 13, 2020 at 02:32 AM"
135,HIJAZ FOOD AND SMOOTHIES,912 24TH ST E #124,44.95968,-93.26037,"[180737, 232086, 232085, 277035]","['2017/11/02', '2017/11/22', '2018/10/23', '2019/10/23']","['Routine', 'Follow-Up', 'Routine', 'Routine']","[82, 100, 100, 94]","Fri, Mar 13, 2020 at 02:32 AM"
136,HILTON GARDEN INN,1101 4TH AVE S,44.97009,-93.26984,"[32941, 193053, 197250, 193052, 247986, 247985]","['2017/03/20', '2017/04/28', '2017/05/26', '2018/03/27', '2018/05/09', '2019/03/14']","['Routine', 'Follow-Up', 'Follow-Up', 'Routine', 'Follow-Up', 'Routine']","[82, 88, 96, 96, 100, 94]","Fri, Mar 13, 2020 at 02:32 AM"
137,HISSHO SUSHI,1201 HENNEPIN AVE,44.97439,-93.28037,"[33091, 188236, 237327, 286979]","['2017/01/19', '2018/01/04', '2019/01/03', '2019/12/27']","['Routine', 'Routine', 'Routine', 'Routine']","[94, 100, 100, 96]","Fri, Mar 13, 2020 at 02:32 AM"
138,HISSHO SUSHI,25 UNIVERSITY AVE SE,44.98758,-93.25499,"[124351, 235488, 281580]","['2017/12/05', '2018/12/12', '2019/12/10']","['Routine', 'Routine', 'Routine']","[98, 98, 96]","Fri, Mar 13, 2020 at 02:32 AM"
139,HOLIDAY INN EXPRESS HOTEL & SUITES,225 11TH ST S,44.9711,-93.27192,"[33194, 188234, 263401]","['2017/01/19', '2018/08/10', '2020/02/04']","['Routine', 'Routine', 'Routine']","[100, 94, 92]","Fri, Mar 13, 2020 at 02:32 AM"
140,HOLIDAY STATIONSTORE #2,2124 FRANKLIN AVE E,44.96299,-93.24183,"[237282, 246302]","['2018/03/15', '2019/09/15']","['Routine', 'Routine']","[98, 96]","Fri, Mar 13, 2020 at 02:32 AM"
141,HOLIDAY STATIONSTORE #25,5444 NICOLLET AVE,44.90433,-93.27859,"[237292, 286292]","['2018/12/14', '2019/12/17']","['Routine', 'Routine']","[100, 100]","Fri, Mar 13, 2020 at 02:32 AM"
142,HOLIDAY STATIONSTORE #404,601 5TH ST N,44.98601,-93.24562,"[236365, 245166, 245165]","['2018/02/26', '2018/05/03', '2019/03/18']","['Routine', 'Follow-Up', 'Routine']","[92, 100, 100]","Fri, Mar 13, 2020 at 02:32 AM"
143,HOLIDAY STATIONSTORE #42,3700 50TH ST W,44.91272,-93.32686,"[236357, 245576]","['2018/03/07', '2019/03/22']","['Routine', 'Routine']","[98, 98]","Fri, Mar 13, 2020 at 02:32 AM"
144,HOLIDAY STATIONSTORE #462,1617 BROADWAY ST NE,44.99891,-93.23619,"[236369, 242834]","['2018/02/13', '2019/08/06']","['Routine', 'Routine']","[98, 94]","Fri, Mar 13, 2020 at 02:32 AM"
145,HOLIDAY STATIONSTORES #335,1331 INDUSTRIAL BLVD,45.0023,-93.21095,"[236391, 242840]","['2018/02/13', '2019/08/13']","['Routine', 'Routine']","[100, 96]","Fri, Mar 13, 2020 at 02:32 AM"
146,HOMEGROWN FOODS,3717 50TH ST W,44.91218,-93.3274,"[200889, 217831, 300169]","['2017/08/10', '2019/02/12', '2019/03/18']","['Routine', 'Routine', 'Follow-Up']","[94, 90, 98]","Fri, Mar 13, 2020 at 02:32 AM"
147,HOOK AND LADDER THEATER,3010 MINNEHAHA AVE,44.9479,-93.23447,"[251125, 251856]","['2018/05/31', '2019/06/07']","['Routine', 'Routine']","[100, 96]","Fri, Mar 13, 2020 at 02:32 AM"
148,HOTEL IVY,201 11TH ST S,44.97139,-93.27267,"[39581, 189541, 235462, 285798]","['2017/01/27', '2017/12/14', '2018/12/17', '2019/12/12']","['Routine', 'Routine', 'Routine', 'Routine']","[98, 96, 100, 98]","Fri, Mar 13, 2020 at 02:32 AM"
149,HUGE IMPROV THEATER,3037 LYNDALE AVE S,44.94705,-93.28769,"[39796, 240500]","['2018/01/17', '2020/01/17']","['Routine', 'Routine']","[100, 100]","Fri, Mar 13, 2020 at 02:32 AM"
150,HYATT PLACE MINNEAPOLIS,425 7TH ST S,44.97368,-93.26622,"[39842, 231261, 237018, 231260, 279893, 279892]","['2017/10/17', '2017/12/20', '2017/12/20', '2018/10/17', '2018/11/16', '2019/10/17']","['Routine', 'Follow-Up', 'Follow-Up', 'Routine', 'Follow-Up', 'Routine']","[84, 100, 100, 100, 100, 98]","Fri, Mar 13, 2020 at 02:32 AM"
151,HYATT REGENCY MINNEAPOLIS,1300 NICOLLET MALL,44.97086,-93.27826,"[39902, 202418, 253523]","['2017/06/20', '2018/06/22', '2019/06/20']","['Routine', 'Routine', 'Routine']","[92, 94, 100]","Fri, Mar 13, 2020 at 02:32 AM"
152,IGRILL,2910 PILLSBURY AVE #409,44.94969,-93.2821,"[234733, 248859, 248858, 309816]","['2018/04/27', '2018/07/13', '2019/05/03', '2019/07/12']","['Routine', 'Follow-Up', 'Routine', 'Follow-Up']","[84, 100, 90, 94]","Fri, Mar 13, 2020 at 02:32 AM"
153,IN THE HEART TO THE BEAST PUPPET AND MASK THEATRE,1500 LAKE ST E,44.94862,-93.2535,"[236499, 246682, 298661]","['2018/02/22', '2019/02/13', '2020/02/06']","['Routine', 'Routine', 'Routine']","[100, 100, 100]","Fri, Mar 13, 2020 at 02:32 AM"
154,INFUSED LIFE PLANT BASED EATERY,920 LAKE ST E,44.94931,-93.26076,"[339586, 354081]","['2020/02/07', '2020/02/13']","['Routine', 'Follow-Up']","[88, 100]","Fri, Mar 13, 2020 at 02:32 AM"
155,ISTABRAK RESTAURANT & CATERING,2833 13TH AVE S,44.95078,-93.25592,"[203733, 229597, 229596, 273962, 273961, 332145]","['2017/09/26', '2017/11/27', '2018/09/28', '2018/11/16', '2019/10/07', '2019/11/12']","['Routine', 'Follow-Up', 'Routine', 'Follow-Up', 'Routine', 'Follow-Up']","[94, 98, 98, 98, 90, 94]","Fri, Mar 13, 2020 at 02:32 AM"
156,JACK'S BISTRO,2701 WELLS FARGO WAY,44.95341,-93.27031,"[38676, 190909, 241108, 290914, 290913]","['2017/02/17', '2018/01/17', '2019/01/17', '2019/01/28', '2020/01/15']","['Routine', 'Routine', 'Routine', 'Follow-Up', 'Routine']","[96, 96, 86, 100, 100]","Fri, Mar 13, 2020 at 02:32 AM"
157,JASHA'S RESTAURANT & BAR,2001 LYNDALE AVE S,44.96253,-93.28758,"[200673, 213875, 262026, 262025, 322533]","['2017/08/04', '2018/08/06', '2018/10/12', '2019/08/05', '2019/09/19']","['Routine', 'Routine', 'Follow-Up', 'Routine', 'Follow-Up']","[98, 92, 100, 86, 96]","Fri, Mar 13, 2020 at 02:32 AM"
158,JAZZMAN'S CAFE,2525 CHICAGO AVE,44.95662,-93.26173,"[25820, 188225, 241138, 290961]","['2017/01/17', '2018/01/18', '2019/01/21', '2020/01/24']","['Routine', 'Routine', 'Routine', 'Routine']","[100, 100, 100, 100]","Fri, Mar 13, 2020 at 02:32 AM"
159,JORDEN GROCERY HALAL MEAT & DELI,1507 LOWRY AVE N,45.01295,-93.29849,"[266418, 278072, 278071]","['2018/10/25', '2018/11/27', '2019/10/23']","['Routine', 'Follow-Up', 'Routine']","[92, 100, 92]","Fri, Mar 13, 2020 at 02:32 AM"
160,JUBA CAFETERIA,1001 24TH ST E,44.9589,-93.25981,"[190585, 194366, 198185, 180469, 234988, 238176, 247476, 234987, 281586, 281585]","['2017/03/29', '2017/05/11', '2017/06/26', '2017/12/06', '2018/01/12', '2018/04/07', '2018/05/15', '2018/12/05', '2019/01/14', '2019/11/21']","['Follow-Up', 'Follow-Up', 'Follow-Up', 'Routine', 'Follow-Up', 'Follow-Up', 'Follow-Up', 'Routine', 'Follow-Up', 'Routine']","[68, 88, 100, 82, 98, 94, 100, 90, 100, 92]","Fri, Mar 13, 2020 at 02:32 AM"
161,JUNGLE THEATER,2951 LYNDALE AVE S,44.94886,-93.28767,"[61486, 232339, 311474]","['2017/11/06', '2019/05/18', '2019/06/19']","['Routine', 'Routine', 'Follow-Up']","[98, 90, 100]","Fri, Mar 13, 2020 at 02:32 AM"
162,KAAH RESTAURANT,912 24TH ST E,44.95968,-93.26037,"[61578, 204122, 204121, 254379, 264709, 254378]","['2017/07/12', '2017/08/08', '2018/07/11', '2018/08/14', '2018/09/06', '2019/06/28']","['Routine', 'Follow-Up', 'Routine', 'Follow-Up', 'Follow-Up', 'Routine']","[74, 94, 82, 90, 96, 92]","Fri, Mar 13, 2020 at 02:32 AM"
163,KAFFE KAFEEGA-AUGSBERG COLLEGE,700 21ST AVE S,44.96686,-93.24319,"[277157, 281037]","['2018/12/06', '2019/12/06']","['Routine', 'Routine']","[100, 96]","Fri, Mar 13, 2020 at 02:32 AM"
164,KELBER CATERING,1301 2ND AVE S,44.96871,-93.2746,"[61919, 189513, 241144, 241143, 298302]","['2017/01/24', '2018/01/18', '2018/01/24', '2019/02/11', '2020/02/13']","['Routine', 'Routine', 'Follow-Up', 'Routine', 'Routine']","[92, 100, 100, 100, 88]","Fri, Mar 13, 2020 at 02:32 AM"
165,KEY WEST BISTRO,2803 38TH ST E,44.93393,-93.23175,"[271836, 279908]","['2018/11/19', '2019/11/13']","['Routine', 'Routine']","[96, 98]","Fri, Mar 13, 2020 at 02:32 AM"
166,KHUNNAI THAI CUISINE,2523 NICOLLET AVE,44.95649,-93.27747,"[220525, 232477, 279907]","['2017/11/06', '2018/11/13', '2019/11/18']","['Routine', 'Routine', 'Routine']","[100, 100, 94]","Fri, Mar 13, 2020 at 02:32 AM"
167,KITCHEN SPACE,5750 LYNDALE AVE S,44.89816,-93.28864,"[226409, 234414, 281211]","['2017/11/30', '2018/12/07', '2019/12/17']","['Routine', 'Routine', 'Routine']","[96, 100, 100]","Fri, Mar 13, 2020 at 02:32 AM"
168,KITSU,1540 NEW BRIGHTON BLVD,45.00487,-93.23176,"[13455, 189129, 237276, 287230]","['2017/01/13', '2018/01/03', '2019/01/03', '2020/01/16']","['Routine', 'Routine', 'Routine', 'Routine']","[98, 100, 100, 94]","Fri, Mar 13, 2020 at 02:32 AM"
169,KOLLEGE KOFFEE,1516 LAKE ST E,44.94862,-93.25316,"[329987, 338432]","['2019/11/12', '2019/12/23']","['Routine', 'Follow-Up']","[80, 94]","Fri, Mar 13, 2020 at 02:32 AM"
170,KOWALSKIS LYNDALE MARKETS,5327 LYNDALE AVE S,44.90559,-93.28761,"[13610, 202370, 253325]","['2017/06/22', '2018/06/20', '2019/06/20']","['Routine', 'Routine', 'Routine']","[100, 94, 96]","Fri, Mar 13, 2020 at 02:32 AM"
171,KOWALSKIS UPTOWN MARKET,2440 HENNEPIN AVE,44.95767,-93.29608,"[180522, 241939, 295091, 340513]","['2018/01/09', '2019/01/09', '2020/01/09', '2020/01/23']","['Routine', 'Routine', 'Routine', 'Follow-Up']","[96, 100, 82, 100]","Fri, Mar 13, 2020 at 02:32 AM"
172,KRISPY KRUNCHY CHICKEN,2700 UNIVERSITY AVE SE,44.97185,-93.21849,"[254776, 271496]","['2018/09/11', '2019/09/09']","['Routine', 'Routine']","[96, 92]","Fri, Mar 13, 2020 at 02:32 AM"
173,KULMIYE COFFE,912 24TH ST E,44.95968,-93.26037,"[275178, 281546, 281545, 337969]","['2018/12/11', '2019/01/18', '2019/11/26', '2019/12/23']","['Routine', 'Follow-Up', 'Routine', 'Follow-Up']","[90, 100, 78, 98]","Fri, Mar 13, 2020 at 02:32 AM"
174,LA BELLE CREPE,825 NICOLLET MALL #100,0.0,0.0,"[21043, 226583, 226582, 271958, 271957, 328648]","['2017/09/14', '2017/10/24', '2018/09/13', '2018/10/19', '2019/09/05', '2019/10/03']","['Routine', 'Follow-Up', 'Routine', 'Follow-Up', 'Routine', 'Follow-Up']","[92, 100, 88, 100, 84, 96]","Fri, Mar 13, 2020 at 02:32 AM"
175,LAB THEATER,700 1ST ST N,44.9896,-93.27433,"[21443, 201147]","['2017/06/05', '2019/06/26']","['Routine', 'Routine']","[96, 96]","Fri, Mar 13, 2020 at 02:32 AM"
176,LAKE & IRVING RESTAURANT & BAR,1513 LAKE ST W,44.94813,-93.30156,"[27490, 190091, 190090, 245407, 245406, 305008]","['2017/02/08', '2017/03/22', '2018/02/26', '2018/04/20', '2019/03/19', '2019/05/22']","['Routine', 'Follow-Up', 'Routine', 'Follow-Up', 'Routine', 'Follow-Up']","[88, 96, 80, 96, 90, 98]","Fri, Mar 13, 2020 at 02:32 AM"
177,LAKE STREET DAIRY QUEEN,4400 LAKE ST E,44.94858,-93.20981,"[27676, 208323, 260783]","['2017/07/27', '2018/08/02', '2019/08/15']","['Routine', 'Routine', 'Routine']","[96, 98, 98]","Fri, Mar 13, 2020 at 02:32 AM"
178,LAUNE BREAD,1401 MARSHALL ST NE,45.00177,-93.27055,[315740],['2019/09/25'],['Routine'],[98],"Fri, Mar 13, 2020 at 02:32 AM"
179,LE MERIDIEN CHAMBERS MINNEAPOLIS,901 HENNEPIN AVE,44.97606,-93.27687,"[27948, 223063, 267785, 272288, 267784]","['2017/08/24', '2018/08/14', '2018/09/17', '2018/10/31', '2019/08/21']","['Routine', 'Routine', 'Follow-Up', 'Follow-Up', 'Routine']","[100, 94, 94, 100, 98]","Fri, Mar 13, 2020 at 02:32 AM"
180,LOEWS HOTEL - 5TH FLR KITCHEN,601 1ST AVE N,44.97879,-93.27485,"[40291, 190121, 237048, 237047, 286495, 286494]","['2017/02/02', '2018/01/02', '2018/04/17', '2018/12/26', '2019/01/18', '2019/12/20']","['Routine', 'Routine', 'Follow-Up', 'Routine', 'Follow-Up', 'Routine']","[96, 96, 100, 84, 94, 100]","Fri, Mar 13, 2020 at 02:32 AM"
181,LOEWS MINNEAPOLIS HOTEL,601 1ST AVE N,44.97879,-93.27485,"[40300, 190768, 193217, 190767, 237045, 237044, 286480, 286479, 339726]","['2017/02/02', '2017/03/17', '2017/04/24', '2018/01/02', '2018/04/17', '2018/12/26', '2019/01/18', '2019/12/20', '2020/01/22']","['Routine', 'Follow-Up', 'Follow-Up', 'Routine', 'Follow-Up', 'Routine', 'Follow-Up', 'Routine', 'Follow-Up']","[84, 94, 100, 92, 100, 90, 100, 78, 100]","Fri, Mar 13, 2020 at 02:32 AM"
182,LONGFELLOW MARKET,3815 LAKE ST E,44.94808,-93.21698,"[40360, 231410, 279883]","['2017/10/25', '2018/11/19', '2019/11/19']","['Routine', 'Routine', 'Routine']","[92, 96, 98]","Fri, Mar 13, 2020 at 02:32 AM"
183,LOS OCAMPO EXPRESS,40 7TH ST S #203,44.978,-93.273,"[254519, 272553]","['2018/09/24', '2019/09/26']","['Routine', 'Routine']","[98, 98]","Fri, Mar 13, 2020 at 02:32 AM"
184,LOWRY GROCERY DELI,628 LOWRY AVE N,45.01331,-93.28772,[236816],['2019/01/17'],['Routine'],[96],"Fri, Mar 13, 2020 at 02:32 AM"
185,LUCY BAR & RESTAURANT LIMITED LIABILITY COMPANY,3915 HIAWATHA AVE,44.93168,-93.22639,"[228096, 275486, 275485, 332891]","['2018/10/11', '2018/12/07', '2019/10/11', '2019/12/06']","['Routine', 'Follow-Up', 'Routine', 'Follow-Up']","[82, 96, 80, 98]","Fri, Mar 13, 2020 at 02:32 AM"
186,LUMBER EXCHANGE EVENT CENTER,10 5TH ST S #300,44.97969,-93.27171,"[276931, 281027, 338734]","['2018/12/05', '2019/12/06', '2020/01/14']","['Routine', 'Routine', 'Follow-Up']","[96, 90, 98]","Fri, Mar 13, 2020 at 02:32 AM"
187,LUNDS,25 UNIVERSITY AVE SE,44.98758,-93.25499,"[47768, 232528, 279755, 279754]","['2017/11/01', '2018/11/15', '2019/01/04', '2019/11/15']","['Routine', 'Routine', 'Follow-Up', 'Routine']","[96, 92, 100, 96]","Fri, Mar 13, 2020 at 02:32 AM"
188,LUNDS HENNEPIN,1201 HENNEPIN AVE,44.97439,-93.28037,"[47867, 227843, 227842, 262830, 262829]","['2017/09/26', '2017/11/06', '2018/08/03', '2018/09/06', '2019/08/01']","['Routine', 'Follow-Up', 'Routine', 'Follow-Up', 'Routine']","[96, 100, 86, 100, 98]","Fri, Mar 13, 2020 at 02:32 AM"
189,LUTHERAN SOCIAL SERVICES,2400 PARK AVE #A,44.95847,-93.2658,"[47901, 195095, 245602]","['2017/04/03', '2018/03/07', '2019/03/14']","['Routine', 'Routine', 'Routine']","[100, 100, 100]","Fri, Mar 13, 2020 at 02:32 AM"
190,M & M COFFEE,912 24TH ST E #M 110,44.95968,-93.26037,"[316330, 324695, 329261]","['2019/08/15', '2019/09/06', '2019/10/09']","['Routine', 'Follow-Up', 'Follow-Up']","[70, 74, 94]","Fri, Mar 13, 2020 at 02:32 AM"
191,MADINA COFFEE,2833 13TH AVE S #A136,44.95078,-93.25592,"[48201, 232055, 278660]","['2017/10/20', '2018/10/31', '2019/10/18']","['Routine', 'Routine', 'Routine']","[96, 100, 98]","Fri, Mar 13, 2020 at 02:32 AM"
192,MAINSTREET LODGE,909 MAIN ST NE,44.99749,-93.2655,"[48286, 191217, 245583]","['2017/02/24', '2018/03/07', '2019/03/18']","['Routine', 'Routine', 'Routine']","[100, 100, 100]","Fri, Mar 13, 2020 at 02:32 AM"
193,MAMA SAFIA KITCHEN,2700 LAKE ST E,44.94869,-93.23271,"[280899, 297649, 308076, 297648, 354045]","['2019/02/05', '2019/04/11', '2019/06/14', '2020/02/05', '2020/02/18']","['Routine', 'Follow-Up', 'Follow-Up', 'Routine', 'Follow-Up']","[86, 92, 100, 84, 100]","Fri, Mar 13, 2020 at 02:32 AM"
194,MARCHE LLC,2900 LYNDALE AVE S,44.94958,-93.28901,"[55184, 228305, 217480, 271647]","['2017/08/16', '2017/10/05', '2018/09/11', '2019/09/11']","['Routine', 'Follow-Up', 'Routine', 'Routine']","[92, 100, 100, 98]","Fri, Mar 13, 2020 at 02:32 AM"
195,MARKET BAR-B-QUE,220 LOWRY AVE NE,45.013,-93.26509,"[286813, 303400]","['2019/03/06', '2020/03/04']","['Routine', 'Routine']","[96, 98]","Fri, Mar 13, 2020 at 02:32 AM"
196,MARQUETTE HOTEL - JACQUES,710 MARQUETTE AVE,44.9763,-93.27148,"[275072, 275074, 275073]","['2017/10/05', '2017/11/06', '2018/10/03']","['Routine', 'Follow-Up', 'Routine']","[86, 100, 100]","Fri, Mar 13, 2020 at 02:32 AM"
197,MARUSO,715 HENNEPIN AVE,44.96612,-93.2892,"[124304, 124518, 241619, 295093, 295092]","['2017/01/12', '2018/01/10', '2019/02/03', '2019/04/23', '2020/02/05']","['Follow-Up', 'Routine', 'Routine', 'Follow-Up', 'Routine']","[100, 96, 94, 100, 92]","Fri, Mar 13, 2020 at 02:32 AM"
198,MEDUSA NIGHT CLUB & LOUNGE,400 1ST AVE N,44.98929,-93.25498,[302854],['2019/05/24'],['Routine'],[96],"Fri, Mar 13, 2020 at 02:32 AM"
199,MERCADO CENTRAL,1515 LAKE ST E,44.94793,-93.25289,"[13788, 201150, 252399, 313356]","['2017/05/30', '2018/05/17', '2019/05/23', '2019/07/15']","['Routine', 'Routine', 'Routine', 'Follow-Up']","[100, 100, 78, 100]","Fri, Mar 13, 2020 at 02:32 AM"
200,METRO MEALS ON WHEELS,3025 4TH AVE S,44.94751,-93.26993,"[203692, 228657, 228656, 274429, 274428]","['2017/10/10', '2017/11/09', '2018/10/04', '2018/11/06', '2019/10/02']","['Routine', 'Follow-Up', 'Routine', 'Follow-Up', 'Routine']","[96, 100, 90, 100, 96]","Fri, Mar 13, 2020 at 02:32 AM"
201,MIDTOWN BIKE CENTER,2834 10TH AVE S,44.95048,-93.26081,"[14162, 199921]","['2017/05/23', '2018/11/02']","['Routine', 'Routine']","[98, 100]","Fri, Mar 13, 2020 at 02:32 AM"
202,MILANO COFFEE AND WIRELESS,1810 RIVERSIDE AVE,44.97022,-93.2467,[315195],['2019/12/04'],['Routine'],[92],"Fri, Mar 13, 2020 at 02:32 AM"
203,MILL CITY MUSEUM,704 2ND ST S,44.97899,-93.25686,"[14337, 228724, 274438]","['2017/09/27', '2018/09/26', '2019/09/26']","['Routine', 'Routine', 'Routine']","[100, 100, 96]","Fri, Mar 13, 2020 at 02:32 AM"
204,MINIKAHDA CLUB,3205 EXCELSIOR BLVD,44.94357,-93.32717,"[14460, 227613, 217827, 266480, 274222, 266479]","['2017/08/08', '2017/10/05', '2018/08/15', '2018/09/25', '2018/11/14', '2019/09/02']","['Routine', 'Follow-Up', 'Routine', 'Follow-Up', 'Follow-Up', 'Routine']","[82, 100, 72, 88, 100, 92]","Fri, Mar 13, 2020 at 02:32 AM"
205,MINNEAPOLIS CLUB,729 2ND AVE S,44.97489,-93.26962,"[124340, 235425, 285817]","['2017/12/18', '2018/12/17', '2019/12/16']","['Routine', 'Routine', 'Routine']","[100, 96, 94]","Fri, Mar 13, 2020 at 02:32 AM"
206,MINNEAPOLIS MARRIOTT CITY CENTER,30 7TH ST S,44.97761,-93.27306,"[246840, 251509, 254739, 251508]","['2018/05/25', '2018/07/16', '2018/09/05', '2019/05/23']","['Routine', 'Follow-Up', 'Follow-Up', 'Routine']","[86, 84, 92, 92]","Fri, Mar 13, 2020 at 02:32 AM"
207,MINNEHAHA UNITED METHODIST CHURCH,3701 50TH ST E,44.91221,-93.21865,"[21697, 215313, 270015]","['2017/08/10', '2018/09/04', '2019/08/16']","['Routine', 'Routine', 'Routine']","[96, 94, 100]","Fri, Mar 13, 2020 at 02:32 AM"
208,MINNESOTA SPORTS FACILITIES AUTHORITY,401 CHICAGO AVE,44.97347,-93.25761,"[189582, 276614, 276618, 276619]","['2017/09/11', '2017/11/19', '2018/10/14', '2019/10/24']","['Routine', 'Routine', 'Routine', 'Routine']","[100, 100, 100, 100]","Fri, Mar 13, 2020 at 02:32 AM"
209,MIXED BLOOD THEATRE COMPANY,1501 4TH ST S,44.97077,-93.24937,"[279759, 290919]","['2019/01/18', '2020/01/10']","['Routine', 'Routine']","[100, 100]","Fri, Mar 13, 2020 at 02:32 AM"
210,MNBBQCO,816 LOWRY AVE NE,45.01302,-93.25015,"[309682, 356213]","['2020/02/13', '2020/02/28']","['Routine', 'Follow-Up']","[90, 98]","Fri, Mar 13, 2020 at 02:32 AM"
211,MONARCH MINNEAPOLIS,322 1ST AVE N,44.98176,-93.27239,"[193417, 201476, 253095]","['2017/06/14', '2018/06/20', '2019/06/26']","['Routine', 'Routine', 'Routine']","[98, 100, 100]","Fri, Mar 13, 2020 at 02:32 AM"
212,MOXY MINNEAPOLIS UPTOWN,1121 LAKE ST W,44.94819,-93.2941,"[236603, 248137, 252090, 254736, 248136]","['2018/04/11', '2018/06/01', '2018/07/10', '2018/09/07', '2019/04/23']","['Routine', 'Follow-Up', 'Follow-Up', 'Follow-Up', 'Routine']","[78, 90, 94, 100, 96]","Fri, Mar 13, 2020 at 02:32 AM"
213,MUSE EVENT CENTER,107 3RD AVE N,44.98573,-93.2704,"[34991, 204428, 255461, 255460]","['2017/07/14', '2018/07/18', '2018/09/07', '2019/07/24']","['Routine', 'Routine', 'Follow-Up', 'Routine']","[96, 96, 100, 100]","Fri, Mar 13, 2020 at 02:32 AM"
214,MY BURGER,3100 EXCELSIOR BLVD,44.94503,-93.32364,"[35031, 226999, 226998, 272236]","['2017/09/25', '2017/11/02', '2018/09/18', '2019/09/18']","['Routine', 'Follow-Up', 'Routine', 'Routine']","[96, 100, 94, 100]","Fri, Mar 13, 2020 at 02:32 AM"
215,NAWABI HYDERABAD HOUSE,250 2ND AVE S #240,44.98025,-93.26627,"[276467, 285826, 290984]","['2018/12/18', '2019/01/08', '2019/02/25']","['Routine', 'Follow-Up', 'Follow-Up']","[88, 92, 100]","Fri, Mar 13, 2020 at 02:32 AM"
216,NEVERIA LA MICHOACANA,417 LAKE ST E,44.94779,-93.26942,"[251128, 252600, 252599, 313724]","['2018/06/12', '2018/07/09', '2019/06/12', '2019/08/06']","['Routine', 'Follow-Up', 'Routine', 'Follow-Up']","[88, 96, 84, 96]","Fri, Mar 13, 2020 at 02:32 AM"
217,NEW-MART,331 2ND AVE S #200,44.97862,-93.26647,"[48357, 200718]","['2017/06/05', '2018/11/30']","['Routine', 'Routine']","[98, 100]","Fri, Mar 13, 2020 at 02:32 AM"
218,NICOLLET ISLAND INN,95 MERRIAM ST,44.98597,-93.26082,"[124064, 48508, 229363, 235477, 243182, 247867, 229362, 276850, 276849, 335053, 338566]","['2017/02/01', '2017/10/02', '2017/12/05', '2018/02/19', '2018/04/13', '2018/06/01', '2018/10/17', '2018/12/06', '2019/10/17', '2019/12/05', '2020/01/14']","['Follow-Up', 'Routine', 'Follow-Up', 'Follow-Up', 'Follow-Up', 'Follow-Up', 'Routine', 'Follow-Up', 'Routine', 'Follow-Up', 'Follow-Up']","[100, 76, 88, 90, 92, 96, 88, 98, 82, 86, 92]","Fri, Mar 13, 2020 at 02:32 AM"
219,NILE RIVER CAFE,2833 13TH AVE S #134,44.95078,-93.25592,"[48587, 219085, 270732]","['2017/08/19', '2018/09/06', '2019/09/03']","['Routine', 'Routine', 'Routine']","[100, 100, 96]","Fri, Mar 13, 2020 at 02:32 AM"
220,NOKOMIS SQUARE COOPERATIVE,5015 35TH AVE S,44.91168,-93.22093,"[41401, 203337, 203336, 255514]","['2017/07/05', '2017/09/05', '2018/07/19', '2019/06/24']","['Routine', 'Follow-Up', 'Routine', 'Routine']","[90, 100, 96, 100]","Fri, Mar 13, 2020 at 02:32 AM"
221,NORTH CENTRAL UNIVERSITY,910 ELLIOT AVE,44.96935,-93.26149,"[48841, 191092, 245924]","['2017/02/22', '2018/02/28', '2019/03/05']","['Routine', 'Routine', 'Routine']","[92, 100, 100]","Fri, Mar 13, 2020 at 02:32 AM"
222,NORTH SIDE GRILL AND BBQ,2118 WEST BROADWAY,45.0038,-93.30754,"[266416, 277250, 277249, 335155, 338384]","['2018/10/25', '2018/11/27', '2019/10/23', '2019/12/05', '2020/01/16']","['Routine', 'Follow-Up', 'Routine', 'Follow-Up', 'Follow-Up']","[96, 100, 84, 86, 86]","Fri, Mar 13, 2020 at 02:32 AM"
223,NORTHEAST BP,2636 UNIVERSITY AVE NE,45.01644,-93.26359,"[43766, 242976, 242975]","['2018/02/09', '2018/03/09', '2020/02/14']","['Routine', 'Follow-Up', 'Routine']","[86, 100, 96]","Fri, Mar 13, 2020 at 02:32 AM"
224,NORWAY HOUSE,913 FRANKLIN AVE E,44.96243,-93.26026,"[276703, 285136]","['2018/12/18', '2019/12/18']","['Routine', 'Routine']","[100, 100]","Fri, Mar 13, 2020 at 02:32 AM"
225,OAK GROVE CARE CENTER,1822 PARK AVE,44.96429,-93.26559,"[56505, 196709, 247856]","['2017/04/18', '2018/04/11', '2019/04/08']","['Routine', 'Routine', 'Routine']","[100, 98, 100]","Fri, Mar 13, 2020 at 02:32 AM"
226,ORCHESTRA HALL,1111 NICOLLET MALL,44.97226,-93.27562,"[63315, 246673]","['2018/03/15', '2019/09/19']","['Routine', 'Routine']","[100, 100]","Fri, Mar 13, 2020 at 02:32 AM"
227,ORPHEUM THEATRE,910 HENNEPIN AVE,44.97672,-93.27792,"[63412, 235470]","['2017/12/01', '2019/05/29']","['Routine', 'Routine']","[96, 90]","Fri, Mar 13, 2020 at 02:32 AM"
228,OUR LADY OF PEACE SCHOOL,5435 11TH AVE S,44.90434,-93.25824,"[14553, 193371, 227075, 246680, 272075, 305068]","['2017/03/23', '2017/09/26', '2018/03/14', '2018/09/11', '2019/03/25', '2019/09/26']","['Routine', 'Routine', 'Routine', 'Routine', 'Routine', 'Routine']","[100, 100, 100, 100, 98, 100]","Fri, Mar 13, 2020 at 02:32 AM"
229,P. S. MEAT AND GAME,510 GROVELAND AVE,44.96739,-93.28712,[286885],['2019/03/12'],['Routine'],[94],"Fri, Mar 13, 2020 at 02:32 AM"
230,PANADERIA EL SABOR ECUATORIANO,339 LAKE ST E,44.94812,-93.2712,"[14811, 197175, 251306]","['2017/04/28', '2018/05/23', '2019/05/10']","['Routine', 'Routine', 'Routine']","[96, 96, 100]","Fri, Mar 13, 2020 at 02:32 AM"
231,PANADERIA Y RESTAURANTE NATALIA,1817 LAKE ST E,44.94814,-93.24773,"[330882, 339031, 340256]","['2019/11/21', '2020/01/03', '2020/01/28']","['Routine', 'Follow-Up', 'Follow-Up']","[74, 88, 94]","Fri, Mar 13, 2020 at 02:32 AM"
232,PANERA BREAD,810 27TH ST E,44.95458,-93.26133,"[243848, 251281]","['2018/05/23', '2019/05/10']","['Routine', 'Routine']","[96, 100]","Fri, Mar 13, 2020 at 02:32 AM"
233,PANTAGES THEATRE,710 HENNEPIN AVE #TRACT TRAC,44.97801,-93.27548,"[14979, 196901]","['2017/04/26', '2018/11/06']","['Routine', 'Routine']","[96, 92]","Fri, Mar 13, 2020 at 02:32 AM"
234,PARK CAFE G C,300 6TH ST S,44.97632,-93.26625,"[22065, 203471, 254104, 254103]","['2017/07/06', '2018/07/03', '2018/08/06', '2019/07/15']","['Routine', 'Routine', 'Follow-Up', 'Routine']","[96, 82, 100, 94]","Fri, Mar 13, 2020 at 02:32 AM"
235,PASTELERIA EL DURANGUENSE,2418 CENTRAL AVE NE,45.01281,-93.24788,"[22214, 189820, 237003, 237002, 286183, 296768, 303692]","['2017/02/01', '2017/12/18', '2018/02/06', '2018/12/24', '2019/02/06', '2019/03/11', '2019/04/23']","['Routine', 'Routine', 'Follow-Up', 'Routine', 'Follow-Up', 'Follow-Up', 'Follow-Up']","[98, 78, 100, 96, 94, 94, 96]","Fri, Mar 13, 2020 at 02:32 AM"
236,PATIENT ROOM SERVICE KITCHEN,800 28TH ST E,44.95458,-93.26133,"[51366, 194744, 197723, 194743, 247532, 249230, 247531, 308180]","['2017/04/05', '2017/05/04', '2017/06/01', '2018/04/09', '2018/05/08', '2018/06/06', '2019/04/11', '2019/05/08']","['Routine', 'Follow-Up', 'Follow-Up', 'Routine', 'Follow-Up', 'Follow-Up', 'Routine', 'Follow-Up']","[88, 94, 100, 96, 96, 100, 92, 100]","Fri, Mar 13, 2020 at 02:32 AM"
237,PAUL'S BOBBY & STEVE'S AUTO WORLD,5801 NICOLLET AVE,44.89761,-93.27779,"[22343, 259481, 262436]","['2017/08/10', '2018/07/31', '2019/07/31']","['Routine', 'Routine', 'Routine']","[98, 100, 98]","Fri, Mar 13, 2020 at 02:32 AM"
238,PENNWOOD MARKET,2125 GLENWOOD AVE,44.98046,-93.30805,"[22536, 216042]","['2017/08/01', '2019/02/03']","['Routine', 'Routine']","[94, 94]","Fri, Mar 13, 2020 at 02:32 AM"
239,PHOENIX THEATER AND TWIG CAFE,2605 HENNEPIN AVE,44.95524,-93.29655,"[23682, 235476]","['2017/12/15', '2019/06/07']","['Routine', 'Routine']","[100, 100]","Fri, Mar 13, 2020 at 02:32 AM"
240,PITTA KING LLC,2328 FRANKLIN AVE E,44.96292,-93.23812,"[339072, 354735, 358320]","['2020/02/10', '2020/02/24', '2020/03/11']","['Routine', 'Follow-Up', 'Follow-Up']","[72, 88, 100]","Fri, Mar 13, 2020 at 02:32 AM"
241,PJ'S MARKET COFFEE,312 EAST LYNDALE AVE N,44.97996,-93.28606,"[29119, 211892]","['2017/07/25', '2018/07/29']","['Routine', 'Routine']","[100, 100]","Fri, Mar 13, 2020 at 02:32 AM"
242,POSITIVE VIBES NUTRITION,1316 4TH ST SE,44.98044,-93.23657,[337595],['2020/02/10'],['Routine'],[94],"Fri, Mar 13, 2020 at 02:32 AM"
243,PROFILE EVENT CENTER,2630 UNIVERSITY AVE SE,44.972,-93.21949,"[181011, 236474]","['2017/12/21', '2019/01/10']","['Routine', 'Routine']","[100, 100]","Fri, Mar 13, 2020 at 02:32 AM"
244,PUERTO VERACRUZANO,417 LAKE ST E #54,44.94779,-93.26942,"[35514, 201596, 201595, 252860, 252859, 313740]","['2017/06/14', '2017/07/13', '2018/06/14', '2018/07/12', '2019/06/13', '2019/08/06']","['Routine', 'Follow-Up', 'Routine', 'Follow-Up', 'Routine', 'Follow-Up']","[96, 94, 86, 96, 70, 92]","Fri, Mar 13, 2020 at 02:32 AM"
245,PUPSUERIA EL RINCON SALVADORENO,1515 LAKE ST E,44.94793,-93.25289,"[62802, 200759, 200758, 252432]","['2017/05/30', '2017/07/08', '2018/05/23', '2019/05/23']","['Routine', 'Follow-Up', 'Routine', 'Routine']","[96, 100, 96, 94]","Fri, Mar 13, 2020 at 02:32 AM"
246,QURUXLOW DELI,2910 PILLSBURY AVE #135B,44.94969,-93.2821,"[203728, 243128, 299744, 299743]","['2018/02/15', '2019/02/14', '2019/04/04', '2020/02/20']","['Routine', 'Routine', 'Follow-Up', 'Routine']","[94, 88, 100, 96]","Fri, Mar 13, 2020 at 02:32 AM"
247,RADISSON BLU MINNEAPOLIS DOWNTOWN,35 7TH ST S,44.97702,-93.27352,"[41756, 204135, 254107, 254106, 313569]","['2017/07/12', '2018/07/02', '2018/08/21', '2019/06/13', '2019/07/22']","['Routine', 'Routine', 'Follow-Up', 'Routine', 'Follow-Up']","[96, 66, 92, 70, 96]","Fri, Mar 13, 2020 at 02:32 AM"
248,RAJO CAFE,912 24TH ST E #B224,44.95968,-93.26037,[314085],['2019/08/16'],['Routine'],[92],"Fri, Mar 13, 2020 at 02:32 AM"
249,READY MEATS,3550 JOHNSON ST NE,45.03315,-93.2375,"[180721, 234156, 285892]","['2017/11/21', '2018/11/21', '2019/11/19']","['Routine', 'Routine', 'Routine']","[98, 100, 100]","Fri, Mar 13, 2020 at 02:32 AM"
250,RENAISSANCE BY MARRIOTT,225 3RD AVE S,44.97992,-93.26227,"[49031, 229626, 229625, 277182, 277181]","['2017/10/13', '2018/01/04', '2018/10/24', '2018/11/30', '2019/10/25']","['Routine', 'Follow-Up', 'Routine', 'Follow-Up', 'Routine']","[92, 100, 88, 100, 94]","Fri, Mar 13, 2020 at 02:32 AM"
251,RESIDENCE INN BY MARRIOTT (INSP W / L180-50058),225 3RD AVE S,44.97992,-93.26227,"[180246, 229613, 277175]","['2017/10/13', '2018/10/24', '2018/11/30']","['Routine', 'Routine', 'Follow-Up']","[94, 94, 100]","Fri, Mar 13, 2020 at 02:32 AM"
252,RITZ THEATER,345 13TH AVE NE,45.00121,-93.26226,"[218660, 231467]","['2017/10/30', '2019/04/29']","['Routine', 'Routine']","[96, 100]","Fri, Mar 13, 2020 at 02:32 AM"
253,RIVER VILLAGE EAST,2919 RANDOLPH ST NE #100,45.02104,-93.27089,"[49415, 202886, 253304]","['2017/06/21', '2018/03/29', '2019/03/15']","['Routine', 'Routine', 'Routine']","[100, 100, 96]","Fri, Mar 13, 2020 at 02:32 AM"
254,ROCK BOTTOM BREWERY,800 LASALLE AVE,44.97641,-93.27513,"[56676, 230570, 234168, 237416, 230569, 276296, 276295, 332881]","['2017/10/17', '2017/11/29', '2018/01/10', '2018/02/20', '2018/10/15', '2018/12/17', '2019/10/09', '2019/11/18']","['Routine', 'Follow-Up', 'Follow-Up', 'Follow-Up', 'Routine', 'Follow-Up', 'Routine', 'Follow-Up']","[78, 86, 88, 96, 92, 96, 84, 100]","Fri, Mar 13, 2020 at 02:32 AM"
255,ROOTS FOR THE HOME TEAM,353 5TH ST N,44.98134,-93.27855,[254877],['2018/09/29'],['Routine'],[100],"Fri, Mar 13, 2020 at 02:32 AM"
256,ROYAL COFFEE,2601 BLOOMINGTON AVE,44.9551,-93.25205,"[56860, 236914]","['2017/12/05', '2019/06/06']","['Routine', 'Routine']","[100, 92]","Fri, Mar 13, 2020 at 02:32 AM"
257,RRS LLC / CHELSEA'S CAFE,3701 NORTH WAYZATA BLVD,44.96794,-93.32695,[329901],['2020/01/15'],['Routine'],[92],"Fri, Mar 13, 2020 at 02:32 AM"
258,S & S CATERING INC,307 LAKE ST E,44.94813,-93.27246,"[326155, 335784, 338204]","['2019/10/31', '2019/12/03', '2019/12/23']","['Routine', 'Follow-Up', 'Follow-Up']","[76, 78, 98]","Fri, Mar 13, 2020 at 02:32 AM"
259,SAFARI COFFEE,2910 PILLSBURY AVE,44.94969,-93.2821,"[57185, 189437, 252876, 252875, 314176]","['2017/01/26', '2018/06/18', '2018/08/27', '2019/06/19', '2019/08/13']","['Routine', 'Routine', 'Follow-Up', 'Routine', 'Follow-Up']","[96, 92, 96, 84, 98]","Fri, Mar 13, 2020 at 02:32 AM"
260,SAHAN RESTAURANT,912 24TH ST E,44.95968,-93.26037,"[124530, 197078, 63444, 204039, 214898, 204038, 254364, 254363]","['2017/04/27', '2017/05/23', '2017/07/12', '2017/08/10', '2017/09/11', '2018/07/11', '2018/08/14', '2019/06/28']","['Follow-Up', 'Follow-Up', 'Routine', 'Follow-Up', 'Follow-Up', 'Routine', 'Follow-Up', 'Routine']","[90, 94, 70, 76, 90, 90, 94, 92]","Fri, Mar 13, 2020 at 02:32 AM"
261,SAINT MARY'S UNIVERSITY OF MINNESOTA,2540 PARK AVE,44.95603,-93.2658,"[230765, 234249, 281074]","['2017/11/29', '2018/12/07', '2019/11/20']","['Routine', 'Routine', 'Routine']","[100, 100, 98]","Fri, Mar 13, 2020 at 02:32 AM"
262,SAMS MARKET,1101 35TH ST W,44.93931,-93.29365,"[246113, 252618, 252617]","['2018/06/01', '2018/07/13', '2019/12/02']","['Routine', 'Follow-Up', 'Routine']","[70, 100, 100]","Fri, Mar 13, 2020 at 02:32 AM"
263,SEAFOOD 2 GO,2930 CHICAGO AVE,44.94911,-93.26306,[221035],['2017/10/16'],['Routine'],[98],"Fri, Mar 13, 2020 at 02:32 AM"
264,SELECT COMFORT,1001 3RD AVE S,44.97146,-93.27028,"[242905, 248588, 248587]","['2018/04/19', '2018/05/09', '2019/03/13']","['Routine', 'Follow-Up', 'Routine']","[92, 92, 96]","Fri, Mar 13, 2020 at 02:32 AM"
265,SEVEN CORNERS COFFEE,1851 WASHINGTON AVE S,44.97281,-93.24644,"[335847, 340185]","['2020/01/02', '2020/01/15']","['Routine', 'Follow-Up']","[88, 98]","Fri, Mar 13, 2020 at 02:32 AM"
266,SEWARD COMMUNITY CO-OP,317 38TH ST E,44.93395,-93.28407,"[181462, 252273, 252272]","['2018/05/23', '2018/08/29', '2019/05/28']","['Routine', 'Follow-Up', 'Routine']","[80, 100, 96]","Fri, Mar 13, 2020 at 02:32 AM"
267,SHEGA GROCERY,2111 FRANKLIN AVE E,44.96242,-93.24173,"[22825, 22826, 226884, 226883, 273442, 277279, 273441, 331108]","['2017/02/28', '2017/09/26', '2017/11/06', '2018/09/26', '2018/10/26', '2018/12/06', '2019/09/30', '2019/11/14']","['Follow-Up', 'Routine', 'Follow-Up', 'Routine', 'Follow-Up', 'Follow-Up', 'Routine', 'Follow-Up']","[100, 92, 98, 90, 94, 100, 82, 96]","Fri, Mar 13, 2020 at 02:32 AM"
268,SHUANG HUR BBQ,2710 NICOLLET AVE,44.95345,-93.27838,"[23006, 218587, 265053]","['2017/08/15', '2018/08/15', '2019/08/13']","['Routine', 'Routine', 'Routine']","[100, 100, 100]","Fri, Mar 13, 2020 at 02:32 AM"
269,SIGNE BURCKHARDT MANOR,2533 1ST AVE S,44.95596,-93.27621,"[23098, 188226, 237492, 237491, 286973]","['2017/01/18', '2018/01/09', '2018/01/22', '2019/01/07', '2020/01/08']","['Routine', 'Routine', 'Follow-Up', 'Routine', 'Routine']","[100, 92, 100, 98, 98]","Fri, Mar 13, 2020 at 02:32 AM"
270,SISTERS GRILL,2910 PILLSBURY AVE #135B,44.94969,-93.2821,"[295137, 280895]","['2018/03/12', '2019/02/01']","['Follow-Up', 'Routine']","[98, 94]","Fri, Mar 13, 2020 at 02:32 AM"
271,SKYWAY BISTRO,800 28TH ST E,44.95458,-93.26133,"[51383, 191532, 243721, 302467]","['2017/02/28', '2018/02/26', '2019/03/01', '2020/02/27']","['Routine', 'Routine', 'Routine', 'Routine']","[94, 94, 92, 82]","Fri, Mar 13, 2020 at 02:32 AM"
272,SNACK BAR,800 WASHINGTON AVE N #101,44.98953,-93.27869,[330776],['2019/11/22'],['Routine'],[80],"Fri, Mar 13, 2020 at 02:32 AM"
273,SNOW FOX SUSHI,1104 LAGOON AVE,44.94957,-93.29379,[302855],['2019/05/08'],['Routine'],[100],"Fri, Mar 13, 2020 at 02:32 AM"
274,SOBER FISH,2627 FRANKLIN AVE E,44.96255,-93.23353,"[29551, 218531, 267547, 328309]","['2017/08/17', '2018/08/23', '2019/08/23', '2019/10/18']","['Routine', 'Routine', 'Routine', 'Follow-Up']","[92, 94, 86, 94]","Fri, Mar 13, 2020 at 02:32 AM"
275,SORRENTO CUCINA DUE,200 5TH ST S #290,44.97766,-93.26697,"[29818, 192202, 245280, 302588]","['2017/03/08', '2018/03/02', '2019/02/28', '2020/02/21']","['Routine', 'Routine', 'Routine', 'Routine']","[100, 100, 98, 98]","Fri, Mar 13, 2020 at 02:32 AM"
276,SOUTH SIDE FOOD AND DELI,3300 CHICAGO AVE,44.94301,-93.263,"[233024, 236432, 236431, 314475]","['2017/12/19', '2018/01/18', '2019/06/21', '2019/08/16']","['Routine', 'Follow-Up', 'Routine', 'Follow-Up']","[90, 94, 80, 96]","Fri, Mar 13, 2020 at 02:32 AM"
277,SPEARMINT RHINO GENTLEMEN'S CLUB,725 HENNEPIN AVE,44.97743,-93.27489,"[36121, 181536, 257402, 257401]","['2017/01/12', '2018/07/26', '2018/09/27', '2020/02/04']","['Routine', 'Routine', 'Follow-Up', 'Routine']","[100, 94, 98, 100]","Fri, Mar 13, 2020 at 02:32 AM"
278,SPEEDWAY #4232,3453 NICOLLET AVE,44.93985,-93.27752,"[57726, 232594, 234925, 232593]","['2017/10/31', '2017/12/07', '2018/02/07', '2019/05/01']","['Routine', 'Follow-Up', 'Follow-Up', 'Routine']","[88, 92, 100, 100]","Fri, Mar 13, 2020 at 02:32 AM"
279,SPHERE,100 5TH ST S,44.99002,-93.25476,"[233399, 242349, 242348, 291928, 291927]","['2018/02/06', '2018/03/01', '2019/01/24', '2019/02/19', '2020/01/21']","['Routine', 'Follow-Up', 'Routine', 'Follow-Up', 'Routine']","[94, 100, 92, 100, 92]","Fri, Mar 13, 2020 at 02:32 AM"
280,SPYHOUSE COFFEE ROASTERS,907 WASHINGTON AVE N,44.97381,-93.22527,"[124865, 236998, 285905]","['2017/12/21', '2018/12/18', '2019/01/17']","['Routine', 'Routine', 'Follow-Up']","[96, 90, 100]","Fri, Mar 13, 2020 at 02:32 AM"
281,STADIUM BAR & GRILL,207 WASHINGTON AVE N,44.9837,-93.27205,"[36538, 231409, 278451, 335381]","['2017/10/24', '2018/10/30', '2019/10/29', '2019/12/03']","['Routine', 'Routine', 'Routine', 'Follow-Up']","[96, 92, 78, 96]","Fri, Mar 13, 2020 at 02:32 AM"
282,STARS FOOD MARKET,818 LOWRY AVE N,45.01334,-93.29018,"[188593, 233426]","['2017/11/16', '2018/10/17']","['Routine', 'Routine']","[96, 92]","Fri, Mar 13, 2020 at 02:32 AM"
283,SUBWAY,521 WEST BROADWAY,44.99855,-93.28682,"[42907, 233902, 310548]","['2017/11/21', '2019/05/15', '2019/06/25']","['Routine', 'Routine', 'Follow-Up']","[100, 86, 90]","Fri, Mar 13, 2020 at 02:32 AM"
284,SUBWAY,2450 RIVERSIDE AVE,44.96824,-93.23858,[301827],['2019/04/29'],['Routine'],[100],"Fri, Mar 13, 2020 at 02:32 AM"
285,SUNNY'S MARKET & DELI,2207 UNIVERSITY AVE NE,45.01031,-93.26276,"[49784, 228246]","['2017/09/21', '2018/10/09']","['Routine', 'Routine']","[100, 88]","Fri, Mar 13, 2020 at 02:32 AM"
286,SUPER DELI & COFFEE INC,2833 13TH AVE S #118,44.95078,-93.25592,"[50092, 196586, 196585, 243609, 303586, 303585]","['2017/04/19', '2017/05/23', '2018/02/23', '2019/02/13', '2019/03/18', '2020/02/06']","['Routine', 'Follow-Up', 'Routine', 'Routine', 'Follow-Up', 'Routine']","[90, 100, 90, 88, 96, 96]","Fri, Mar 13, 2020 at 02:32 AM"
287,SUPER USA,3801 MINNEHAHA AVE,44.93398,-93.22333,"[57356, 190288, 266288]","['2017/02/08', '2018/08/20', '2020/02/18']","['Routine', 'Routine', 'Routine']","[100, 100, 100]","Fri, Mar 13, 2020 at 02:32 AM"
288,SUPERAMERICA #4021,4320 LAKE ST E,44.94864,-93.21055,"[57379, 194400]","['2017/03/31', '2018/09/27']","['Routine', 'Routine']","[100, 100]","Fri, Mar 13, 2020 at 02:32 AM"
289,SUPERAMERICA #4034,2200 LYNDALE AVE S,44.96059,-93.28845,"[57438, 237404]","['2017/12/12', '2019/06/13']","['Routine', 'Routine']","[96, 98]","Fri, Mar 13, 2020 at 02:32 AM"
290,SUPERAMERICA #4060,801 LAKE ST W,44.94806,-93.28974,"[57491, 232105]","['2017/11/02', '2019/05/01']","['Routine', 'Routine']","[94, 98]","Fri, Mar 13, 2020 at 02:32 AM"
291,SUPERAMERICA #4161,4740 CEDAR AVE S,44.91656,-93.24763,"[57556, 193434, 271684]","['2017/03/23', '2018/09/07', '2020/03/02']","['Routine', 'Routine', 'Routine']","[96, 96, 96]","Fri, Mar 13, 2020 at 02:32 AM"
292,SUPERAMERICA #4166,6000 PORTLAND AVE,44.89406,-93.26819,"[57609, 196866]","['2017/04/24', '2018/10/26']","['Routine', 'Routine']","[100, 100]","Fri, Mar 13, 2020 at 02:32 AM"
293,SUPERAMERICA #4173,3357 UNIVERSITY AVE SE,44.96872,-93.2087,"[57665, 197242]","['2017/04/28', '2018/11/01']","['Routine', 'Routine']","[100, 96]","Fri, Mar 13, 2020 at 02:32 AM"
294,SUPERAMERICA #4378,2445 BLOOMINGTON AVE,44.95758,-93.25203,"[57761, 247180]","['2018/04/02', '2019/10/07']","['Routine', 'Routine']","[98, 100]","Fri, Mar 13, 2020 at 02:32 AM"
295,SUSHI AVENUE,2850 26TH AVE S,44.95151,-93.23566,"[57969, 191587, 246975]","['2017/02/28', '2018/03/27', '2018/05/08']","['Routine', 'Routine', 'Follow-Up']","[100, 90, 96]","Fri, Mar 13, 2020 at 02:32 AM"
296,TACOS LUPITA,5748 34TH AVE S,44.89848,-93.22333,"[247384, 252936]","['2018/06/12', '2019/06/14']","['Routine', 'Routine']","[100, 96]","Fri, Mar 13, 2020 at 02:32 AM"
297,TANGLETOWNS WISE ACRE EATERY,5401 NICOLLET AVE,44.90495,-93.27777,"[64346, 201195, 201194, 252944, 260296, 252943]","['2017/06/08', '2017/08/02', '2018/06/14', '2018/07/31', '2018/08/30', '2019/06/14']","['Routine', 'Follow-Up', 'Routine', 'Follow-Up', 'Follow-Up', 'Routine']","[86, 94, 84, 88, 98, 98]","Fri, Mar 13, 2020 at 02:32 AM"
298,TAQUERIA EL CHILO #3,311 LAKE ST E,44.94819,-93.28341,"[64425, 200670, 200669, 252132, 252131, 313493]","['2017/06/01', '2017/06/29', '2018/06/05', '2018/07/05', '2019/06/10', '2019/07/31']","['Routine', 'Follow-Up', 'Routine', 'Follow-Up', 'Routine', 'Follow-Up']","[88, 100, 88, 98, 88, 92]","Fri, Mar 13, 2020 at 02:32 AM"
299,TARGET CAFE,33 6TH ST S,44.978,-93.273,"[180360, 190465, 190464, 245346, 307412]","['2017/02/14', '2017/03/24', '2018/03/01', '2019/03/26', '2019/05/17']","['Routine', 'Follow-Up', 'Routine', 'Routine', 'Follow-Up']","[84, 98, 100, 92, 96]","Fri, Mar 13, 2020 at 02:32 AM"
300,TARGET STORE  #T1095,1650 NEW BRIGHTON BLVD,45.00465,-93.22952,"[17290, 203383]","['2017/07/05', '2019/01/03']","['Routine', 'Routine']","[96, 100]","Fri, Mar 13, 2020 at 02:32 AM"
301,TENMOKU TEA,4155 THOMAS AVE N,45.03108,-93.31396,[260345],['2018/10/17'],['Routine'],[100],"Fri, Mar 13, 2020 at 02:32 AM"
302,THE BACHELOR FARMER RESTAURANT/MARVEL BA,200 1ST ST N,44.98319,-93.2642,"[23701, 224248, 271475, 271474, 329604]","['2017/08/31', '2018/09/07', '2018/10/01', '2019/09/16', '2019/10/08']","['Routine', 'Routine', 'Follow-Up', 'Routine', 'Follow-Up']","[82, 96, 92, 64, 96]","Fri, Mar 13, 2020 at 02:32 AM"
303,THE BLUE DOOR - LONGFELLOW,3448 42ND AVE S,44.9398,-93.21313,"[23733, 253608, 253607, 316494]","['2018/06/27', '2018/08/23', '2019/07/22', '2019/09/19']","['Routine', 'Follow-Up', 'Routine', 'Follow-Up']","[88, 100, 90, 94]","Fri, Mar 13, 2020 at 02:32 AM"
304,THE CHILDRENS THEATRE COMPANY,2400 3RD AVE S,44.95821,-93.27404,"[266414, 276132]","['2018/10/17', '2019/10/18']","['Routine', 'Routine']","[100, 96]","Fri, Mar 13, 2020 at 02:32 AM"
305,THE FIRM A WORKOUT STUDIO,1010 2ND AVE N,44.97952,-93.29331,"[23903, 203614]","['2017/07/03', '2019/01/03']","['Routine', 'Routine']","[100, 100]","Fri, Mar 13, 2020 at 02:32 AM"
306,THE FRESH MARKET,425 7TH ST S,44.97368,-93.26622,"[23921, 203488, 259653]","['2017/07/06', '2018/07/19', '2019/07/18']","['Routine', 'Routine', 'Routine']","[100, 100, 100]","Fri, Mar 13, 2020 at 02:32 AM"
307,THE KOLLEGE KLUB DINKYTOWN,1301 4TH ST SE,44.98119,-93.23673,"[325915, 337214]","['2019/11/12', '2019/12/12']","['Routine', 'Follow-Up']","[82, 90]","Fri, Mar 13, 2020 at 02:32 AM"
308,THE REGIME,2015 LOWRY AVE N,45.013,-93.30525,"[251850, 272645]","['2018/09/21', '2018/12/11']","['Routine', 'Follow-Up']","[86, 96]","Fri, Mar 13, 2020 at 02:32 AM"
309,THEATRE IN THE ROUND,245 CEDAR AVE S,44.97246,-93.24685,"[208983, 231647]","['2017/10/24', '2019/10/24']","['Routine', 'Routine']","[100, 100]","Fri, Mar 13, 2020 at 02:32 AM"
310,TOWNEPLACE SUITES,525 2ND ST N,44.98713,-93.27452,"[37064, 194304, 251435]","['2017/03/30', '2018/05/22', '2019/05/22']","['Routine', 'Routine', 'Routine']","[100, 100, 98]","Fri, Mar 13, 2020 at 02:32 AM"
311,TRIO PLANT-BASED,610 LAKE ST W,44.94863,-93.26683,"[273306, 281260, 339051, 340606]","['2018/12/06', '2019/12/13', '2020/01/10', '2020/01/17']","['Routine', 'Routine', 'Follow-Up', 'Follow-Up']","[100, 72, 80, 96]","Fri, Mar 13, 2020 at 02:32 AM"
312,UKRAINIAN AMERICAN COMMUNITY CENTER,301 MAIN ST NE,44.99068,-93.26121,"[43458, 202024, 252902]","['2017/06/22', '2018/06/18', '2019/06/28']","['Routine', 'Routine', 'Routine']","[100, 92, 100]","Fri, Mar 13, 2020 at 02:32 AM"
313,UNIQUE FOOD SOLUTIONS,2501 STEVENS AVE,44.95653,-93.27428,"[43586, 224219, 269996]","['2017/08/31', '2018/08/30', '2019/08/26']","['Routine', 'Routine', 'Routine']","[96, 98, 94]","Fri, Mar 13, 2020 at 02:32 AM"
314,"UNIVERSITY OF MN MEDICAL CTR, FAIRVIEW",2414 7TH ST S,44.9675,-93.23691,"[43739, 232263, 232262, 277002, 277001]","['2017/10/24', '2017/11/27', '2018/10/23', '2018/12/11', '2019/10/25']","['Routine', 'Follow-Up', 'Routine', 'Follow-Up', 'Routine']","[92, 96, 90, 100, 100]","Fri, Mar 13, 2020 at 02:32 AM"
315,UP-DOWN,3012 LYNDALE AVE S,45.01113,-93.28755,"[50272, 206454, 206453, 263869, 263868]","['2017/07/18', '2017/09/18', '2018/08/02', '2018/10/03', '2019/08/02']","['Routine', 'Follow-Up', 'Routine', 'Follow-Up', 'Routine']","[92, 96, 84, 100, 100]","Fri, Mar 13, 2020 at 02:32 AM"
316,UPTOWN HUB,2905 GARFIELD AVE,44.94983,-93.28645,"[50339, 196865, 249321]","['2017/04/25', '2018/05/07', '2019/05/06']","['Routine', 'Routine', 'Routine']","[96, 100, 96]","Fri, Mar 13, 2020 at 02:32 AM"
317,VARSITY THEATRE,1308 4TH ST SE,44.98057,-93.23692,"[240361, 247873]","['2018/04/13', '2019/04/17']","['Routine', 'Routine']","[96, 96]","Fri, Mar 13, 2020 at 02:32 AM"
318,VITTLES,3507 23RD AVE S,44.93929,-93.23867,"[191902, 199767, 253443, 253442]","['2017/05/22', '2018/06/26', '2018/08/14', '2019/07/17']","['Routine', 'Routine', 'Follow-Up', 'Routine']","[98, 92, 96, 100]","Fri, Mar 13, 2020 at 02:32 AM"
319,W MINNEAPOLIS - THE FOSHAY,821 MARQUETTE AVE,44.97448,-93.2718,"[58445, 208287, 208286, 254897, 254896]","['2017/07/19', '2017/08/16', '2018/07/17', '2018/08/15', '2019/07/15']","['Routine', 'Follow-Up', 'Routine', 'Follow-Up', 'Routine']","[80, 96, 92, 100, 96]","Fri, Mar 13, 2020 at 02:32 AM"
320,WALKER PLACE,3701 BRYANT AVE S,44.93555,-93.29014,"[58706, 196291, 200975, 214082, 196290, 247827, 247826]","['2017/04/17', '2017/06/01', '2017/08/01', '2017/10/05', '2018/04/06', '2018/06/06', '2019/04/19']","['Routine', 'Follow-Up', 'Follow-Up', 'Follow-Up', 'Routine', 'Follow-Up', 'Routine']","[92, 92, 92, 96, 94, 100, 96]","Fri, Mar 13, 2020 at 02:32 AM"
321,WATER BAR & PUBLIC STUDIO,2518 CENTRAL AVE NE,45.01381,-93.24788,"[232282, 241784]","['2018/01/20', '2019/01/24']","['Routine', 'Routine']","[96, 94]","Fri, Mar 13, 2020 at 02:32 AM"
322,WELLINGTON ROOM,4300 WEST RIVER PKWY S #ATTN: TOM ,44.9246,-93.20606,"[65115, 220471, 270506, 270505]","['2017/08/22', '2018/09/05', '2018/10/23', '2019/08/22']","['Routine', 'Routine', 'Follow-Up', 'Routine']","[98, 80, 96, 100]","Fri, Mar 13, 2020 at 02:32 AM"
323,WESTIN MINNEAPOLIS,88 6TH ST S,44.97774,-93.27022,"[65295, 203801, 203800, 259648, 259647, 319525]","['2017/07/10', '2017/08/15', '2018/07/30', '2018/09/19', '2019/07/30', '2019/09/05']","['Routine', 'Follow-Up', 'Routine', 'Follow-Up', 'Routine', 'Follow-Up']","[70, 96, 62, 92, 84, 96]","Fri, Mar 13, 2020 at 02:32 AM"
324,WHOLE FOODS MARKET,3060 EXCELSIOR BLVD,44.94759,-93.32256,"[65475, 202200, 202199, 254650, 254649]","['2017/06/23', '2017/07/11', '2018/06/27', '2018/07/27', '2019/06/27']","['Routine', 'Follow-Up', 'Routine', 'Follow-Up', 'Routine']","[94, 98, 92, 96, 100]","Fri, Mar 13, 2020 at 02:32 AM"
325,WIILO COFFEE,311 LAKE ST W,44.94819,-93.28341,"[278183, 304850]","['2019/03/06', '2019/06/20']","['Routine', 'Follow-Up']","[88, 100]","Fri, Mar 13, 2020 at 02:32 AM"
326,WOMAN'S CLUB OF MPLS,410 OAK GROVE ST,44.96772,-93.28469,"[17632, 216086, 265761, 265760, 327249]","['2017/08/10', '2018/08/15', '2018/09/18', '2019/08/20', '2019/09/26']","['Routine', 'Routine', 'Follow-Up', 'Routine', 'Follow-Up']","[84, 88, 96, 80, 94]","Fri, Mar 13, 2020 at 02:32 AM"
327,ZEN BOX IZAKAYA,602 WASHINGTON AVE S,44.97341,-93.2299,"[24213, 196859, 248011]","['2017/04/25', '2018/04/17', '2019/05/22']","['Routine', 'Routine', 'Routine']","[96, 94, 100]","Fri, Mar 13, 2020 at 02:32 AM"
328,5TH STREET STATION,416 5TH AVE N,44.9859,-93.24746,[316382],['2019/07/26'],['Routine'],[96],"Fri, Mar 13, 2020 at 02:32 AM"
329,A CUPCAKE SOCIAL,3800 28TH AVE S,44.93395,-93.23234,"[44891, 191160, 245360, 245359]","['2017/02/22', '2018/03/01', '2018/05/03', '2019/03/08']","['Routine', 'Routine', 'Follow-Up', 'Routine']","[96, 96, 100, 98]","Fri, Mar 13, 2020 at 02:32 AM"
330,ABBOTT NORTHWESTERN HOSPITAL,800 28TH ST E,44.95458,-93.26133,"[51355, 195001, 195000, 247588, 247587]","['2017/04/05', '2017/05/04', '2018/04/09', '2018/05/08', '2019/04/11']","['Routine', 'Follow-Up', 'Routine', 'Follow-Up', 'Routine']","[92, 98, 92, 96, 98]","Fri, Mar 13, 2020 at 02:32 AM"
331,AFC SUSHI @ KOWALSKIS #5368,5327 LYNDALE AVE S,44.90559,-93.28761,"[51560, 202380, 253340]","['2017/06/22', '2018/06/25', '2019/06/20']","['Routine', 'Routine', 'Routine']","[98, 100, 100]","Fri, Mar 13, 2020 at 02:32 AM"
332,APOTHICARE,3722 CHICAGO AVE,44.93505,-93.26289,[267122],['2018/10/22'],['Routine'],[100],"Fri, Mar 13, 2020 at 02:32 AM"
333,AUGSBURG COLLEGE,2211 RIVERSIDE AVE,44.96561,-93.24177,"[18324, 232562]","['2017/11/08', '2019/11/15']","['Routine', 'Routine']","[100, 100]","Fri, Mar 13, 2020 at 02:32 AM"
334,BANGKOK MARKET & VIDEO RENTAL,3100 LYNDALE AVE N,45.01224,-93.28759,"[181006, 232660, 279659, 281507, 279658]","['2017/11/09', '2018/11/15', '2018/12/14', '2019/01/15', '2019/11/08']","['Routine', 'Routine', 'Follow-Up', 'Follow-Up', 'Routine']","[100, 90, 90, 98, 96]","Fri, Mar 13, 2020 at 02:32 AM"
335,BIRRAA RESTAURANT,12 FRANKLIN AVE E,44.96291,-93.27711,"[253958, 278903, 278902]","['2018/10/30', '2018/12/18', '2019/10/30']","['Routine', 'Follow-Up', 'Routine']","[90, 98, 96]","Fri, Mar 13, 2020 at 02:32 AM"
336,BLUE BELL ENTERPRISES INC,401 NICOLLET MALL,44.97939,-93.26955,"[217960, 218659, 218658, 266317, 266316, 325752]","['2017/08/16', '2017/10/12', '2018/08/20', '2018/09/21', '2019/08/21', '2019/09/27']","['Routine', 'Follow-Up', 'Routine', 'Follow-Up', 'Routine', 'Follow-Up']","[84, 98, 88, 100, 86, 98]","Fri, Mar 13, 2020 at 02:32 AM"
337,BRAVE NEW WORKSHOP,824 HENNEPIN AVE,44.97694,-93.27692,"[45446, 226817, 273511, 273510]","['2017/09/18', '2018/09/29', '2018/10/10', '2019/10/03']","['Routine', 'Routine', 'Follow-Up', 'Routine']","[96, 88, 98, 92]","Fri, Mar 13, 2020 at 02:32 AM"
338,CAFE & BAR LURCAT,1624 HARMON PL,44.97148,-93.28574,"[124234, 124233, 234251, 234250, 285065]","['2017/03/03', '2017/11/29', '2018/01/03', '2018/12/17', '2019/12/18']","['Follow-Up', 'Routine', 'Follow-Up', 'Routine', 'Routine']","[100, 92, 100, 96, 100]","Fri, Mar 13, 2020 at 02:32 AM"
339,CANDYLAND,811 LASALLE AVE,44.97592,-93.27444,"[11470, 225575, 225574]","['2017/09/12', '2017/10/10', '2019/03/06']","['Routine', 'Follow-Up', 'Routine']","[90, 98, 100]","Fri, Mar 13, 2020 at 02:32 AM"
340,CAPITAL CAFE,2425 FRANKLIN AVE E,44.96248,-93.23692,"[329360, 337340, 340124]","['2019/11/12', '2020/01/02', '2020/01/16']","['Routine', 'Follow-Up', 'Follow-Up']","[88, 90, 100]","Fri, Mar 13, 2020 at 02:32 AM"
341,CEDAR HALAL PIZZA AND DELI,3203 CEDAR AVE S,44.9445,-93.247,"[230936, 244946, 303778, 303777]","['2018/02/26', '2019/02/14', '2019/03/13', '2020/02/12']","['Routine', 'Routine', 'Follow-Up', 'Routine']","[100, 98, 100, 98]","Fri, Mar 13, 2020 at 02:32 AM"
342,CHOWGIRLS KILLER CATERING,711 15TH AVE NE,44.99384,-93.28835,"[246650, 248814]","['2018/04/08', '2019/05/30']","['Routine', 'Routine']","[100, 98]","Fri, Mar 13, 2020 at 02:32 AM"
343,COLUMBIA CAFE,3300 CENTRAL AVE NE,45.02732,-93.25528,[309506],['2019/06/18'],['Routine'],[96],"Fri, Mar 13, 2020 at 02:32 AM"
344,CREATE CATERING & CONSULTING,1121 JACKSON ST NE #145,44.99928,-93.24896,"[45853, 201155, 252679]","['2017/06/06', '2018/10/01', '2019/06/10']","['Routine', 'Routine', 'Routine']","[96, 90, 100]","Fri, Mar 13, 2020 at 02:32 AM"
345,CROWNE PLAZA - EXECUTIVE LOUNGE,618 2ND AVE S,44.97622,-93.26974,"[46079, 202678, 285801, 297642]","['2017/06/28', '2018/02/14', '2019/02/12', '2020/02/11']","['Routine', 'Routine', 'Routine', 'Routine']","[100, 94, 98, 98]","Fri, Mar 13, 2020 at 02:32 AM"
346,CUB FOODS #1587,4601 SNELLING AVE,44.91879,-93.21571,"[309828, 318027]","['2019/07/25', '2019/08/23']","['Routine', 'Follow-Up']","[90, 96]","Fri, Mar 13, 2020 at 02:32 AM"
347,D BRIANS DELI,800 NICOLLET MALL,44.97564,-93.27385,"[53270, 194296, 194295, 247945, 247944]","['2017/03/29', '2017/05/01', '2018/04/11', '2018/05/18', '2019/05/01']","['Routine', 'Follow-Up', 'Routine', 'Follow-Up', 'Routine']","[92, 92, 90, 96, 96]","Fri, Mar 13, 2020 at 02:32 AM"
348,D'AMICO CATERING AT THE ATRIUM,275 MARKET ST #C25,44.98119,-93.28917,"[53353, 202978, 202977, 256714, 254907]","['2017/06/22', '2017/08/25', '2018/07/19', '2018/09/24', '2019/07/18']","['Routine', 'Follow-Up', 'Routine', 'Follow-Up', 'Routine']","[98, 100, 94, 100, 92]","Fri, Mar 13, 2020 at 02:32 AM"
349,DECO CATERING,2010 HENNEPIN AVE E,44.99073,-93.22403,"[192459, 246417, 246416]","['2018/03/20', '2018/05/08', '2019/03/22']","['Routine', 'Follow-Up', 'Routine']","[84, 96, 96]","Fri, Mar 13, 2020 at 02:32 AM"
350,DELTA HOTEL,1330 INDUSTRIAL BLVD,45.00241,-93.21301,"[42080, 193093, 193092, 243272, 301082, 301081, 357163]","['2017/03/14', '2017/05/17', '2018/02/15', '2019/02/22', '2019/04/19', '2020/02/24', '2020/02/27']","['Routine', 'Follow-Up', 'Routine', 'Routine', 'Follow-Up', 'Routine', 'Follow-Up']","[96, 100, 98, 80, 100, 84, 98]","Fri, Mar 13, 2020 at 02:32 AM"
351,DOUBLETREE HOTEL,1101 LASALLE AVE,44.97314,-93.2768,"[251127, 251898]","['2018/06/04', '2019/05/30']","['Routine', 'Routine']","[96, 100]","Fri, Mar 13, 2020 at 02:32 AM"
352,DREAMGIRLS,12 5TH ST N,44.98012,-93.27276,[12300],['2018/07/13'],['Routine'],[100],"Fri, Mar 13, 2020 at 02:32 AM"
353,DURDUR BAKERY & GROCERY,1552 LAKE ST E,44.94878,-93.25147,"[19767, 192131, 254678, 254677]","['2017/01/13', '2018/07/09', '2018/08/13', '2020/01/02']","['Routine', 'Routine', 'Follow-Up', 'Routine']","[100, 98, 100, 98]","Fri, Mar 13, 2020 at 02:32 AM"
354,EL SABOR CHUCHI,717 LAKE ST E,44.94813,-93.26429,"[229290, 229355, 229354, 274612, 274611]","['2017/10/12', '2017/11/15', '2018/10/04', '2018/11/06', '2019/10/04']","['Routine', 'Follow-Up', 'Routine', 'Follow-Up', 'Routine']","[92, 98, 94, 98, 92]","Fri, Mar 13, 2020 at 02:32 AM"
355,ELLIOT PARK HOTEL,823 5TH AVE S,44.97226,-93.26597,"[272240, 279901]","['2018/11/16', '2019/11/06']","['Routine', 'Routine']","[100, 98]","Fri, Mar 13, 2020 at 02:32 AM"
356,EMERY,215 4TH ST S,44.97817,-93.26685,"[236502, 245357, 247146, 245356, 302274]","['2018/02/28', '2018/04/02', '2018/05/31', '2019/02/28', '2020/03/02']","['Routine', 'Follow-Up', 'Follow-Up', 'Routine', 'Routine']","[84, 94, 100, 98, 80]","Fri, Mar 13, 2020 at 02:32 AM"
357,EUREST DINING,90 HENNEPIN AVE,44.98568,-93.26717,"[32585, 195331, 195330, 247851]","['2017/04/14', '2017/04/24', '2018/04/12', '2019/04/19']","['Routine', 'Follow-Up', 'Routine', 'Routine']","[92, 100, 96, 96]","Fri, Mar 13, 2020 at 02:32 AM"
358,EUREST DINING SERVICES - THRIVENT,625 4TH AVE S #100,44.97478,-93.26571,"[32684, 205594, 259474, 319563]","['2017/07/18', '2018/07/31', '2019/07/31', '2019/09/10']","['Routine', 'Routine', 'Routine', 'Follow-Up']","[96, 100, 88, 100]","Fri, Mar 13, 2020 at 02:32 AM"
359,FLAG FOODS,2820 42ND ST E,44.92711,-93.23121,"[308153, 315022, 318019]","['2019/06/26', '2019/07/26', '2019/09/19']","['Routine', 'Follow-Up', 'Follow-Up']","[56, 84, 96]","Fri, Mar 13, 2020 at 02:32 AM"
360,GALEEYR COFFEE,2910 PILLSBURY AVE #302,44.94969,-93.2821,"[203705, 226623, 237086, 226622, 304540, 313976]","['2017/09/14', '2018/01/03', '2018/02/20', '2019/03/14', '2019/06/19', '2019/08/22']","['Routine', 'Follow-Up', 'Follow-Up', 'Routine', 'Follow-Up', 'Follow-Up']","[84, 94, 98, 70, 84, 100]","Fri, Mar 13, 2020 at 02:32 AM"
361,GAS/PLUS 4,4419 FRANCE AVE S,44.92182,-93.32883,"[295733, 295797, 295796]","['2019/02/05', '2019/03/08', '2020/02/05']","['Routine', 'Follow-Up', 'Routine']","[82, 100, 100]","Fri, Mar 13, 2020 at 02:32 AM"
362,GOLDERN FINGERS,1914 CHICAGO AVE,44.96315,-93.26296,"[247382, 252141, 252140, 313196]","['2018/06/05', '2018/07/09', '2019/05/31', '2019/07/31']","['Routine', 'Follow-Up', 'Routine', 'Follow-Up']","[92, 100, 74, 100]","Fri, Mar 13, 2020 at 02:32 AM"
363,GRADUATE MINNEAPOLIS HOTEL,615 WASHINGTON AVE SE,44.97419,-93.22952,"[249670, 254637, 315078]","['2018/07/16', '2019/07/09', '2019/09/27']","['Routine', 'Routine', 'Follow-Up']","[94, 78, 96]","Fri, Mar 13, 2020 at 02:32 AM"
364,GUSE GREEN GROCER,4602 BRYANT AVE S,44.91939,-93.29125,"[20334, 224932, 272527, 272526]","['2017/09/11', '2018/09/18', '2018/11/16', '2019/09/11']","['Routine', 'Routine', 'Follow-Up', 'Routine']","[100, 90, 92, 100]","Fri, Mar 13, 2020 at 02:32 AM"
365,HAMPTON INN & SUITES,19 8TH ST N,44.97681,-93.27563,"[20629, 230196, 275098, 332721]","['2017/10/17', '2018/10/04', '2019/10/03', '2019/10/28']","['Routine', 'Routine', 'Routine', 'Follow-Up']","[100, 100, 84, 96]","Fri, Mar 13, 2020 at 02:32 AM"
366,HAYAT RESTAURANT,1202 LAKE ST E,44.94861,-93.25718,"[321764, 333827]","['2019/10/15', '2019/11/13']","['Routine', 'Follow-Up']","[90, 100]","Fri, Mar 13, 2020 at 02:32 AM"
367,HENNEPIN THEATRE TRUST,900 HENNEPIN AVE,44.97654,-93.27743,"[237153, 247160]","['2018/03/23', '2019/04/12']","['Routine', 'Routine']","[100, 100]","Fri, Mar 13, 2020 at 02:32 AM"
368,HILLEL,1521 UNIVERSITY AVE SE,44.97889,-93.234,"[32912, 232277]","['2017/10/20', '2019/04/24']","['Routine', 'Routine']","[98, 96]","Fri, Mar 13, 2020 at 02:32 AM"
369,HISSHO SUSHI,1450 LAKE ST W,44.94865,-93.29984,"[33077, 191096, 245376, 245375]","['2017/02/14', '2018/03/05', '2018/05/01', '2019/03/22']","['Routine', 'Routine', 'Follow-Up', 'Routine']","[96, 96, 100, 98]","Fri, Mar 13, 2020 at 02:32 AM"
370,HOLIDAY STATION STORE #468,620 CENTRAL AVE NE,44.9902,-93.25133,"[243850, 251609, 251608]","['2018/05/24', '2018/07/06', '2019/11/21']","['Routine', 'Follow-Up', 'Routine']","[94, 100, 100]","Fri, Mar 13, 2020 at 02:32 AM"
371,HOLIDAY STATIONSTORE #332,4601 HIAWATHA AVE,44.91929,-93.21766,"[236363, 243726, 303036, 303035]","['2018/02/23', '2019/03/05', '2019/05/21', '2020/02/28']","['Routine', 'Routine', 'Follow-Up', 'Routine']","[96, 88, 100, 92]","Fri, Mar 13, 2020 at 02:32 AM"
372,HOLIDAY STATIONSTORE #461,1624 WASHINGTON AVE N,44.9958,-93.28105,"[236367, 243517]","['2018/02/21', '2019/02/25']","['Routine', 'Routine']","[96, 100]","Fri, Mar 13, 2020 at 02:32 AM"
373,HUI'S CHOW MEIN,1118 LOWRY AVE N,45.01297,-93.24292,"[39816, 223937, 271542]","['2017/08/30', '2018/09/12', '2019/09/17']","['Routine', 'Routine', 'Routine']","[96, 98, 96]","Fri, Mar 13, 2020 at 02:32 AM"
374,ILLUSION THEATER,528 HENNEPIN AVE,44.9794,-93.27351,"[40181, 185802]","['2017/01/12', '2019/01/23']","['Routine', 'Routine']","[100, 100]","Fri, Mar 13, 2020 at 02:32 AM"
375,JUBA COFFEE AND ICE CREAM,2910 PILLSBURY AVE,44.94969,-93.2821,"[61379, 61380, 230563, 230562, 275936, 333672]","['2017/01/12', '2017/10/18', '2017/11/27', '2018/10/16', '2019/10/16', '2019/11/26']","['Follow-Up', 'Routine', 'Follow-Up', 'Routine', 'Routine', 'Follow-Up']","[100, 90, 100, 96, 80, 96]","Fri, Mar 13, 2020 at 02:32 AM"
376,KAAH COFFEE,2429 FRANKLIN AVE E,44.96249,-93.2364,"[214785, 229305, 229304]","['2017/10/12', '2017/12/11', '2019/04/16']","['Routine', 'Follow-Up', 'Routine']","[92, 100, 98]","Fri, Mar 13, 2020 at 02:32 AM"
377,KIERAN'S IRISH PUB FIRST AVENUE,600 HENNEPIN AVE,44.98947,-93.2513,"[13010, 201510, 201509, 253788, 254414, 263833, 253787, 313632]","['2017/06/14', '2017/07/28', '2018/06/19', '2018/07/11', '2018/08/09', '2018/10/12', '2019/06/11', '2019/07/08']","['Routine', 'Follow-Up', 'Routine', 'Follow-Up', 'Follow-Up', 'Follow-Up', 'Routine', 'Follow-Up']","[88, 100, 86, 92, 90, 98, 90, 100]","Fri, Mar 13, 2020 at 02:32 AM"
378,KITCHEN WINDOW,3001 HENNEPIN AVE,44.94743,-93.29732,"[180591, 236540, 287184]","['2017/12/19', '2018/12/28', '2020/01/02']","['Routine', 'Routine', 'Routine']","[100, 100, 98]","Fri, Mar 13, 2020 at 02:32 AM"
379,KOWALSKIS PARKVIEW MARKET,5615 CHICAGO AVE,44.90088,-93.26233,"[125770, 125769, 236838, 236837, 285953]","['2017/02/01', '2017/12/19', '2018/01/29', '2018/12/20', '2019/02/17']","['Follow-Up', 'Routine', 'Follow-Up', 'Routine', 'Routine']","[94, 94, 100, 100, 98]","Fri, Mar 13, 2020 at 02:32 AM"
380,LAKE HARRIET PIZZA,5009 PENN AVE S,44.91194,-93.30832,"[27596, 189462, 243388, 243387, 302212]","['2017/01/24', '2018/02/13', '2018/04/12', '2019/02/28', '2019/04/17']","['Routine', 'Routine', 'Follow-Up', 'Routine', 'Follow-Up']","[100, 92, 100, 88, 100]","Fri, Mar 13, 2020 at 02:32 AM"
381,LAVAZZA COFFEE & COCKTAIL,2910 PILLSBURY AVE,44.94969,-93.2821,"[27890, 230759, 234120, 230758, 275944, 333356]","['2017/10/18', '2017/11/27', '2018/01/03', '2018/10/16', '2019/10/16', '2019/11/26']","['Routine', 'Follow-Up', 'Follow-Up', 'Routine', 'Routine', 'Follow-Up']","[86, 92, 96, 96, 90, 96]","Fri, Mar 13, 2020 at 02:32 AM"
382,LOEWS HOTEL - APOTHECARY RESTAURANT,601 1ST AVE N,44.97879,-93.27485,"[40295, 190223, 237049, 286499]","['2017/02/02', '2018/01/02', '2018/12/26', '2019/12/20']","['Routine', 'Routine', 'Routine', 'Routine']","[94, 100, 96, 98]","Fri, Mar 13, 2020 at 02:32 AM"
383,LUMINN HOTEL MINNEAPOLIS,219 4TH ST S,44.97799,-93.26645,"[230856, 236910, 236909, 275876]","['2017/12/29', '2018/01/16', '2018/10/16', '2019/10/22']","['Routine', 'Follow-Up', 'Routine', 'Routine']","[90, 100, 96, 96]","Fri, Mar 13, 2020 at 02:32 AM"
384,LUX BOTTLE CLUB,3836 4TH AVE S,44.93295,-93.2705,"[47915, 274649]","['2018/10/03', '2018/12/11']","['Routine', 'Follow-Up']","[98, 100]","Fri, Mar 13, 2020 at 02:32 AM"
385,MARKET PLACE,1300 NICOLLET MALL,44.97086,-93.27826,"[10053, 202127, 253152]","['2017/06/20', '2018/06/21', '2019/06/20']","['Routine', 'Routine', 'Routine']","[100, 96, 100]","Fri, Mar 13, 2020 at 02:32 AM"
386,MIDNORD EMPANADAS & CHURROS,520 4TH ST N,44.98493,-93.27707,[314750],['2019/09/24'],['Routine'],[94],"Fri, Mar 13, 2020 at 02:32 AM"
387,MILLENNIUM HOTEL,1313 NICOLLET MALL,44.97042,-93.27708,"[14395, 201307, 201306, 252157, 252156, 313229]","['2017/06/06', '2017/07/05', '2018/06/05', '2018/07/09', '2019/06/05', '2019/06/25']","['Routine', 'Follow-Up', 'Routine', 'Follow-Up', 'Routine', 'Follow-Up']","[88, 100, 84, 96, 76, 96]","Fri, Mar 13, 2020 at 02:32 AM"
388,MINNEAPOLIS ARMORY,500 6TH ST S,44.97517,-93.26353,"[237235, 247170, 247169]","['2018/03/29', '2018/04/27', '2019/04/06']","['Routine', 'Follow-Up', 'Routine']","[92, 100, 98]","Fri, Mar 13, 2020 at 02:32 AM"
389,"MINNEAPOLIS PIZZA HALAL, INC",717 LAKE ST E,44.94813,-93.26429,"[225512, 233209, 233208]","['2017/11/16', '2017/12/19', '2019/05/22']","['Routine', 'Follow-Up', 'Routine']","[100, 100, 94]","Fri, Mar 13, 2020 at 02:32 AM"
390,MINNESOTA HALAL MARKET,1926 CHICAGO AVE,44.96315,-93.26296,"[21785, 197601, 228056, 228055, 304545, 308373]","['2017/05/03', '2017/10/05', '2017/11/07', '2019/03/19', '2019/04/16', '2019/05/16']","['Routine', 'Routine', 'Follow-Up', 'Routine', 'Follow-Up', 'Follow-Up']","[100, 94, 100, 90, 90, 100]","Fri, Mar 13, 2020 at 02:32 AM"
391,MPLS AERIE #34 F O E,2507 25TH ST E,44.95712,-93.23579,"[34781, 224330, 224329, 271762, 271761, 329389]","['2017/09/05', '2017/11/02', '2018/09/13', '2018/10/30', '2019/09/12', '2019/11/11']","['Routine', 'Follow-Up', 'Routine', 'Follow-Up', 'Routine', 'Follow-Up']","[80, 98, 90, 100, 84, 92]","Fri, Mar 13, 2020 at 02:32 AM"
392,MY HUONG KITCHEN,2718 NICOLLET AVE #101B,44.95308,-93.27841,"[35079, 194139, 247195]","['2017/03/28', '2018/03/30', '2019/03/28']","['Routine', 'Routine', 'Routine']","[100, 100, 96]","Fri, Mar 13, 2020 at 02:32 AM"
393,NEW YORK GYRO,312 LAKE ST W,44.94859,-93.27185,"[230943, 234634, 236859, 234633, 280671, 337980, 340590, 349680]","['2017/11/28', '2017/12/28', '2018/02/20', '2018/11/29', '2019/11/25', '2020/01/09', '2020/01/23', '2020/02/05']","['Routine', 'Follow-Up', 'Follow-Up', 'Routine', 'Routine', 'Follow-Up', 'Follow-Up', 'Follow-Up']","[76, 88, 96, 92, 68, 78, 86, 96]","Fri, Mar 13, 2020 at 02:32 AM"
394,NOGOB COFFEE SHOP,912 24TH ST E #B133,44.95968,-93.26037,"[48651, 190338, 242426]","['2017/02/10', '2018/02/07', '2019/02/01']","['Routine', 'Routine', 'Routine']","[100, 100, 98]","Fri, Mar 13, 2020 at 02:32 AM"
395,NUMBER FRY N GRILL,1922 CLINTON AVE,44.96298,-93.27185,"[191935, 197677, 197676, 249057, 249056]","['2017/05/02', '2017/06/29', '2018/05/02', '2018/07/10', '2019/07/03']","['Routine', 'Follow-Up', 'Routine', 'Follow-Up', 'Routine']","[74, 96, 92, 100, 96]","Fri, Mar 13, 2020 at 02:32 AM"
396,OUTDOOR GRILL NORTH PLAZA,300 6TH ST S,44.97632,-93.26625,"[199822, 251229]","['2018/05/22', '2019/05/23']","['Routine', 'Routine']","[98, 98]","Fri, Mar 13, 2020 at 02:32 AM"
397,PARK JAVA,300 6TH ST S,44.97632,-93.26625,"[22099, 232520, 279682]","['2017/11/08', '2018/11/15', '2019/11/15']","['Routine', 'Routine', 'Routine']","[100, 100, 98]","Fri, Mar 13, 2020 at 02:32 AM"
398,PATIENT SERVICES CAFETERIA,2525 CHICAGO AVE,44.95662,-93.26173,"[25828, 188229, 241156, 290952]","['2017/01/17', '2018/01/18', '2019/01/21', '2020/01/24']","['Routine', 'Routine', 'Routine', 'Routine']","[96, 96, 96, 92]","Fri, Mar 13, 2020 at 02:32 AM"
399,RADISSON RED MINNEAPOLIS DOWNTOWN,609 3RD ST S,44.97676,-93.26034,"[41817, 181387, 241201, 243103, 241200, 290791]","['2017/01/12', '2018/01/16', '2018/02/07', '2018/04/10', '2019/01/14', '2020/01/16']","['Routine', 'Routine', 'Follow-Up', 'Follow-Up', 'Routine', 'Routine']","[94, 88, 88, 100, 100, 92]","Fri, Mar 13, 2020 at 02:32 AM"
400,RIVER OF LIFE LUTHERAN CHURCH,1110 22ND AVE N,45.00171,-93.2949,"[124561, 234381, 280289]","['2017/11/29', '2018/11/27', '2019/11/26']","['Routine', 'Routine', 'Routine']","[98, 100, 94]","Fri, Mar 13, 2020 at 02:32 AM"
401,ROGER'S MARKET,2007 GLENWOOD AVE,44.98047,-93.30615,"[56703, 217962, 265431, 265430]","['2017/08/03', '2018/08/02', '2018/09/26', '2019/08/02']","['Routine', 'Routine', 'Follow-Up', 'Routine']","[96, 96, 100, 100]","Fri, Mar 13, 2020 at 02:32 AM"
402,ROYAL COFFEE & RESTAURANT,912 24TH ST E #B131/132,44.95968,-93.26037,"[231113, 232336, 232335, 277010, 280940, 277009, 334593, 337985]","['2017/11/06', '2017/12/05', '2018/10/23', '2018/12/04', '2019/01/10', '2019/10/23', '2019/11/26', '2019/12/23']","['Routine', 'Follow-Up', 'Routine', 'Follow-Up', 'Follow-Up', 'Routine', 'Follow-Up', 'Follow-Up']","[96, 100, 86, 94, 100, 80, 88, 96]","Fri, Mar 13, 2020 at 02:32 AM"
403,SAINT PAUL'S EPISCOPAL CHURCH,1917 LOGAN AVE S,44.96359,-93.30289,"[63505, 200115, 252640]","['2017/05/10', '2018/05/16', '2019/05/16']","['Routine', 'Routine', 'Routine']","[96, 96, 96]","Fri, Mar 13, 2020 at 02:32 AM"
404,SEBASTIAN JOE'S ICE CREAM,1007 FRANKLIN AVE W,44.96244,-93.25933,"[124067, 124066, 251940, 251939]","['2017/01/09', '2018/06/01', '2018/08/30', '2019/12/06']","['Follow-Up', 'Routine', 'Follow-Up', 'Routine']","[96, 90, 98, 100]","Fri, Mar 13, 2020 at 02:32 AM"
405,SHERATON/THE GREAT ROOM,2901 CHICAGO AVE,44.94996,-93.26203,"[243481, 244844, 244843, 307295]","['2018/02/27', '2018/03/28', '2019/03/04', '2020/02/28']","['Routine', 'Follow-Up', 'Routine', 'Routine']","[96, 100, 100, 78]","Fri, Mar 13, 2020 at 02:32 AM"
406,SODEXO @ ALLINA COMMONS,2925 CHICAGO AVE,44.94931,-93.26076,"[309165, 314536]","['2019/06/25', '2019/08/16']","['Routine', 'Follow-Up']","[88, 94]","Fri, Mar 13, 2020 at 02:32 AM"
407,SPEEDWAY,1847 JOHNSON ST NE,45.00757,-93.2368,[315384],['2019/09/13'],['Routine'],[94],"Fri, Mar 13, 2020 at 02:32 AM"
408,STATE THEATRE,805 HENNEPIN AVE,44.97662,-93.27574,"[42550, 233384]","['2017/11/15', '2019/11/22']","['Routine', 'Routine']","[96, 98]","Fri, Mar 13, 2020 at 02:32 AM"
409,SUNSHINE,3300 4TH AVE S,44.94303,-93.27061,"[49840, 230816]","['2017/10/23', '2019/04/16']","['Routine', 'Routine']","[100, 100]","Fri, Mar 13, 2020 at 02:32 AM"
410,SUPER MERCADO MORELIA LLC,1417 LAKE ST E #1ST FL,44.94813,-93.25406,"[180147, 180146, 236217, 286085]","['2017/02/10', '2017/12/18', '2018/12/12', '2019/12/10']","['Follow-Up', 'Routine', 'Routine', 'Routine']","[100, 96, 94, 100]","Fri, Mar 13, 2020 at 02:32 AM"
411,SUPERAMERICA #4024,2501 HENNEPIN AVE,44.957,-93.29529,"[57409, 195199]","['2017/04/12', '2018/10/12']","['Routine', 'Routine']","[96, 96]","Fri, Mar 13, 2020 at 02:32 AM"
412,SUPERAMERICA #4135,4001 LYNDALE AVE S,44.9302,-93.28784,"[57536, 235105, 235104]","['2017/12/06', '2018/01/17', '2019/05/31']","['Routine', 'Follow-Up', 'Routine']","[88, 96, 100]","Fri, Mar 13, 2020 at 02:32 AM"
413,SUPERAMERICA #4172,3806 LAKE ST W,44.9487,-93.32781,"[57642, 243392, 321255]","['2018/02/08', '2019/08/05', '2019/10/02']","['Routine', 'Routine', 'Follow-Up']","[98, 88, 96]","Fri, Mar 13, 2020 at 02:32 AM"
414,SUPERAMERICA #4382,3744 CHICAGO AVE,44.93439,-93.2629,"[57796, 224342, 224341]","['2017/08/30', '2017/10/19', '2019/03/07']","['Routine', 'Follow-Up', 'Routine']","[88, 98, 98]","Fri, Mar 13, 2020 at 02:32 AM"
415,TARGET STORE  #T0052,2500 LAKE ST E,44.94935,-93.23625,"[17269, 241220, 241219]","['2018/01/19', '2018/03/01', '2019/07/23']","['Routine', 'Follow-Up', 'Routine']","[94, 100, 100]","Fri, Mar 13, 2020 at 02:32 AM"
416,THE GRAND HOTEL MINNEAPOLIS,615 2ND AVE S,44.97595,-93.26882,"[303332, 338510]","['2019/12/09', '2020/01/07']","['Routine', 'Follow-Up']","[72, 94]","Fri, Mar 13, 2020 at 02:32 AM"
417,UNITED NOODLES,2015 24TH ST E,44.95817,-93.24255,"[43642, 230099, 230098, 275298, 275297, 333863]","['2017/10/17', '2017/12/12', '2018/10/11', '2018/11/13', '2019/10/11', '2019/12/09']","['Routine', 'Follow-Up', 'Routine', 'Follow-Up', 'Routine', 'Follow-Up']","[86, 100, 76, 100, 74, 100]","Fri, Mar 13, 2020 at 02:32 AM"
418,VO'S VIETNAMESE RESTAURANT,3450 LYNDALE AVE S,45.01816,-93.2876,"[58260, 190571, 189747, 243510, 243509, 301803, 301802]","['2017/01/31', '2017/03/23', '2018/02/14', '2018/04/04', '2019/02/26', '2019/04/19', '2020/03/04']","['Routine', 'Follow-Up', 'Routine', 'Follow-Up', 'Routine', 'Follow-Up', 'Routine']","[96, 100, 88, 98, 90, 100, 100]","Fri, Mar 13, 2020 at 02:32 AM"
419,WACAN RESTAURANT LLC,2910 PILLSBURY AVE #207,44.94982,-93.2822,"[227123, 232716, 247520, 232718, 286268, 286267, 354993]","['2017/11/07', '2018/02/20', '2018/04/27', '2018/12/20', '2019/02/06', '2020/02/13', '2020/02/20']","['Routine', 'Follow-Up', 'Follow-Up', 'Routine', 'Follow-Up', 'Routine', 'Follow-Up']","[90, 92, 96, 86, 98, 70, 100]","Fri, Mar 13, 2020 at 02:32 AM"
420,WHOLE FOODS MARKET,222 HENNEPIN AVE #A,44.98296,-93.26904,"[65541, 232440, 232439, 279269]","['2017/10/30', '2018/05/22', '2018/11/08', '2019/11/06']","['Routine', 'Follow-Up', 'Routine', 'Routine']","[86, 100, 92, 94]","Fri, Mar 13, 2020 at 02:32 AM"
421,WIILO FOOD DISTRIBUTOR,2910 PILLSBURY AVE #228,44.94969,-93.2821,"[232757, 249607, 279103, 279102, 337263]","['2018/01/12', '2018/11/07', '2018/12/20', '2019/11/14', '2019/12/17']","['Routine', 'Routine', 'Follow-Up', 'Routine', 'Follow-Up']","[100, 90, 96, 86, 100]","Fri, Mar 13, 2020 at 02:32 AM"
422,A SLICE OF NEW YORK,2407 NICOLLET AVE,44.95892,-93.27745,"[51319, 201078, 201077, 251943, 251942, 313461]","['2017/06/06', '2017/07/13', '2018/06/04', '2018/07/24', '2019/06/06', '2019/07/24']","['Routine', 'Follow-Up', 'Routine', 'Follow-Up', 'Routine', 'Follow-Up']","[86, 100, 90, 96, 90, 98]","Fri, Mar 13, 2020 at 02:32 AM"
423,AUGUSTANA COMMUNITY PARTNERS,350 VAN WHITE MEMORIAL BLVD,44.98128,-93.29408,"[180806, 231709, 279764]","['2017/10/26', '2018/11/19', '2019/11/19']","['Routine', 'Routine', 'Routine']","[98, 100, 96]","Fri, Mar 13, 2020 at 02:32 AM"
424,CROWNE PLAZA NORTHSTAR,618 2ND AVE S,44.97622,-93.26974,"[46061, 190563, 189900, 242983, 242982, 297621, 297620, 354929]","['2017/02/01', '2017/03/17', '2018/02/14', '2018/03/16', '2019/02/12', '2019/03/26', '2020/02/11', '2020/02/25']","['Routine', 'Follow-Up', 'Routine', 'Follow-Up', 'Routine', 'Follow-Up', 'Routine', 'Follow-Up']","[90, 96, 74, 90, 90, 100, 82, 92]","Fri, Mar 13, 2020 at 02:32 AM"
425,DOWNTOWN MARKET,150 2ND AVE S,44.98222,-93.26498,"[12189, 232524, 232523, 274941, 274940]","['2017/11/08', '2017/12/08', '2018/10/05', '2018/11/30', '2019/10/04']","['Routine', 'Follow-Up', 'Routine', 'Follow-Up', 'Routine']","[94, 100, 98, 100, 98]","Fri, Mar 13, 2020 at 02:32 AM"
426,EUREST DINING @ AMERIPRISE,901 3RD AVE S,44.97244,-93.26947,"[32638, 194745, 247943, 247942]","['2017/04/07', '2018/04/11', '2018/05/09', '2019/04/30']","['Routine', 'Routine', 'Follow-Up', 'Routine']","[100, 96, 100, 100]","Fri, Mar 13, 2020 at 02:32 AM"
427,GOOD TO GO,200 6TH ST S,44.9769,-93.26762,"[12442, 190588, 189825, 242869, 298385]","['2017/02/02', '2017/03/27', '2018/02/14', '2019/02/13', '2019/04/10']","['Routine', 'Follow-Up', 'Routine', 'Routine', 'Follow-Up']","[80, 100, 96, 94, 100]","Fri, Mar 13, 2020 at 02:32 AM"
428,HISTORIC MACHINE SHOP RESTAURANT,300 2ND ST SE,44.98098,-93.26237,"[33096, 211485, 263862]","['2017/07/25', '2018/08/07', '2019/08/01']","['Routine', 'Routine', 'Routine']","[98, 98, 98]","Fri, Mar 13, 2020 at 02:32 AM"
429,HOLIDAY STATIONSTORE #209,2448 HENNEPIN AVE,44.9577,-93.29563,"[236361, 245141]","['2018/02/26', '2019/03/18']","['Routine', 'Routine']","[100, 100]","Fri, Mar 13, 2020 at 02:32 AM"
430,HOLIDAY STATIONSTORE #69,2322 WASHINGTON AVE N,45.0034,-93.28134,"[236359, 243502]","['2018/02/21', '2019/02/25']","['Routine', 'Routine']","[100, 98]","Fri, Mar 13, 2020 at 02:32 AM"
431,HYATT REGENCY - CLUB LOUNGE,1300 NICOLLET MALL,44.97086,-93.27826,"[39866, 202137, 253518]","['2017/06/20', '2018/06/22', '2019/06/20']","['Routine', 'Routine', 'Routine']","[98, 100, 100]","Fri, Mar 13, 2020 at 02:32 AM"
432,LAKE WINE & SPIRITS,404 LAKE ST W,44.94865,-93.2847,"[27706, 196769, 196768]","['2017/04/25', '2017/05/30', '2018/10/12']","['Routine', 'Follow-Up', 'Routine']","[86, 100, 98]","Fri, Mar 13, 2020 at 02:32 AM"
433,LUNDS - LAKE STREET,1450 LAKE ST W,44.94865,-93.29984,"[47822, 193036, 247491, 247490]","['2017/03/17', '2018/04/02', '2018/05/01', '2019/04/11']","['Routine', 'Routine', 'Follow-Up', 'Routine']","[100, 98, 100, 92]","Fri, Mar 13, 2020 at 02:32 AM"
434,MIDTOWN GLOBAL MARKET,920 LAKE ST E,44.94931,-93.26076,"[227528, 227605, 227604, 272872, 272871]","['2017/10/04', '2017/11/16', '2018/09/25', '2018/11/02', '2019/09/19']","['Routine', 'Follow-Up', 'Routine', 'Follow-Up', 'Routine']","[100, 100, 100, 100, 100]","Fri, Mar 13, 2020 at 02:32 AM"
435,MINNEAPOLIS EVENT CENTER,212 2ND ST SE,44.98464,-93.25398,"[274987, 287264]","['2019/01/14', '2020/01/28']","['Routine', 'Routine']","[100, 94]","Fri, Mar 13, 2020 at 02:32 AM"
436,NEWS ROOM,990 NICOLLET MALL,44.97479,-93.27499,"[124151, 30098, 224720, 224719, 270300, 327281, 330497]","['2017/05/01', '2017/09/06', '2017/09/25', '2018/09/05', '2019/08/26', '2019/09/26', '2019/10/16']","['Follow-Up', 'Routine', 'Follow-Up', 'Routine', 'Routine', 'Follow-Up', 'Follow-Up']","[100, 90, 98, 100, 68, 90, 96]","Fri, Mar 13, 2020 at 02:32 AM"
437,SPEEDWAY #4388,101 GRANT ST W,44.9696,-93.27961,"[57826, 226749, 226748, 287236]","['2017/09/25', '2017/11/06', '2019/01/04', '2020/01/02']","['Routine', 'Follow-Up', 'Routine', 'Routine']","[92, 96, 100, 98]","Fri, Mar 13, 2020 at 02:32 AM"
438,SUPER USA,3807 FREMONT AVE N,45.02424,-93.296,"[287819, 308086, 309923]","['2019/04/01', '2019/05/07', '2019/06/03']","['Routine', 'Follow-Up', 'Follow-Up']","[86, 92, 98]","Fri, Mar 13, 2020 at 02:32 AM"
439,SUPERAMERICA #4165,5101 34TH AVE S,44.91056,-93.22248,"[57586, 224825, 224824]","['2017/09/07', '2017/10/10', '2019/03/12']","['Routine', 'Follow-Up', 'Routine']","[96, 96, 96]","Fri, Mar 13, 2020 at 02:32 AM"
440,TARGET T3239,1300 LAKE ST W,44.94866,-93.29611,"[233149, 242750]","['2018/02/07', '2019/08/09']","['Routine', 'Routine']","[98, 100]","Fri, Mar 13, 2020 at 02:32 AM"
441,UNIVERSITY OF ST THOMAS,1000 LASALLE AVE #UNIV,44.97624,-93.276,"[43748, 232152, 278878, 333856]","['2017/11/01', '2018/11/01', '2019/10/16', '2019/11/18']","['Routine', 'Routine', 'Routine', 'Follow-Up']","[100, 96, 78, 96]","Fri, Mar 13, 2020 at 02:32 AM"
442,EVERGREEN GROCERY & DELI,2109 NICOLLET AVE,44.96158,-93.27747,"[235290, 248257]","['2018/04/13', '2019/10/11']","['Routine', 'Routine']","[94, 92]","Fri, Mar 13, 2020 at 02:32 AM"
443,HOLIDAY STATIONSTORE #407,3550 CEDAR AVE S,44.93801,-93.24776,"[236892, 246614, 246613]","['2018/03/20', '2018/04/19', '2019/03/27']","['Routine', 'Follow-Up', 'Routine']","[98, 100, 100]","Fri, Mar 13, 2020 at 02:32 AM"
444,SUPERAMERICA #4056,300 BROADWAY ST NE,44.99844,-93.26284,"[57467, 236429, 236428]","['2017/12/19', '2018/01/18', '2019/06/19']","['Routine', 'Follow-Up', 'Routine']","[92, 96, 96]","Fri, Mar 13, 2020 at 02:32 AM"
